"AREACODE","AREANAME","COUNTRY","PROVINCE","CITY","CANTON"
"150783","内蒙古自治区呼伦贝尔市扎兰屯市","中华人民共和国","内蒙古自治区","呼伦贝尔市","扎兰屯市"
"150784","内蒙古自治区呼伦贝尔市额尔古纳市","中华人民共和国","内蒙古自治区","呼伦贝尔市","额尔古纳市"
"150800","内蒙古自治区巴彦淖尔市","中华人民共和国","内蒙古自治区","巴彦淖尔市",""
"150802","内蒙古自治区巴彦淖尔市临河区","中华人民共和国","内蒙古自治区","巴彦淖尔市","临河区"
"150822","内蒙古自治区巴彦淖尔市磴口县","中华人民共和国","内蒙古自治区","巴彦淖尔市","磴口县"
"150824","内蒙古自治区巴彦淖尔市乌拉特中旗","中华人民共和国","内蒙古自治区","巴彦淖尔市","乌拉特中旗"
"150825","内蒙古自治区巴彦淖尔市乌拉特后旗","中华人民共和国","内蒙古自治区","巴彦淖尔市","乌拉特后旗"
"150900","内蒙古自治区乌兰察布市","中华人民共和国","内蒙古自治区","乌兰察布市",""
"150902","内蒙古自治区乌兰察布市集宁区","中华人民共和国","内蒙古自治区","乌兰察布市","集宁区"
"150922","内蒙古自治区乌兰察布市化德县","中华人民共和国","内蒙古自治区","乌兰察布市","化德县"
"150924","内蒙古自治区乌兰察布市兴和县","中华人民共和国","内蒙古自治区","乌兰察布市","兴和县"
"150925","内蒙古自治区乌兰察布市凉城县","中华人民共和国","内蒙古自治区","乌兰察布市","凉城县"
"150927","内蒙古自治区乌兰察布市察哈尔右翼中旗","中华人民共和国","内蒙古自治区","乌兰察布市","察哈尔右翼中旗"
"150929","内蒙古自治区乌兰察布市四子王旗","中华人民共和国","内蒙古自治区","乌兰察布市","四子王旗"
"150981","内蒙古自治区乌兰察布市丰镇市","中华人民共和国","内蒙古自治区","乌兰察布市","丰镇市"
"152200","内蒙古自治区兴安盟","中华人民共和国","内蒙古自治区","兴安盟",""
"152202","内蒙古自治区兴安盟阿尔山市","中华人民共和国","内蒙古自治区","兴安盟","阿尔山市"
"152222","内蒙古自治区兴安盟科尔沁右翼中旗","中华人民共和国","内蒙古自治区","兴安盟","科尔沁右翼中旗"
"152223","内蒙古自治区兴安盟扎赉特旗","中华人民共和国","内蒙古自治区","兴安盟","扎赉特旗"
"152500","内蒙古自治区锡林郭勒盟","中华人民共和国","内蒙古自治区","锡林郭勒盟",""
"152502","内蒙古自治区锡林郭勒盟锡林浩特市","中华人民共和国","内蒙古自治区","锡林郭勒盟","锡林浩特市"
"152522","内蒙古自治区锡林郭勒盟阿巴嘎旗","中华人民共和国","内蒙古自治区","锡林郭勒盟","阿巴嘎旗"
"152524","内蒙古自治区锡林郭勒盟苏尼特右旗","中华人民共和国","内蒙古自治区","锡林郭勒盟","苏尼特右旗"
"152525","内蒙古自治区锡林郭勒盟东乌珠穆沁旗","中华人民共和国","内蒙古自治区","锡林郭勒盟","东乌珠穆沁旗"
"152527","内蒙古自治区锡林郭勒盟太仆寺旗","中华人民共和国","内蒙古自治区","锡林郭勒盟","太仆寺旗"
"152528","内蒙古自治区锡林郭勒盟镶黄旗","中华人民共和国","内蒙古自治区","锡林郭勒盟","镶黄旗"
"152530","内蒙古自治区锡林郭勒盟正蓝旗","中华人民共和国","内蒙古自治区","锡林郭勒盟","正蓝旗"
"152531","内蒙古自治区锡林郭勒盟多伦县","中华人民共和国","内蒙古自治区","锡林郭勒盟","多伦县"
"152601","内蒙古自治区二连浩特市市辖区","中华人民共和国","内蒙古自治区","二连浩特市","市辖区"
"152701","内蒙古自治区满洲里市市辖区","中华人民共和国","内蒙古自治区","满洲里市","市辖区"
"152900","内蒙古自治区阿拉善盟","中华人民共和国","内蒙古自治区","阿拉善盟",""
"152903","内蒙古自治区阿拉善盟阿拉善移民生态示范区","中华人民共和国","内蒙古自治区","阿拉善盟","阿拉善移民生态示范区"
"152922","内蒙古自治区阿拉善盟阿拉善右旗","中华人民共和国","内蒙古自治区","阿拉善盟","阿拉善右旗"
"152923","内蒙古自治区阿拉善盟额济纳旗","中华人民共和国","内蒙古自治区","阿拉善盟","额济纳旗"
"210100","辽宁省沈阳市","中华人民共和国","辽宁省","沈阳市",""
"210103","辽宁省沈阳市沈河区","中华人民共和国","辽宁省","沈阳市","沈河区"
"210105","辽宁省沈阳市皇姑区","中华人民共和国","辽宁省","沈阳市","皇姑区"
"210112","辽宁省沈阳市东陵区","中华人民共和国","辽宁省","沈阳市","东陵区"
"210113","辽宁省沈阳市沈北新区","中华人民共和国","辽宁省","沈阳市","沈北新区"
"210124","辽宁省沈阳市法库县","中华人民共和国","辽宁省","沈阳市","法库县"
"210181","辽宁省沈阳市新民市","中华人民共和国","辽宁省","沈阳市","新民市"
"210204","辽宁省大连市沙河口区","中华人民共和国","辽宁省","大连市","沙河口区"
"210212","辽宁省大连市旅顺口区","中华人民共和国","辽宁省","大连市","旅顺口区"
"210281","辽宁省大连市瓦房店市","中华人民共和国","辽宁省","大连市","瓦房店市"
"210282","辽宁省大连市普兰店市","中华人民共和国","辽宁省","大连市","普兰店市"
"210303","辽宁省鞍山市铁西区","中华人民共和国","辽宁省","鞍山市","铁西区"
"210321","辽宁省鞍山市台安县","中华人民共和国","辽宁省","鞍山市","台安县"
"210381","辽宁省鞍山市海城市","中华人民共和国","辽宁省","鞍山市","海城市"
"210400","辽宁省抚顺市","中华人民共和国","辽宁省","抚顺市",""
"210404","辽宁省抚顺市望花区","中华人民共和国","辽宁省","抚顺市","望花区"
"210421","辽宁省抚顺市抚顺县","中华人民共和国","辽宁省","抚顺市","抚顺县"
"210500","辽宁省本溪市","中华人民共和国","辽宁省","本溪市",""
"210502","辽宁省本溪市平山区","中华人民共和国","辽宁省","本溪市","平山区"
"210521","辽宁省本溪市本溪满族自治县","中华人民共和国","辽宁省","本溪市","本溪满族自治县"
"210602","辽宁省丹东市元宝区","中华人民共和国","辽宁省","丹东市","元宝区"
"210604","辽宁省丹东市振安区","中华人民共和国","辽宁省","丹东市","振安区"
"210624","辽宁省丹东市宽甸满族自治县","中华人民共和国","辽宁省","丹东市","宽甸满族自治县"
"210702","辽宁省锦州市古塔区","中华人民共和国","辽宁省","锦州市","古塔区"
"210711","辽宁省锦州市太和区","中华人民共和国","辽宁省","锦州市","太和区"
"210781","辽宁省锦州市凌海市","中华人民共和国","辽宁省","锦州市","凌海市"
"210800","辽宁省营口市","中华人民共和国","辽宁省","营口市",""
"210804","辽宁省营口市鲅鱼圈区","中华人民共和国","辽宁省","营口市","鲅鱼圈区"
"210881","辽宁省营口市盖州市","中华人民共和国","辽宁省","营口市","盖州市"
"210902","辽宁省阜新市海州区","中华人民共和国","辽宁省","阜新市","海州区"
"210904","辽宁省阜新市太平区","中华人民共和国","辽宁省","阜新市","太平区"
"210921","辽宁省阜新市阜新蒙古族自治县","中华人民共和国","辽宁省","阜新市","阜新蒙古族自治县"
"211000","辽宁省辽阳市","中华人民共和国","辽宁省","辽阳市",""
"211004","辽宁省辽阳市宏伟区","中华人民共和国","辽宁省","辽阳市","宏伟区"
"211011","辽宁省辽阳市太子河区","中华人民共和国","辽宁省","辽阳市","太子河区"
"211100","辽宁省盘锦市","中华人民共和国","辽宁省","盘锦市",""
"211102","辽宁省盘锦市双台子区","中华人民共和国","辽宁省","盘锦市","双台子区"
"211200","辽宁省铁岭市","中华人民共和国","辽宁省","铁岭市",""
"211202","辽宁省铁岭市银州区","中华人民共和国","辽宁省","铁岭市","银州区"
"211224","辽宁省铁岭市昌图县","中华人民共和国","辽宁省","铁岭市","昌图县"
"211281","辽宁省铁岭市调兵山市","中华人民共和国","辽宁省","铁岭市","调兵山市"
"211300","辽宁省朝阳市","中华人民共和国","辽宁省","朝阳市",""
"211321","辽宁省朝阳市朝阳县","中华人民共和国","辽宁省","朝阳市","朝阳县"
"211381","辽宁省朝阳市北票市","中华人民共和国","辽宁省","朝阳市","北票市"
"211400","辽宁省葫芦岛市","中华人民共和国","辽宁省","葫芦岛市",""
"211403","辽宁省葫芦岛市龙港区","中华人民共和国","辽宁省","葫芦岛市","龙港区"
"211404","辽宁省葫芦岛市南票区","中华人民共和国","辽宁省","葫芦岛市","南票区"
"219000","辽宁省省直辖县级行政区划","中华人民共和国","辽宁省","省直辖县级行政区划",""
"220000","吉林省","中华人民共和国","吉林省","",""
"220103","吉林省长春市宽城区","中华人民共和国","吉林省","长春市","宽城区"
"220104","吉林省长春市朝阳区","中华人民共和国","吉林省","长春市","朝阳区"
"220122","吉林省长春市农安县","中华人民共和国","吉林省","长春市","农安县"
"220181","吉林省长春市九台市","中华人民共和国","吉林省","长春市","九台市"
"220202","吉林省吉林市昌邑区","中华人民共和国","吉林省","吉林市","昌邑区"
"220204","吉林省吉林市船营区","中华人民共和国","吉林省","吉林市","船营区"
"220281","吉林省吉林市蛟河市","中华人民共和国","吉林省","吉林市","蛟河市"
"220282","吉林省吉林市桦甸市","中华人民共和国","吉林省","吉林市","桦甸市"
"220302","吉林省四平市铁西区","中华人民共和国","吉林省","四平市","铁西区"
"220322","吉林省四平市梨树县","中华人民共和国","吉林省","四平市","梨树县"
"220382","吉林省四平市双辽市","中华人民共和国","吉林省","四平市","双辽市"
"220402","吉林省辽源市龙山区","中华人民共和国","吉林省","辽源市","龙山区"
"220422","吉林省辽源市东辽县","中华人民共和国","吉林省","辽源市","东辽县"
"220500","吉林省通化市","中华人民共和国","吉林省","通化市",""
"220503","吉林省通化市二道江区","中华人民共和国","吉林省","通化市","二道江区"
"220521","吉林省通化市通化县","中华人民共和国","吉林省","通化市","通化县"
"220524","吉林省通化市柳河县","中华人民共和国","吉林省","通化市","柳河县"
"220582","吉林省通化市集安市","中华人民共和国","吉林省","通化市","集安市"
"220600","吉林省白山市","中华人民共和国","吉林省","白山市",""
"220602","吉林省白山市八道江区","中华人民共和国","吉林省","白山市","八道江区"
"220621","吉林省白山市抚松县","中华人民共和国","吉林省","白山市","抚松县"
"220622","吉林省白山市靖宇县","中华人民共和国","吉林省","白山市","靖宇县"
"220681","吉林省白山市临江市","中华人民共和国","吉林省","白山市","临江市"
"220700","吉林省松原市","中华人民共和国","吉林省","松原市",""
"220702","吉林省松原市宁江区","中华人民共和国","吉林省","松原市","宁江区"
"220722","吉林省松原市长岭县","中华人民共和国","吉林省","松原市","长岭县"
"220723","吉林省松原市乾安县","中华人民共和国","吉林省","松原市","乾安县"
"220724","吉林省松原市扶余县","中华人民共和国","吉林省","松原市","扶余县"
"220802","吉林省白城市洮北区","中华人民共和国","吉林省","白城市","洮北区"
"220822","吉林省白城市通榆县","中华人民共和国","吉林省","白城市","通榆县"
"220881","吉林省白城市洮南市","中华人民共和国","吉林省","白城市","洮南市"
"221000","吉林省梅河口市","中华人民共和国","吉林省","梅河口市",""
"221001","吉林省梅河口市市辖区","中华人民共和国","吉林省","梅河口市","市辖区"
"221100","吉林省公主岭市","中华人民共和国","吉林省","公主岭市",""
"222200","吉林省长白山管理委员会","中华人民共和国","吉林省","长白山管理委员会",""
"222202","吉林省长白山管理委员会池西区","中华人民共和国","吉林省","长白山管理委员会","池西区"
"222203","吉林省长白山管理委员会池南区","中华人民共和国","吉林省","长白山管理委员会","池南区"
"222401","吉林省延边朝鲜族自治州延吉市","中华人民共和国","吉林省","延边朝鲜族自治州","延吉市"
"222403","吉林省延边朝鲜族自治州敦化市","中华人民共和国","吉林省","延边朝鲜族自治州","敦化市"
"222404","吉林省延边朝鲜族自治州珲春市","中华人民共和国","吉林省","延边朝鲜族自治州","珲春市"
"222406","吉林省延边朝鲜族自治州和龙市","中华人民共和国","吉林省","延边朝鲜族自治州","和龙市"
"222426","吉林省延边朝鲜族自治州安图县","中华人民共和国","吉林省","延边朝鲜族自治州","安图县"
"230000","黑龙江省","中华人民共和国","黑龙江省","",""
"230100","黑龙江省哈尔滨市","中华人民共和国","黑龙江省","哈尔滨市",""
"230103","黑龙江省哈尔滨市南岗区","中华人民共和国","黑龙江省","哈尔滨市","南岗区"
"230104","黑龙江省哈尔滨市道外区","中华人民共和国","黑龙江省","哈尔滨市","道外区"
"230109","黑龙江省哈尔滨市松北区","中华人民共和国","黑龙江省","哈尔滨市","松北区"
"230110","黑龙江省哈尔滨市香坊区","中华人民共和国","黑龙江省","哈尔滨市","香坊区"
"230112","黑龙江省哈尔滨市阿城区","中华人民共和国","黑龙江省","哈尔滨市","阿城区"
"230123","黑龙江省哈尔滨市依兰县","中华人民共和国","黑龙江省","哈尔滨市","依兰县"
"230126","黑龙江省哈尔滨市巴彦县","中华人民共和国","黑龙江省","哈尔滨市","巴彦县"
"230127","黑龙江省哈尔滨市木兰县","中华人民共和国","黑龙江省","哈尔滨市","木兰县"
"230182","黑龙江省哈尔滨市双城市","中华人民共和国","黑龙江省","哈尔滨市","双城市"
"230200","黑龙江省齐齐哈尔市","中华人民共和国","黑龙江省","齐齐哈尔市",""
"230203","黑龙江省齐齐哈尔市建华区","中华人民共和国","黑龙江省","齐齐哈尔市","建华区"
"230206","黑龙江省齐齐哈尔市富拉尔基区","中华人民共和国","黑龙江省","齐齐哈尔市","富拉尔基区"
"230207","黑龙江省齐齐哈尔市碾子山区","中华人民共和国","黑龙江省","齐齐哈尔市","碾子山区"
"230223","黑龙江省齐齐哈尔市依安县","中华人民共和国","黑龙江省","齐齐哈尔市","依安县"
"230224","黑龙江省齐齐哈尔市泰来县","中华人民共和国","黑龙江省","齐齐哈尔市","泰来县"
"230229","黑龙江省齐齐哈尔市克山县","中华人民共和国","黑龙江省","齐齐哈尔市","克山县"
"230281","黑龙江省齐齐哈尔市讷河市","中华人民共和国","黑龙江省","齐齐哈尔市","讷河市"
"230302","黑龙江省鸡西市鸡冠区","中华人民共和国","黑龙江省","鸡西市","鸡冠区"
"230305","黑龙江省鸡西市梨树区","中华人民共和国","黑龙江省","鸡西市","梨树区"
"230307","黑龙江省鸡西市麻山区","中华人民共和国","黑龙江省","鸡西市","麻山区"
"230382","黑龙江省鸡西市密山市","中华人民共和国","黑龙江省","鸡西市","密山市"
"230402","黑龙江省鹤岗市向阳区","中华人民共和国","黑龙江省","鹤岗市","向阳区"
"230405","黑龙江省鹤岗市兴安区","中华人民共和国","黑龙江省","鹤岗市","兴安区"
"230407","黑龙江省鹤岗市兴山区","中华人民共和国","黑龙江省","鹤岗市","兴山区"
"230500","黑龙江省双鸭山市","中华人民共和国","黑龙江省","双鸭山市",""
"230503","黑龙江省双鸭山市岭东区","中华人民共和国","黑龙江省","双鸭山市","岭东区"
"230521","黑龙江省双鸭山市集贤县","中华人民共和国","黑龙江省","双鸭山市","集贤县"
"230522","黑龙江省双鸭山市友谊县","中华人民共和国","黑龙江省","双鸭山市","友谊县"
"230600","黑龙江省大庆市","中华人民共和国","黑龙江省","大庆市",""
"230603","黑龙江省大庆市龙凤区","中华人民共和国","黑龙江省","大庆市","龙凤区"
"230606","黑龙江省大庆市大同区","中华人民共和国","黑龙江省","大庆市","大同区"
"230621","黑龙江省大庆市肇州县","中华人民共和国","黑龙江省","大庆市","肇州县"
"230700","黑龙江省伊春市","中华人民共和国","黑龙江省","伊春市",""
"230702","黑龙江省伊春市伊春区","中华人民共和国","黑龙江省","伊春市","伊春区"
"230705","黑龙江省伊春市西林区","中华人民共和国","黑龙江省","伊春市","西林区"
"230706","黑龙江省伊春市翠峦区","中华人民共和国","黑龙江省","伊春市","翠峦区"
"230710","黑龙江省伊春市五营区","中华人民共和国","黑龙江省","伊春市","五营区"
"230711","黑龙江省伊春市乌马河区","中华人民共和国","黑龙江省","伊春市","乌马河区"
"230714","黑龙江省伊春市乌伊岭区","中华人民共和国","黑龙江省","伊春市","乌伊岭区"
"230716","黑龙江省伊春市上甘岭区","中华人民共和国","黑龙江省","伊春市","上甘岭区"
"230800","黑龙江省佳木斯市","中华人民共和国","黑龙江省","佳木斯市",""
"230803","黑龙江省佳木斯市向阳区","中华人民共和国","黑龙江省","佳木斯市","向阳区"
"230822","黑龙江省佳木斯市桦南县","中华人民共和国","黑龙江省","佳木斯市","桦南县"
"230826","黑龙江省佳木斯市桦川县","中华人民共和国","黑龙江省","佳木斯市","桦川县"
"230881","黑龙江省佳木斯市同江市","中华人民共和国","黑龙江省","佳木斯市","同江市"
"230900","黑龙江省七台河市","中华人民共和国","黑龙江省","七台河市",""
"230904","黑龙江省七台河市茄子河区","中华人民共和国","黑龙江省","七台河市","茄子河区"
"231002","黑龙江省牡丹江市东安区","中华人民共和国","黑龙江省","牡丹江市","东安区"
"231004","黑龙江省牡丹江市爱民区","中华人民共和国","黑龙江省","牡丹江市","爱民区"
"231025","黑龙江省牡丹江市林口县","中华人民共和国","黑龙江省","牡丹江市","林口县"
"231081","黑龙江省牡丹江市绥芬河市","中华人民共和国","黑龙江省","牡丹江市","绥芬河市"
"231085","黑龙江省牡丹江市穆棱市","中华人民共和国","黑龙江省","牡丹江市","穆棱市"
"231102","黑龙江省黑河市爱辉区","中华人民共和国","黑龙江省","黑河市","爱辉区"
"231181","黑龙江省黑河市北安市","中华人民共和国","黑龙江省","黑河市","北安市"
"231182","黑龙江省黑河市五大连池市","中华人民共和国","黑龙江省","黑河市","五大连池市"
"231222","黑龙江省绥化市兰西县","中华人民共和国","黑龙江省","绥化市","兰西县"
"231223","黑龙江省绥化市青冈县","中华人民共和国","黑龙江省","绥化市","青冈县"
"231226","黑龙江省绥化市绥棱县","中华人民共和国","黑龙江省","绥化市","绥棱县"
"232700","黑龙江省大兴安岭地区","中华人民共和国","黑龙江省","大兴安岭地区",""
"232701","黑龙江省大兴安岭地区加格达奇区","中华人民共和国","黑龙江省","大兴安岭地区","加格达奇区"
"232704","黑龙江省大兴安岭地区呼中区","中华人民共和国","黑龙江省","大兴安岭地区","呼中区"
"232723","黑龙江省大兴安岭地区漠河县","中华人民共和国","黑龙江省","大兴安岭地区","漠河县"
"232901","黑龙江省农垦总局宝泉岭分局","中华人民共和国","黑龙江省","农垦总局","宝泉岭分局"
"232904","黑龙江省农垦总局牡丹江分局","中华人民共和国","黑龙江省","农垦总局","牡丹江分局"
"232905","黑龙江省农垦总局建三江分局","中华人民共和国","黑龙江省","农垦总局","建三江分局"
"232908","黑龙江省农垦总局北安分局","中华人民共和国","黑龙江省","农垦总局","北安分局"
"310000","上海市","中华人民共和国","上海市","",""
"310100","上海市市辖区","中华人民共和国","上海市","市辖区",""
"310104","上海市市辖区徐汇区","中华人民共和国","上海市","市辖区","徐汇区"
"310105","上海市市辖区长宁区","中华人民共和国","上海市","市辖区","长宁区"
"310107","上海市市辖区普陀区","中华人民共和国","上海市","市辖区","普陀区"
"310108","上海市市辖区闸北区","中华人民共和国","上海市","市辖区","闸北区"
"310110","上海市市辖区杨浦区","中华人民共和国","上海市","市辖区","杨浦区"
"310112","上海市市辖区闵行区","中华人民共和国","上海市","市辖区","闵行区"
"310114","上海市市辖区嘉定区","中华人民共和国","上海市","市辖区","嘉定区"
"310115","上海市市辖区浦东新区","中华人民共和国","上海市","市辖区","浦东新区"
"310117","上海市市辖区松江区","中华人民共和国","上海市","市辖区","松江区"
"310118","上海市市辖区青浦区","中华人民共和国","上海市","市辖区","青浦区"
"310200","上海市县","中华人民共和国","上海市","县",""
"310230","上海市县崇明县","中华人民共和国","上海市","县","崇明县"
"320000","江苏省","中华人民共和国","江苏省","",""
"320100","江苏省南京市","中华人民共和国","江苏省","南京市",""
"320104","江苏省南京市秦淮区","中华人民共和国","江苏省","南京市","秦淮区"
"320105","江苏省南京市建邺区","中华人民共和国","江苏省","南京市","建邺区"
"320111","江苏省南京市浦口区","中华人民共和国","江苏省","南京市","浦口区"
"320113","江苏省南京市栖霞区","中华人民共和国","江苏省","南京市","栖霞区"
"320115","江苏省南京市江宁区","中华人民共和国","江苏省","南京市","江宁区"
"320116","江苏省南京市六合区","中华人民共和国","江苏省","南京市","六合区"
"320125","江苏省南京市高淳区","中华人民共和国","江苏省","南京市","高淳区"
"320200","江苏省无锡市","中华人民共和国","江苏省","无锡市",""
"320203","江苏省无锡市南长区","中华人民共和国","江苏省","无锡市","南长区"
"320204","江苏省无锡市北塘区","中华人民共和国","江苏省","无锡市","北塘区"
"320206","江苏省无锡市惠山区","中华人民共和国","江苏省","无锡市","惠山区"
"320211","江苏省无锡市滨湖区","中华人民共和国","江苏省","无锡市","滨湖区"
"320281","江苏省无锡市江阴市","中华人民共和国","江苏省","无锡市","江阴市"
"320282","江苏省无锡市宜兴市","中华人民共和国","江苏省","无锡市","宜兴市"
"320300","江苏省徐州市","中华人民共和国","江苏省","徐州市",""
"320303","江苏省徐州市云龙区","中华人民共和国","江苏省","徐州市","云龙区"
"320305","江苏省徐州市贾汪区","中华人民共和国","江苏省","徐州市","贾汪区"
"320312","江苏省徐州市铜山区","中华人民共和国","江苏省","徐州市","铜山区"
"320321","江苏省徐州市丰县","中华人民共和国","江苏省","徐州市","丰县"
"320324","江苏省徐州市睢宁县","中华人民共和国","江苏省","徐州市","睢宁县"
"320381","江苏省徐州市新沂市","中华人民共和国","江苏省","徐州市","新沂市"
"320400","江苏省常州市","中华人民共和国","江苏省","常州市",""
"320402","江苏省常州市天宁区","中华人民共和国","江苏省","常州市","天宁区"
"320411","江苏省常州市新北区","中华人民共和国","江苏省","常州市","新北区"
"320412","江苏省常州市武进区","中华人民共和国","江苏省","常州市","武进区"
"320500","江苏省苏州市","中华人民共和国","江苏省","苏州市",""
"320502","江苏省苏州市姑苏区","中华人民共和国","江苏省","苏州市","姑苏区"
"320507","江苏省苏州市相城区","中华人民共和国","江苏省","苏州市","相城区"
"320582","江苏省苏州市张家港市","中华人民共和国","江苏省","苏州市","张家港市"
"320585","江苏省苏州市太仓市","中华人民共和国","江苏省","苏州市","太仓市"
"320602","江苏省南通市崇川区","中华人民共和国","江苏省","南通市","崇川区"
"320613","江苏省南通市开发区","中华人民共和国","江苏省","南通市","开发区"
"320623","江苏省南通市如东县","中华人民共和国","江苏省","南通市","如东县"
"320684","江苏省南通市海门市","中华人民共和国","江苏省","南通市","海门市"
"320703","江苏省连云港市连云区","中华人民共和国","江苏省","连云港市","连云区"
"320722","江苏省连云港市东海县","中华人民共和国","江苏省","连云港市","东海县"
"320724","江苏省连云港市灌南县","中华人民共和国","江苏省","连云港市","灌南县"
"320803","江苏省淮安市淮安区","中华人民共和国","江苏省","淮安市","淮安区"
"320811","江苏省淮安市清浦区","中华人民共和国","江苏省","淮安市","清浦区"
"320829","江苏省淮安市洪泽县","中华人民共和国","江苏省","淮安市","洪泽县"
"320831","江苏省淮安市金湖县","中华人民共和国","江苏省","淮安市","金湖县"
"320903","江苏省盐城市盐都区","中华人民共和国","江苏省","盐城市","盐都区"
"320923","江苏省盐城市阜宁县","中华人民共和国","江苏省","盐城市","阜宁县"
"320925","江苏省盐城市建湖县","中华人民共和国","江苏省","盐城市","建湖县"
"321000","江苏省扬州市","中华人民共和国","江苏省","扬州市",""
"321003","江苏省扬州市邗江区","中华人民共和国","江苏省","扬州市","邗江区"
"321081","江苏省扬州市仪征市","中华人民共和国","江苏省","扬州市","仪征市"
"321100","江苏省镇江市","中华人民共和国","江苏省","镇江市",""
"321102","江苏省镇江市京口区","中华人民共和国","江苏省","镇江市","京口区"
"321182","江苏省镇江市扬中市","中华人民共和国","江苏省","镇江市","扬中市"
"321183","江苏省镇江市句容市","中华人民共和国","江苏省","镇江市","句容市"
"321281","江苏省泰州市兴化市","中华人民共和国","江苏省","泰州市","兴化市"
"321282","江苏省泰州市靖江市","中华人民共和国","江苏省","泰州市","靖江市"
"321302","江苏省宿迁市宿城区","中华人民共和国","江苏省","宿迁市","宿城区"
"321322","江苏省宿迁市沭阳县","中华人民共和国","江苏省","宿迁市","沭阳县"
"330000","浙江省","中华人民共和国","浙江省","",""
"330102","浙江省杭州市上城区","中华人民共和国","浙江省","杭州市","上城区"
"330105","浙江省杭州市拱墅区","中华人民共和国","浙江省","杭州市","拱墅区"
"330108","浙江省杭州市滨江区","中华人民共和国","浙江省","杭州市","滨江区"
"330122","浙江省杭州市桐庐县","中华人民共和国","浙江省","杭州市","桐庐县"
"330182","浙江省杭州市建德市","中华人民共和国","浙江省","杭州市","建德市"
"330200","浙江省宁波市","中华人民共和国","浙江省","宁波市",""
"330204","浙江省宁波市江东区","中华人民共和国","浙江省","宁波市","江东区"
"330205","浙江省宁波市江北区","中华人民共和国","浙江省","宁波市","江北区"
"330225","浙江省宁波市象山县","中华人民共和国","浙江省","宁波市","象山县"
"330226","浙江省宁波市宁海县","中华人民共和国","浙江省","宁波市","宁海县"
"330300","浙江省温州市","中华人民共和国","浙江省","温州市",""
"330302","浙江省温州市鹿城区","中华人民共和国","浙江省","温州市","鹿城区"
"330322","浙江省温州市洞头县","中华人民共和国","浙江省","温州市","洞头县"
"330326","浙江省温州市平阳县","中华人民共和国","浙江省","温州市","平阳县"
"330329","浙江省温州市泰顺县","中华人民共和国","浙江省","温州市","泰顺县"
"330382","浙江省温州市乐清市","中华人民共和国","浙江省","温州市","乐清市"
"330421","浙江省嘉兴市嘉善县","中华人民共和国","浙江省","嘉兴市","嘉善县"
"330424","浙江省嘉兴市海盐县","中华人民共和国","浙江省","嘉兴市","海盐县"
"330500","浙江省湖州市","中华人民共和国","浙江省","湖州市",""
"330502","浙江省湖州市吴兴区","中华人民共和国","浙江省","湖州市","吴兴区"
"330522","浙江省湖州市长兴县","中华人民共和国","浙江省","湖州市","长兴县"
"330600","浙江省绍兴市","中华人民共和国","浙江省","绍兴市",""
"330603","浙江省绍兴市柯桥区","中华人民共和国","浙江省","绍兴市","柯桥区"
"330681","浙江省绍兴市诸暨市","中华人民共和国","浙江省","绍兴市","诸暨市"
"330700","浙江省金华市","中华人民共和国","浙江省","金华市",""
"330723","浙江省金华市武义县","中华人民共和国","浙江省","金华市","武义县"
"330727","浙江省金华市磐安县","中华人民共和国","浙江省","金华市","磐安县"
"330783","浙江省金华市东阳市","中华人民共和国","浙江省","金华市","东阳市"
"330784","浙江省金华市永康市","中华人民共和国","浙江省","金华市","永康市"
"330822","浙江省衢州市常山县","中华人民共和国","浙江省","衢州市","常山县"
"330825","浙江省衢州市龙游县","中华人民共和国","浙江省","衢州市","龙游县"
"330902","浙江省舟山市定海区","中华人民共和国","浙江省","舟山市","定海区"
"330921","浙江省舟山市岱山县","中华人民共和国","浙江省","舟山市","岱山县"
"331002","浙江省台州市椒江区","中华人民共和国","浙江省","台州市","椒江区"
"331004","浙江省台州市路桥区","中华人民共和国","浙江省","台州市","路桥区"
"331023","浙江省台州市天台县","中华人民共和国","浙江省","台州市","天台县"
"110109","北京市市辖区门头沟区","中华人民共和国","北京市","市辖区","门头沟区"
"110111","北京市市辖区房山区","中华人民共和国","北京市","市辖区","房山区"
"110113","北京市市辖区顺义区","中华人民共和国","北京市","市辖区","顺义区"
"110114","北京市市辖区昌平区","中华人民共和国","北京市","市辖区","昌平区"
"110116","北京市市辖区怀柔区","中华人民共和国","北京市","市辖区","怀柔区"
"110117","北京市市辖区平谷区","中华人民共和国","北京市","市辖区","平谷区"
"110228","北京市县密云县","中华人民共和国","北京市","县","密云县"
"120000","天津市","中华人民共和国","天津市","",""
"120100","天津市市辖区","中华人民共和国","天津市","市辖区",""
"120101","天津市市辖区和平区","中华人民共和国","天津市","市辖区","和平区"
"120103","天津市市辖区河西区","中华人民共和国","天津市","市辖区","河西区"
"120104","天津市市辖区南开区","中华人民共和国","天津市","市辖区","南开区"
"120106","天津市市辖区红桥区","中华人民共和国","天津市","市辖区","红桥区"
"120110","天津市市辖区东丽区","中华人民共和国","天津市","市辖区","东丽区"
"120112","天津市市辖区津南区","中华人民共和国","天津市","市辖区","津南区"
"120113","天津市市辖区北辰区","中华人民共和国","天津市","市辖区","北辰区"
"120115","天津市市辖区宝坻区","中华人民共和国","天津市","市辖区","宝坻区"
"120116","天津市市辖区滨海新区","中华人民共和国","天津市","市辖区","滨海新区"
"120221","天津市县宁河县","中华人民共和国","天津市","县","宁河县"
"120223","天津市县静海县","中华人民共和国","天津市","县","静海县"
"130000","河北省","中华人民共和国","河北省","",""
"130100","河北省石家庄市","中华人民共和国","河北省","石家庄市",""
"130103","河北省石家庄市桥东区","中华人民共和国","河北省","石家庄市","桥东区"
"130104","河北省石家庄市桥西区","中华人民共和国","河北省","石家庄市","桥西区"
"130107","河北省石家庄市井陉矿区","中华人民共和国","河北省","石家庄市","井陉矿区"
"130108","河北省石家庄市裕华区","中华人民共和国","河北省","石家庄市","裕华区"
"130123","河北省石家庄市正定县","中华人民共和国","河北省","石家庄市","正定县"
"130124","河北省石家庄市栾城县","中华人民共和国","河北省","石家庄市","栾城县"
"130126","河北省石家庄市灵寿县","中华人民共和国","河北省","石家庄市","灵寿县"
"130127","河北省石家庄市高邑县","中华人民共和国","河北省","石家庄市","高邑县"
"130129","河北省石家庄市赞皇县","中华人民共和国","河北省","石家庄市","赞皇县"
"130130","河北省石家庄市无极县","中华人民共和国","河北省","石家庄市","无极县"
"130132","河北省石家庄市元氏县","中华人民共和国","河北省","石家庄市","元氏县"
"130133","河北省石家庄市赵县","中华人民共和国","河北省","石家庄市","赵县"
"130182","河北省石家庄市藁城市","中华人民共和国","河北省","石家庄市","藁城市"
"130184","河北省石家庄市新乐市","中华人民共和国","河北省","石家庄市","新乐市"
"130185","河北省石家庄市鹿泉市","中华人民共和国","河北省","石家庄市","鹿泉市"
"130200","河北省唐山市","中华人民共和国","河北省","唐山市",""
"130203","河北省唐山市路北区","中华人民共和国","河北省","唐山市","路北区"
"130205","河北省唐山市开平区","中华人民共和国","河北省","唐山市","开平区"
"130209","河北省唐山市曹妃甸区","中华人民共和国","河北省","唐山市","曹妃甸区"
"130224","河北省唐山市滦南县","中华人民共和国","河北省","唐山市","滦南县"
"130229","河北省唐山市玉田县","中华人民共和国","河北省","唐山市","玉田县"
"130283","河北省唐山市迁安市","中华人民共和国","河北省","唐山市","迁安市"
"130304","河北省秦皇岛市北戴河区","中华人民共和国","河北省","秦皇岛市","北戴河区"
"130323","河北省秦皇岛市抚宁县","中华人民共和国","河北省","秦皇岛市","抚宁县"
"130324","河北省秦皇岛市卢龙县","中华人民共和国","河北省","秦皇岛市","卢龙县"
"130402","河北省邯郸市邯山区","中华人民共和国","河北省","邯郸市","邯山区"
"130406","河北省邯郸市峰峰矿区","中华人民共和国","河北省","邯郸市","峰峰矿区"
"130423","河北省邯郸市临漳县","中华人民共和国","河北省","邯郸市","临漳县"
"130426","河北省邯郸市涉县","中华人民共和国","河北省","邯郸市","涉县"
"130428","河北省邯郸市肥乡县","中华人民共和国","河北省","邯郸市","肥乡县"
"130431","河北省邯郸市鸡泽县","中华人民共和国","河北省","邯郸市","鸡泽县"
"130433","河北省邯郸市馆陶县","中华人民共和国","河北省","邯郸市","馆陶县"
"130481","河北省邯郸市武安市","中华人民共和国","河北省","邯郸市","武安市"
"130502","河北省邢台市桥东区","中华人民共和国","河北省","邢台市","桥东区"
"130523","河北省邢台市内丘县","中华人民共和国","河北省","邢台市","内丘县"
"130524","河北省邢台市柏乡县","中华人民共和国","河北省","邢台市","柏乡县"
"130528","河北省邢台市宁晋县","中华人民共和国","河北省","邢台市","宁晋县"
"130529","河北省邢台市巨鹿县","中华人民共和国","河北省","邢台市","巨鹿县"
"130532","河北省邢台市平乡县","中华人民共和国","河北省","邢台市","平乡县"
"130534","河北省邢台市清河县","中华人民共和国","河北省","邢台市","清河县"
"130582","河北省邢台市沙河市","中华人民共和国","河北省","邢台市","沙河市"
"130602","河北省保定市新市区","中华人民共和国","河北省","保定市","新市区"
"130622","河北省保定市清苑县","中华人民共和国","河北省","保定市","清苑县"
"130623","河北省保定市涞水县","中华人民共和国","河北省","保定市","涞水县"
"130627","河北省保定市唐县","中华人民共和国","河北省","保定市","唐县"
"130628","河北省保定市高阳县","中华人民共和国","河北省","保定市","高阳县"
"130632","河北省保定市安新县","中华人民共和国","河北省","保定市","安新县"
"130633","河北省保定市易县","中华人民共和国","河北省","保定市","易县"
"130636","河北省保定市顺平县","中华人民共和国","河北省","保定市","顺平县"
"130638","河北省保定市雄县","中华人民共和国","河北省","保定市","雄县"
"130683","河北省保定市安国市","中华人民共和国","河北省","保定市","安国市"
"130700","河北省张家口市","中华人民共和国","河北省","张家口市",""
"130705","河北省张家口市宣化区","中华人民共和国","河北省","张家口市","宣化区"
"130721","河北省张家口市宣化县","中华人民共和国","河北省","张家口市","宣化县"
"130724","河北省张家口市沽源县","中华人民共和国","河北省","张家口市","沽源县"
"130725","河北省张家口市尚义县","中华人民共和国","河北省","张家口市","尚义县"
"130729","河北省张家口市万全县","中华人民共和国","河北省","张家口市","万全县"
"130730","河北省张家口市怀来县","中华人民共和国","河北省","张家口市","怀来县"
"130733","河北省张家口市崇礼县","中华人民共和国","河北省","张家口市","崇礼县"
"130802","河北省承德市双桥区","中华人民共和国","河北省","承德市","双桥区"
"130822","河北省承德市兴隆县","中华人民共和国","河北省","承德市","兴隆县"
"130823","河北省承德市平泉县","中华人民共和国","河北省","承德市","平泉县"
"130827","河北省承德市宽城满族自治县","中华人民共和国","河北省","承德市","宽城满族自治县"
"130900","河北省沧州市","中华人民共和国","河北省","沧州市",""
"130903","河北省沧州市运河区","中华人民共和国","河北省","沧州市","运河区"
"130922","河北省沧州市青县","中华人民共和国","河北省","沧州市","青县"
"130923","河北省沧州市东光县","中华人民共和国","河北省","沧州市","东光县"
"130927","河北省沧州市南皮县","中华人民共和国","河北省","沧州市","南皮县"
"130928","河北省沧州市吴桥县","中华人民共和国","河北省","沧州市","吴桥县"
"130982","河北省沧州市任丘市","中华人民共和国","河北省","沧州市","任丘市"
"130983","河北省沧州市黄骅市","中华人民共和国","河北省","沧州市","黄骅市"
"131000","河北省廊坊市","中华人民共和国","河北省","廊坊市",""
"131022","河北省廊坊市固安县","中华人民共和国","河北省","廊坊市","固安县"
"131024","河北省廊坊市香河县","中华人民共和国","河北省","廊坊市","香河县"
"131028","河北省廊坊市大厂回族自治县","中华人民共和国","河北省","廊坊市","大厂回族自治县"
"131100","河北省衡水市","中华人民共和国","河北省","衡水市",""
"131121","河北省衡水市枣强县","中华人民共和国","河北省","衡水市","枣强县"
"131123","河北省衡水市武强县","中华人民共和国","河北省","衡水市","武强县"
"131126","河北省衡水市故城县","中华人民共和国","河北省","衡水市","故城县"
"131128","河北省衡水市阜城县","中华人民共和国","河北省","衡水市","阜城县"
"140000","山西省","中华人民共和国","山西省","",""
"140105","山西省太原市小店区","中华人民共和国","山西省","太原市","小店区"
"140108","山西省太原市尖草坪区","中华人民共和国","山西省","太原市","尖草坪区"
"110000","北京市","中华人民共和国","北京市","",""
"110100","北京市市辖区","中华人民共和国","北京市","市辖区",""
"110101","北京市市辖区东城区","中华人民共和国","北京市","市辖区","东城区"
"110102","北京市市辖区西城区","中华人民共和国","北京市","市辖区","西城区"
"110105","北京市市辖区朝阳区","中华人民共和国","北京市","市辖区","朝阳区"
"110106","北京市市辖区丰台区","中华人民共和国","北京市","市辖区","丰台区"
"110107","北京市市辖区石景山区","中华人民共和国","北京市","市辖区","石景山区"
"140110","山西省太原市晋源区","中华人民共和国","山西省","太原市","晋源区"
"140121","山西省太原市清徐县","中华人民共和国","山西省","太原市","清徐县"
"140123","山西省太原市娄烦县","中华人民共和国","山西省","太原市","娄烦县"
"140181","山西省太原市古交市","中华人民共和国","山西省","太原市","古交市"
"140202","山西省大同市城区","中华人民共和国","山西省","大同市","城区"
"140203","山西省大同市矿区","中华人民共和国","山西省","大同市","矿区"
"140212","山西省大同市新荣区","中华人民共和国","山西省","大同市","新荣区"
"140221","山西省大同市阳高县","中华人民共和国","山西省","大同市","阳高县"
"140223","山西省大同市广灵县","中华人民共和国","山西省","大同市","广灵县"
"140224","山西省大同市灵丘县","中华人民共和国","山西省","大同市","灵丘县"
"140226","山西省大同市左云县","中华人民共和国","山西省","大同市","左云县"
"140227","山西省大同市大同县","中华人民共和国","山西省","大同市","大同县"
"140302","山西省阳泉市城区","中华人民共和国","山西省","阳泉市","城区"
"140311","山西省阳泉市郊区","中华人民共和国","山西省","阳泉市","郊区"
"140321","山西省阳泉市平定县","中华人民共和国","山西省","阳泉市","平定县"
"140400","山西省长治市","中华人民共和国","山西省","长治市",""
"140402","山西省长治市城区","中华人民共和国","山西省","长治市","城区"
"140411","山西省长治市郊区","中华人民共和国","山西省","长治市","郊区"
"140423","山西省长治市襄垣县","中华人民共和国","山西省","长治市","襄垣县"
"140424","山西省长治市屯留县","中华人民共和国","山西省","长治市","屯留县"
"140426","山西省长治市黎城县","中华人民共和国","山西省","长治市","黎城县"
"140427","山西省长治市壶关县","中华人民共和国","山西省","长治市","壶关县"
"140429","山西省长治市武乡县","中华人民共和国","山西省","长治市","武乡县"
"140430","山西省长治市沁县","中华人民共和国","山西省","长治市","沁县"
"140481","山西省长治市潞城市","中华人民共和国","山西省","长治市","潞城市"
"140500","山西省晋城市","中华人民共和国","山西省","晋城市",""
"140521","山西省晋城市沁水县","中华人民共和国","山西省","晋城市","沁水县"
"140522","山西省晋城市阳城县","中华人民共和国","山西省","晋城市","阳城县"
"140525","山西省晋城市泽州县","中华人民共和国","山西省","晋城市","泽州县"
"140581","山西省晋城市高平市","中华人民共和国","山西省","晋城市","高平市"
"140602","山西省朔州市朔城区","中华人民共和国","山西省","朔州市","朔城区"
"140603","山西省朔州市平鲁区","中华人民共和国","山西省","朔州市","平鲁区"
"140622","山西省朔州市应县","中华人民共和国","山西省","朔州市","应县"
"140623","山西省朔州市右玉县","中华人民共和国","山西省","朔州市","右玉县"
"140700","山西省晋中市","中华人民共和国","山西省","晋中市",""
"140702","山西省晋中市榆次区","中华人民共和国","山西省","晋中市","榆次区"
"140722","山西省晋中市左权县","中华人民共和国","山西省","晋中市","左权县"
"140723","山西省晋中市和顺县","中华人民共和国","山西省","晋中市","和顺县"
"140725","山西省晋中市寿阳县","中华人民共和国","山西省","晋中市","寿阳县"
"140727","山西省晋中市祁县","中华人民共和国","山西省","晋中市","祁县"
"140781","山西省晋中市介休市","中华人民共和国","山西省","晋中市","介休市"
"140802","山西省运城市盐湖区","中华人民共和国","山西省","运城市","盐湖区"
"140823","山西省运城市闻喜县","中华人民共和国","山西省","运城市","闻喜县"
"140825","山西省运城市新绛县","中华人民共和国","山西省","运城市","新绛县"
"140828","山西省运城市夏县","中华人民共和国","山西省","运城市","夏县"
"140830","山西省运城市芮城县","中华人民共和国","山西省","运城市","芮城县"
"140900","山西省忻州市","中华人民共和国","山西省","忻州市",""
"140921","山西省忻州市定襄县","中华人民共和国","山西省","忻州市","定襄县"
"140923","山西省忻州市代县","中华人民共和国","山西省","忻州市","代县"
"140926","山西省忻州市静乐县","中华人民共和国","山西省","忻州市","静乐县"
"140927","山西省忻州市神池县","中华人民共和国","山西省","忻州市","神池县"
"140931","山西省忻州市保德县","中华人民共和国","山西省","忻州市","保德县"
"140932","山西省忻州市偏关县","中华人民共和国","山西省","忻州市","偏关县"
"141021","山西省临汾市曲沃县","中华人民共和国","山西省","临汾市","曲沃县"
"141024","山西省临汾市洪洞县","中华人民共和国","山西省","临汾市","洪洞县"
"141026","山西省临汾市安泽县","中华人民共和国","山西省","临汾市","安泽县"
"141029","山西省临汾市乡宁县","中华人民共和国","山西省","临汾市","乡宁县"
"141031","山西省临汾市隰县","中华人民共和国","山西省","临汾市","隰县"
"141034","山西省临汾市汾西县","中华人民共和国","山西省","临汾市","汾西县"
"141082","山西省临汾市霍州市","中华人民共和国","山西省","临汾市","霍州市"
"141100","山西省吕梁市","中华人民共和国","山西省","吕梁市",""
"141123","山西省吕梁市兴县","中华人民共和国","山西省","吕梁市","兴县"
"141124","山西省吕梁市临县","中华人民共和国","山西省","吕梁市","临县"
"141127","山西省吕梁市岚县","中华人民共和国","山西省","吕梁市","岚县"
"141129","山西省吕梁市中阳县","中华人民共和国","山西省","吕梁市","中阳县"
"141182","山西省吕梁市汾阳市","中华人民共和国","山西省","吕梁市","汾阳市"
"150100","内蒙古自治区呼和浩特市","中华人民共和国","内蒙古自治区","呼和浩特市",""
"150104","内蒙古自治区呼和浩特市玉泉区","中华人民共和国","内蒙古自治区","呼和浩特市","玉泉区"
"150122","内蒙古自治区呼和浩特市托克托县","中华人民共和国","内蒙古自治区","呼和浩特市","托克托县"
"150124","内蒙古自治区呼和浩特市清水河县","中华人民共和国","内蒙古自治区","呼和浩特市","清水河县"
"150200","内蒙古自治区包头市","中华人民共和国","内蒙古自治区","包头市",""
"150203","内蒙古自治区包头市昆都仑区","中华人民共和国","内蒙古自治区","包头市","昆都仑区"
"150206","内蒙古自治区包头市白云鄂博矿区","中华人民共和国","内蒙古自治区","包头市","白云鄂博矿区"
"150207","内蒙古自治区包头市九原区","中华人民共和国","内蒙古自治区","包头市","九原区"
"150223","内蒙古自治区包头市达尔罕茂明安联合旗","中华人民共和国","内蒙古自治区","包头市","达尔罕茂明安联合旗"
"150302","内蒙古自治区乌海市海勃湾区","中华人民共和国","内蒙古自治区","乌海市","海勃湾区"
"150400","内蒙古自治区赤峰市","中华人民共和国","内蒙古自治区","赤峰市",""
"150403","内蒙古自治区赤峰市元宝山区","中华人民共和国","内蒙古自治区","赤峰市","元宝山区"
"150422","内蒙古自治区赤峰市巴林左旗","中华人民共和国","内蒙古自治区","赤峰市","巴林左旗"
"150423","内蒙古自治区赤峰市巴林右旗","中华人民共和国","内蒙古自治区","赤峰市","巴林右旗"
"150426","内蒙古自治区赤峰市翁牛特旗","中华人民共和国","内蒙古自治区","赤峰市","翁牛特旗"
"150430","内蒙古自治区赤峰市敖汉旗","中华人民共和国","内蒙古自治区","赤峰市","敖汉旗"
"150500","内蒙古自治区通辽市","中华人民共和国","内蒙古自治区","通辽市",""
"150522","内蒙古自治区通辽市科尔沁左翼后旗","中华人民共和国","内蒙古自治区","通辽市","科尔沁左翼后旗"
"150524","内蒙古自治区通辽市库伦旗","中华人民共和国","内蒙古自治区","通辽市","库伦旗"
"150581","内蒙古自治区通辽市霍林郭勒市","中华人民共和国","内蒙古自治区","通辽市","霍林郭勒市"
"150600","内蒙古自治区鄂尔多斯市","中华人民共和国","内蒙古自治区","鄂尔多斯市",""
"150621","内蒙古自治区鄂尔多斯市达拉特旗","中华人民共和国","内蒙古自治区","鄂尔多斯市","达拉特旗"
"150624","内蒙古自治区鄂尔多斯市鄂托克旗","中华人民共和国","内蒙古自治区","鄂尔多斯市","鄂托克旗"
"150625","内蒙古自治区鄂尔多斯市杭锦旗","中华人民共和国","内蒙古自治区","鄂尔多斯市","杭锦旗"
"150628","内蒙古自治区鄂尔多斯市恩格贝","中华人民共和国","内蒙古自治区","鄂尔多斯市","恩格贝"
"150702","内蒙古自治区呼伦贝尔市海拉尔区","中华人民共和国","内蒙古自治区","呼伦贝尔市","海拉尔区"
"150723","内蒙古自治区呼伦贝尔市鄂伦春自治旗","中华人民共和国","内蒙古自治区","呼伦贝尔市","鄂伦春自治旗"
"150725","内蒙古自治区呼伦贝尔市陈巴尔虎旗","中华人民共和国","内蒙古自治区","呼伦贝尔市","陈巴尔虎旗"
"150726","内蒙古自治区呼伦贝尔市新巴尔虎左旗","中华人民共和国","内蒙古自治区","呼伦贝尔市","新巴尔虎左旗"
"513230","四川省阿坝藏族羌族自治州壤塘县","中华人民共和国","四川省","阿坝藏族羌族自治州","壤塘县"
"513231","四川省阿坝藏族羌族自治州阿坝县","中华人民共和国","四川省","阿坝藏族羌族自治州","阿坝县"
"513233","四川省阿坝藏族羌族自治州红原县","中华人民共和国","四川省","阿坝藏族羌族自治州","红原县"
"513300","四川省甘孜藏族自治州","中华人民共和国","四川省","甘孜藏族自治州",""
"513322","四川省甘孜藏族自治州泸定县","中华人民共和国","四川省","甘孜藏族自治州","泸定县"
"513323","四川省甘孜藏族自治州丹巴县","中华人民共和国","四川省","甘孜藏族自治州","丹巴县"
"513325","四川省甘孜藏族自治州雅江县","中华人民共和国","四川省","甘孜藏族自治州","雅江县"
"513327","四川省甘孜藏族自治州炉霍县","中华人民共和国","四川省","甘孜藏族自治州","炉霍县"
"513328","四川省甘孜藏族自治州甘孜县","中华人民共和国","四川省","甘孜藏族自治州","甘孜县"
"513330","四川省甘孜藏族自治州德格县","中华人民共和国","四川省","甘孜藏族自治州","德格县"
"513331","四川省甘孜藏族自治州白玉县","中华人民共和国","四川省","甘孜藏族自治州","白玉县"
"513333","四川省甘孜藏族自治州色达县","中华人民共和国","四川省","甘孜藏族自治州","色达县"
"513335","四川省甘孜藏族自治州巴塘县","中华人民共和国","四川省","甘孜藏族自治州","巴塘县"
"513336","四川省甘孜藏族自治州乡城县","中华人民共和国","四川省","甘孜藏族自治州","乡城县"
"513338","四川省甘孜藏族自治州得荣县","中华人民共和国","四川省","甘孜藏族自治州","得荣县"
"513400","四川省凉山彝族自治州","中华人民共和国","四川省","凉山彝族自治州",""
"513422","四川省凉山彝族自治州木里藏族自治县","中华人民共和国","四川省","凉山彝族自治州","木里藏族自治县"
"513424","四川省凉山彝族自治州德昌县","中华人民共和国","四川省","凉山彝族自治州","德昌县"
"513425","四川省凉山彝族自治州会理县","中华人民共和国","四川省","凉山彝族自治州","会理县"
"513427","四川省凉山彝族自治州宁南县","中华人民共和国","四川省","凉山彝族自治州","宁南县"
"513428","四川省凉山彝族自治州普格县","中华人民共和国","四川省","凉山彝族自治州","普格县"
"513430","四川省凉山彝族自治州金阳县","中华人民共和国","四川省","凉山彝族自治州","金阳县"
"513431","四川省凉山彝族自治州昭觉县","中华人民共和国","四川省","凉山彝族自治州","昭觉县"
"513433","四川省凉山彝族自治州冕宁县","中华人民共和国","四川省","凉山彝族自治州","冕宁县"
"513435","四川省凉山彝族自治州甘洛县","中华人民共和国","四川省","凉山彝族自治州","甘洛县"
"513436","四川省凉山彝族自治州美姑县","中华人民共和国","四川省","凉山彝族自治州","美姑县"
"520000","贵州省","中华人民共和国","贵州省","",""
"520100","贵州省贵阳市","中华人民共和国","贵州省","贵阳市",""
"520102","贵州省贵阳市南明区","中华人民共和国","贵州省","贵阳市","南明区"
"520103","贵州省贵阳市云岩区","中华人民共和国","贵州省","贵阳市","云岩区"
"520112","贵州省贵阳市乌当区","中华人民共和国","贵州省","贵阳市","乌当区"
"520113","贵州省贵阳市白云区","中华人民共和国","贵州省","贵阳市","白云区"
"520121","贵州省贵阳市开阳县","中华人民共和国","贵州省","贵阳市","开阳县"
"520122","贵州省贵阳市息烽县","中华人民共和国","贵州省","贵阳市","息烽县"
"520181","贵州省贵阳市清镇市","中华人民共和国","贵州省","贵阳市","清镇市"
"520200","贵州省六盘水市","中华人民共和国","贵州省","六盘水市",""
"520203","贵州省六盘水市六枝特区","中华人民共和国","贵州省","六盘水市","六枝特区"
"520222","贵州省六盘水市盘县","中华人民共和国","贵州省","六盘水市","盘县"
"520303","贵州省遵义市汇川区","中华人民共和国","贵州省","遵义市","汇川区"
"520323","贵州省遵义市绥阳县","中华人民共和国","贵州省","遵义市","绥阳县"
"520325","贵州省遵义市道真仡佬族苗族自治县","中华人民共和国","贵州省","遵义市","道真仡佬族苗族自治县"
"520328","贵州省遵义市湄潭县","中华人民共和国","贵州省","遵义市","湄潭县"
"520330","贵州省遵义市习水县","中华人民共和国","贵州省","遵义市","习水县"
"520400","贵州省安顺市","中华人民共和国","贵州省","安顺市",""
"520402","贵州省安顺市西秀区","中华人民共和国","贵州省","安顺市","西秀区"
"520422","贵州省安顺市普定县","中华人民共和国","贵州省","安顺市","普定县"
"520425","贵州省安顺市紫云苗族布依族自治县","中华人民共和国","贵州省","安顺市","紫云苗族布依族自治县"
"520500","贵州省毕节市","中华人民共和国","贵州省","毕节市",""
"520523","贵州省毕节市金沙县","中华人民共和国","贵州省","毕节市","金沙县"
"520524","贵州省毕节市织金县","中华人民共和国","贵州省","毕节市","织金县"
"520527","贵州省毕节市赫章县","中华人民共和国","贵州省","毕节市","赫章县"
"520602","贵州省铜仁市碧江区","中华人民共和国","贵州省","铜仁市","碧江区"
"520621","贵州省铜仁市江口县","中华人民共和国","贵州省","铜仁市","江口县"
"520624","贵州省铜仁市思南县","中华人民共和国","贵州省","铜仁市","思南县"
"520626","贵州省铜仁市德江县","中华人民共和国","贵州省","铜仁市","德江县"
"520628","贵州省铜仁市松桃苗族自治县","中华人民共和国","贵州省","铜仁市","松桃苗族自治县"
"522322","贵州省黔西南布依族苗族自治州兴仁县","中华人民共和国","贵州省","黔西南布依族苗族自治州","兴仁县"
"522324","贵州省黔西南布依族苗族自治州晴隆县","中华人民共和国","贵州省","黔西南布依族苗族自治州","晴隆县"
"522326","贵州省黔西南布依族苗族自治州望谟县","中华人民共和国","贵州省","黔西南布依族苗族自治州","望谟县"
"522600","贵州省黔东南苗族侗族自治州","中华人民共和国","贵州省","黔东南苗族侗族自治州",""
"522622","贵州省黔东南苗族侗族自治州黄平县","中华人民共和国","贵州省","黔东南苗族侗族自治州","黄平县"
"522624","贵州省黔东南苗族侗族自治州三穗县","中华人民共和国","贵州省","黔东南苗族侗族自治州","三穗县"
"522626","贵州省黔东南苗族侗族自治州岑巩县","中华人民共和国","贵州省","黔东南苗族侗族自治州","岑巩县"
"522628","贵州省黔东南苗族侗族自治州锦屏县","中华人民共和国","贵州省","黔东南苗族侗族自治州","锦屏县"
"522631","贵州省黔东南苗族侗族自治州黎平县","中华人民共和国","贵州省","黔东南苗族侗族自治州","黎平县"
"522633","贵州省黔东南苗族侗族自治州从江县","中华人民共和国","贵州省","黔东南苗族侗族自治州","从江县"
"522635","贵州省黔东南苗族侗族自治州麻江县","中华人民共和国","贵州省","黔东南苗族侗族自治州","麻江县"
"522700","贵州省黔南布依族苗族自治州","中华人民共和国","贵州省","黔南布依族苗族自治州",""
"522722","贵州省黔南布依族苗族自治州荔波县","中华人民共和国","贵州省","黔南布依族苗族自治州","荔波县"
"522725","贵州省黔南布依族苗族自治州瓮安县","中华人民共和国","贵州省","黔南布依族苗族自治州","瓮安县"
"522727","贵州省黔南布依族苗族自治州平塘县","中华人民共和国","贵州省","黔南布依族苗族自治州","平塘县"
"522730","贵州省黔南布依族苗族自治州龙里县","中华人民共和国","贵州省","黔南布依族苗族自治州","龙里县"
"522732","贵州省黔南布依族苗族自治州三都水族自治县","中华人民共和国","贵州省","黔南布依族苗族自治州","三都水族自治县"
"530102","云南省昆明市五华区","中华人民共和国","云南省","昆明市","五华区"
"530111","云南省昆明市官渡区","中华人民共和国","云南省","昆明市","官渡区"
"530114","云南省昆明市呈贡区","中华人民共和国","云南省","昆明市","呈贡区"
"530122","云南省昆明市晋宁县","中华人民共和国","云南省","昆明市","晋宁县"
"530127","云南省昆明市嵩明县","中华人民共和国","云南省","昆明市","嵩明县"
"530181","云南省昆明市安宁市","中华人民共和国","云南省","昆明市","安宁市"
"530300","云南省曲靖市","中华人民共和国","云南省","曲靖市",""
"530302","云南省曲靖市麒麟区","中华人民共和国","云南省","曲靖市","麒麟区"
"530322","云南省曲靖市陆良县","中华人民共和国","云南省","曲靖市","陆良县"
"530325","云南省曲靖市富源县","中华人民共和国","云南省","曲靖市","富源县"
"530328","云南省曲靖市沾益县","中华人民共和国","云南省","曲靖市","沾益县"
"530402","云南省玉溪市红塔区","中华人民共和国","云南省","玉溪市","红塔区"
"530423","云南省玉溪市通海县","中华人民共和国","云南省","玉溪市","通海县"
"530425","云南省玉溪市易门县","中华人民共和国","云南省","玉溪市","易门县"
"530428","云南省玉溪市元江哈尼族彝族傣族自治县","中华人民共和国","云南省","玉溪市","元江哈尼族彝族傣族自治县"
"530502","云南省保山市隆阳区","中华人民共和国","云南省","保山市","隆阳区"
"530523","云南省保山市龙陵县","中华人民共和国","云南省","保山市","龙陵县"
"530600","云南省昭通市","中华人民共和国","云南省","昭通市",""
"530622","云南省昭通市巧家县","中华人民共和国","云南省","昭通市","巧家县"
"530624","云南省昭通市大关县","中华人民共和国","云南省","昭通市","大关县"
"331081","浙江省台州市温岭市","中华人民共和国","浙江省","台州市","温岭市"
"331100","浙江省丽水市","中华人民共和国","浙江省","丽水市",""
"331102","浙江省丽水市莲都区","中华人民共和国","浙江省","丽水市","莲都区"
"331122","浙江省丽水市缙云县","中华人民共和国","浙江省","丽水市","缙云县"
"331123","浙江省丽水市遂昌县","中华人民共和国","浙江省","丽水市","遂昌县"
"331125","浙江省丽水市云和县","中华人民共和国","浙江省","丽水市","云和县"
"331126","浙江省丽水市庆元县","中华人民共和国","浙江省","丽水市","庆元县"
"331181","浙江省丽水市龙泉市","中华人民共和国","浙江省","丽水市","龙泉市"
"340000","安徽省","中华人民共和国","安徽省","",""
"340100","安徽省合肥市","中华人民共和国","安徽省","合肥市",""
"340103","安徽省合肥市庐阳区","中华人民共和国","安徽省","合肥市","庐阳区"
"340104","安徽省合肥市蜀山区","中华人民共和国","安徽省","合肥市","蜀山区"
"340121","安徽省合肥市长丰县","中华人民共和国","安徽省","合肥市","长丰县"
"340122","安徽省合肥市肥东县","中华人民共和国","安徽省","合肥市","肥东县"
"340124","安徽省合肥市庐江县","中华人民共和国","安徽省","合肥市","庐江县"
"340181","安徽省合肥市巢湖市","中华人民共和国","安徽省","合肥市","巢湖市"
"340200","安徽省芜湖市","中华人民共和国","安徽省","芜湖市",""
"340203","安徽省芜湖市弋江区","中华人民共和国","安徽省","芜湖市","弋江区"
"340207","安徽省芜湖市鸠江区","中华人民共和国","安徽省","芜湖市","鸠江区"
"340221","安徽省芜湖市芜湖县","中华人民共和国","安徽省","芜湖市","芜湖县"
"340222","安徽省芜湖市繁昌县","中华人民共和国","安徽省","芜湖市","繁昌县"
"340225","安徽省芜湖市无为县","中华人民共和国","安徽省","芜湖市","无为县"
"340300","安徽省蚌埠市","中华人民共和国","安徽省","蚌埠市",""
"340303","安徽省蚌埠市蚌山区","中华人民共和国","安徽省","蚌埠市","蚌山区"
"340304","安徽省蚌埠市禹会区","中华人民共和国","安徽省","蚌埠市","禹会区"
"340321","安徽省蚌埠市怀远县","中华人民共和国","安徽省","蚌埠市","怀远县"
"340322","安徽省蚌埠市五河县","中华人民共和国","安徽省","蚌埠市","五河县"
"340400","安徽省淮南市","中华人民共和国","安徽省","淮南市",""
"340402","安徽省淮南市大通区","中华人民共和国","安徽省","淮南市","大通区"
"340404","安徽省淮南市谢家集区","中华人民共和国","安徽省","淮南市","谢家集区"
"340405","安徽省淮南市八公山区","中华人民共和国","安徽省","淮南市","八公山区"
"340421","安徽省淮南市凤台县","中华人民共和国","安徽省","淮南市","凤台县"
"340500","安徽省马鞍山市","中华人民共和国","安徽省","马鞍山市",""
"340503","安徽省马鞍山市花山区","中华人民共和国","安徽省","马鞍山市","花山区"
"340506","安徽省马鞍山市博望区","中华人民共和国","安徽省","马鞍山市","博望区"
"340522","安徽省马鞍山市含山县","中华人民共和国","安徽省","马鞍山市","含山县"
"340523","安徽省马鞍山市和县","中华人民共和国","安徽省","马鞍山市","和县"
"340600","安徽省淮北市","中华人民共和国","安徽省","淮北市",""
"340603","安徽省淮北市相山区","中华人民共和国","安徽省","淮北市","相山区"
"340604","安徽省淮北市烈山区","中华人民共和国","安徽省","淮北市","烈山区"
"340702","安徽省铜陵市铜官山区","中华人民共和国","安徽省","铜陵市","铜官山区"
"340711","安徽省铜陵市郊区","中华人民共和国","安徽省","铜陵市","郊区"
"340802","安徽省安庆市迎江区","中华人民共和国","安徽省","安庆市","迎江区"
"340823","安徽省安庆市枞阳县","中华人民共和国","安徽省","安庆市","枞阳县"
"340824","安徽省安庆市潜山县","中华人民共和国","安徽省","安庆市","潜山县"
"340827","安徽省安庆市望江县","中华人民共和国","安徽省","安庆市","望江县"
"340881","安徽省安庆市桐城市","中华人民共和国","安徽省","安庆市","桐城市"
"341004","安徽省黄山市徽州区","中华人民共和国","安徽省","黄山市","徽州区"
"341021","安徽省黄山市歙县","中华人民共和国","安徽省","黄山市","歙县"
"341023","安徽省黄山市黟县","中华人民共和国","安徽省","黄山市","黟县"
"341102","安徽省滁州市琅琊区","中华人民共和国","安徽省","滁州市","琅琊区"
"341125","安徽省滁州市定远县","中华人民共和国","安徽省","滁州市","定远县"
"341126","安徽省滁州市凤阳县","中华人民共和国","安徽省","滁州市","凤阳县"
"341200","安徽省阜阳市","中华人民共和国","安徽省","阜阳市",""
"341203","安徽省阜阳市颍东区","中华人民共和国","安徽省","阜阳市","颍东区"
"341221","安徽省阜阳市临泉县","中华人民共和国","安徽省","阜阳市","临泉县"
"341226","安徽省阜阳市颍上县","中华人民共和国","安徽省","阜阳市","颍上县"
"341300","安徽省宿州市","中华人民共和国","安徽省","宿州市",""
"341322","安徽省宿州市萧县","中华人民共和国","安徽省","宿州市","萧县"
"341324","安徽省宿州市泗县","中华人民共和国","安徽省","宿州市","泗县"
"341503","安徽省六安市裕安区","中华人民共和国","安徽省","六安市","裕安区"
"341521","安徽省六安市寿县","中华人民共和国","安徽省","六安市","寿县"
"341525","安徽省六安市霍山县","中华人民共和国","安徽省","六安市","霍山县"
"341600","安徽省亳州市","中华人民共和国","安徽省","亳州市",""
"341623","安徽省亳州市利辛县","中华人民共和国","安徽省","亳州市","利辛县"
"341700","安徽省池州市","中华人民共和国","安徽省","池州市",""
"341723","安徽省池州市青阳县","中华人民共和国","安徽省","池州市","青阳县"
"341800","安徽省宣城市","中华人民共和国","安徽省","宣城市",""
"341821","安徽省宣城市郎溪县","中华人民共和国","安徽省","宣城市","郎溪县"
"341824","安徽省宣城市绩溪县","中华人民共和国","安徽省","宣城市","绩溪县"
"341881","安徽省宣城市宁国市","中华人民共和国","安徽省","宣城市","宁国市"
"350102","福建省福州市鼓楼区","中华人民共和国","福建省","福州市","鼓楼区"
"350111","福建省福州市晋安区","中华人民共和国","福建省","福州市","晋安区"
"350121","福建省福州市闽侯县","中华人民共和国","福建省","福州市","闽侯县"
"350125","福建省福州市永泰县","中华人民共和国","福建省","福州市","永泰县"
"350128","福建省福州市平潭县","中华人民共和国","福建省","福州市","平潭县"
"350203","福建省厦门市思明区","中华人民共和国","福建省","厦门市","思明区"
"350206","福建省厦门市湖里区","中华人民共和国","福建省","厦门市","湖里区"
"350213","福建省厦门市翔安区","中华人民共和国","福建省","厦门市","翔安区"
"350300","福建省莆田市","中华人民共和国","福建省","莆田市",""
"350305","福建省莆田市秀屿区","中华人民共和国","福建省","莆田市","秀屿区"
"350322","福建省莆田市仙游县","中华人民共和国","福建省","莆田市","仙游县"
"350421","福建省三明市明溪县","中华人民共和国","福建省","三明市","明溪县"
"350424","福建省三明市宁化县","中华人民共和国","福建省","三明市","宁化县"
"350427","福建省三明市沙县","中华人民共和国","福建省","三明市","沙县"
"350429","福建省三明市泰宁县","中华人民共和国","福建省","三明市","泰宁县"
"350500","福建省泉州市","中华人民共和国","福建省","泉州市",""
"350502","福建省泉州市鲤城区","中华人民共和国","福建省","泉州市","鲤城区"
"350504","福建省泉州市洛江区","中华人民共和国","福建省","泉州市","洛江区"
"350521","福建省泉州市惠安县","中华人民共和国","福建省","泉州市","惠安县"
"350525","福建省泉州市永春县","中华人民共和国","福建省","泉州市","永春县"
"350581","福建省泉州市石狮市","中华人民共和国","福建省","泉州市","石狮市"
"350583","福建省泉州市南安市","中华人民共和国","福建省","泉州市","南安市"
"350622","福建省漳州市云霄县","中华人民共和国","福建省","漳州市","云霄县"
"350623","福建省漳州市漳浦县","中华人民共和国","福建省","漳州市","漳浦县"
"350626","福建省漳州市东山县","中华人民共和国","福建省","漳州市","东山县"
"350628","福建省漳州市平和县","中华人民共和国","福建省","漳州市","平和县"
"350700","福建省南平市","中华人民共和国","福建省","南平市",""
"350721","福建省南平市顺昌县","中华人民共和国","福建省","南平市","顺昌县"
"350724","福建省南平市松溪县","中华人民共和国","福建省","南平市","松溪县"
"350781","福建省南平市邵武市","中华人民共和国","福建省","南平市","邵武市"
"350784","福建省南平市建阳市","中华人民共和国","福建省","南平市","建阳市"
"350802","福建省龙岩市新罗区","中华人民共和国","福建省","龙岩市","新罗区"
"350823","福建省龙岩市上杭县","中华人民共和国","福建省","龙岩市","上杭县"
"350825","福建省龙岩市连城县","中华人民共和国","福建省","龙岩市","连城县"
"350900","福建省宁德市","中华人民共和国","福建省","宁德市",""
"350922","福建省宁德市古田县","中华人民共和国","福建省","宁德市","古田县"
"350924","福建省宁德市寿宁县","中华人民共和国","福建省","宁德市","寿宁县"
"350926","福建省宁德市柘荣县","中华人民共和国","福建省","宁德市","柘荣县"
"350981","福建省宁德市福安市","中华人民共和国","福建省","宁德市","福安市"
"360000","江西省","中华人民共和国","江西省","",""
"360100","江西省南昌市","中华人民共和国","江西省","南昌市",""
"360102","江西省南昌市东湖区","中华人民共和国","江西省","南昌市","东湖区"
"360104","江西省南昌市青云谱区","中华人民共和国","江西省","南昌市","青云谱区"
"360105","江西省南昌市湾里区","中华人民共和国","江西省","南昌市","湾里区"
"360121","江西省南昌市南昌县","中华人民共和国","江西省","南昌市","南昌县"
"360122","江西省南昌市新建县","中华人民共和国","江西省","南昌市","新建县"
"360124","江西省南昌市进贤县","中华人民共和国","江西省","南昌市","进贤县"
"360200","江西省景德镇市","中华人民共和国","江西省","景德镇市",""
"360202","江西省景德镇市昌江区","中华人民共和国","江西省","景德镇市","昌江区"
"360222","江西省景德镇市浮梁县","中华人民共和国","江西省","景德镇市","浮梁县"
"360300","江西省萍乡市","中华人民共和国","江西省","萍乡市",""
"360302","江西省萍乡市安源区","中华人民共和国","江西省","萍乡市","安源区"
"360313","江西省萍乡市湘东区","中华人民共和国","江西省","萍乡市","湘东区"
"360322","江西省萍乡市上栗县","中华人民共和国","江西省","萍乡市","上栗县"
"360323","江西省萍乡市芦溪县","中华人民共和国","江西省","萍乡市","芦溪县"
"360402","江西省九江市庐山区","中华人民共和国","江西省","九江市","庐山区"
"360403","江西省九江市浔阳区","中华人民共和国","江西省","九江市","浔阳区"
"360423","江西省九江市武宁县","中华人民共和国","江西省","九江市","武宁县"
"360424","江西省九江市修水县","中华人民共和国","江西省","九江市","修水县"
"360426","江西省九江市德安县","中华人民共和国","江西省","九江市","德安县"
"360427","江西省九江市星子县","中华人民共和国","江西省","九江市","星子县"
"360429","江西省九江市湖口县","中华人民共和国","江西省","九江市","湖口县"
"360430","江西省九江市彭泽县","中华人民共和国","江西省","九江市","彭泽县"
"360482","江西省九江市共青城市","中华人民共和国","江西省","九江市","共青城市"
"360500","江西省新余市","中华人民共和国","江西省","新余市",""
"360521","江西省新余市分宜县","中华人民共和国","江西省","新余市","分宜县"
"360600","江西省鹰潭市","中华人民共和国","江西省","鹰潭市",""
"360622","江西省鹰潭市余江县","中华人民共和国","江西省","鹰潭市","余江县"
"360681","江西省鹰潭市贵溪市","中华人民共和国","江西省","鹰潭市","贵溪市"
"360702","江西省赣州市章贡区","中华人民共和国","江西省","赣州市","章贡区"
"360721","江西省赣州市赣县","中华人民共和国","江西省","赣州市","赣县"
"360723","江西省赣州市大余县","中华人民共和国","江西省","赣州市","大余县"
"360724","江西省赣州市上犹县","中华人民共和国","江西省","赣州市","上犹县"
"360726","江西省赣州市安远县","中华人民共和国","江西省","赣州市","安远县"
"360727","江西省赣州市龙南县","中华人民共和国","江西省","赣州市","龙南县"
"360729","江西省赣州市全南县","中华人民共和国","江西省","赣州市","全南县"
"360731","江西省赣州市于都县","中华人民共和国","江西省","赣州市","于都县"
"360734","江西省赣州市寻乌县","中华人民共和国","江西省","赣州市","寻乌县"
"360781","江西省赣州市瑞金市","中华人民共和国","江西省","赣州市","瑞金市"
"360802","江西省吉安市吉州区","中华人民共和国","江西省","吉安市","吉州区"
"360821","江西省吉安市吉安县","中华人民共和国","江西省","吉安市","吉安县"
"360824","江西省吉安市新干县","中华人民共和国","江西省","吉安市","新干县"
"360826","江西省吉安市泰和县","中华人民共和国","江西省","吉安市","泰和县"
"360829","江西省吉安市安福县","中华人民共和国","江西省","吉安市","安福县"
"360881","江西省吉安市井冈山市","中华人民共和国","江西省","吉安市","井冈山市"
"360921","江西省宜春市奉新县","中华人民共和国","江西省","宜春市","奉新县"
"360924","江西省宜春市宜丰县","中华人民共和国","江西省","宜春市","宜丰县"
"360926","江西省宜春市铜鼓县","中华人民共和国","江西省","宜春市","铜鼓县"
"360983","江西省宜春市高安市","中华人民共和国","江西省","宜春市","高安市"
"361002","江西省抚州市临川区","中华人民共和国","江西省","抚州市","临川区"
"361023","江西省抚州市南丰县","中华人民共和国","江西省","抚州市","南丰县"
"361025","江西省抚州市乐安县","中华人民共和国","江西省","抚州市","乐安县"
"361028","江西省抚州市资溪县","中华人民共和国","江西省","抚州市","资溪县"
"361030","江西省抚州市广昌县","中华人民共和国","江西省","抚州市","广昌县"
"361122","江西省上饶市广丰县","中华人民共和国","江西省","上饶市","广丰县"
"361123","江西省上饶市玉山县","中华人民共和国","江西省","上饶市","玉山县"
"361127","江西省上饶市余干县","中华人民共和国","江西省","上饶市","余干县"
"361128","江西省上饶市鄱阳县","中华人民共和国","江西省","上饶市","鄱阳县"
"361181","江西省上饶市德兴市","中华人民共和国","江西省","上饶市","德兴市"
"370102","山东省济南市历下区","中华人民共和国","山东省","济南市","历下区"
"370105","山东省济南市天桥区","中华人民共和国","山东省","济南市","天桥区"
"370113","山东省济南市长清区","中华人民共和国","山东省","济南市","长清区"
"370126","山东省济南市商河县","中华人民共和国","山东省","济南市","商河县"
"370200","山东省青岛市","中华人民共和国","山东省","青岛市",""
"370203","山东省青岛市市北区","中华人民共和国","山东省","青岛市","市北区"
"370213","山东省青岛市李沧区","中华人民共和国","山东省","青岛市","李沧区"
"370281","山东省青岛市胶州市","中华人民共和国","山东省","青岛市","胶州市"
"370284","山东省青岛市胶南市","中华人民共和国","山东省","青岛市","胶南市"
"370285","山东省青岛市莱西市","中华人民共和国","山东省","青岛市","莱西市"
"370304","山东省淄博市博山区","中华人民共和国","山东省","淄博市","博山区"
"370306","山东省淄博市周村区","中华人民共和国","山东省","淄博市","周村区"
"370323","山东省淄博市沂源县","中华人民共和国","山东省","淄博市","沂源县"
"370402","山东省枣庄市市中区","中华人民共和国","山东省","枣庄市","市中区"
"370405","山东省枣庄市台儿庄区","中华人民共和国","山东省","枣庄市","台儿庄区"
"370502","山东省东营市东营区","中华人民共和国","山东省","东营市","东营区"
"370521","山东省东营市垦利县","中华人民共和国","山东省","东营市","垦利县"
"370600","山东省烟台市","中华人民共和国","山东省","烟台市",""
"370602","山东省烟台市芝罘区","中华人民共和国","山东省","烟台市","芝罘区"
"370612","山东省烟台市牟平区","中华人民共和国","山东省","烟台市","牟平区"
"370616","山东省烟台市高新区","中华人民共和国","山东省","烟台市","高新区"
"370681","山东省烟台市龙口市","中华人民共和国","山东省","烟台市","龙口市"
"370684","山东省烟台市蓬莱市","中华人民共和国","山东省","烟台市","蓬莱市"
"370686","山东省烟台市栖霞市","中华人民共和国","山东省","烟台市","栖霞市"
"370702","山东省潍坊市潍城区","中华人民共和国","山东省","潍坊市","潍城区"
"370705","山东省潍坊市奎文区","中华人民共和国","山东省","潍坊市","奎文区"
"370725","山东省潍坊市昌乐县","中华人民共和国","山东省","潍坊市","昌乐县"
"370783","山东省潍坊市寿光市","中华人民共和国","山东省","潍坊市","寿光市"
"370785","山东省潍坊市高密市","中华人民共和国","山东省","潍坊市","高密市"
"370800","山东省济宁市","中华人民共和国","山东省","济宁市",""
"370826","山东省济宁市微山县","中华人民共和国","山东省","济宁市","微山县"
"370828","山东省济宁市金乡县","中华人民共和国","山东省","济宁市","金乡县"
"370831","山东省济宁市泗水县","中华人民共和国","山东省","济宁市","泗水县"
"370832","山东省济宁市梁山县","中华人民共和国","山东省","济宁市","梁山县"
"370900","山东省泰安市","中华人民共和国","山东省","泰安市",""
"370902","山东省泰安市泰山区","中华人民共和国","山东省","泰安市","泰山区"
"370982","山东省泰安市新泰市","中华人民共和国","山东省","泰安市","新泰市"
"370983","山东省泰安市肥城市","中华人民共和国","山东省","泰安市","肥城市"
"371082","山东省威海市荣成市","中华人民共和国","山东省","威海市","荣成市"
"371100","山东省日照市","中华人民共和国","山东省","日照市",""
"371121","山东省日照市五莲县","中华人民共和国","山东省","日照市","五莲县"
"371122","山东省日照市莒县","中华人民共和国","山东省","日照市","莒县"
"371300","山东省临沂市","中华人民共和国","山东省","临沂市",""
"371311","山东省临沂市罗庄区","中华人民共和国","山东省","临沂市","罗庄区"
"371321","山东省临沂市沂南县","中华人民共和国","山东省","临沂市","沂南县"
"371322","山东省临沂市郯城县","中华人民共和国","山东省","临沂市","郯城县"
"371324","山东省临沂市兰陵县","中华人民共和国","山东省","临沂市","兰陵县"
"371325","山东省临沂市费县","中华人民共和国","山东省","临沂市","费县"
"371327","山东省临沂市莒南县","中华人民共和国","山东省","临沂市","莒南县"
"371328","山东省临沂市蒙阴县","中华人民共和国","山东省","临沂市","蒙阴县"
"371400","山东省德州市","中华人民共和国","山东省","德州市",""
"371402","山东省德州市德城区","中华人民共和国","山东省","德州市","德城区"
"371422","山东省德州市宁津县","中华人民共和国","山东省","德州市","宁津县"
"371423","山东省德州市庆云县","中华人民共和国","山东省","德州市","庆云县"
"371425","山东省德州市齐河县","中华人民共和国","山东省","德州市","齐河县"
"371426","山东省德州市平原县","中华人民共和国","山东省","德州市","平原县"
"371428","山东省德州市武城县","中华人民共和国","山东省","德州市","武城县"
"371481","山东省德州市乐陵市","中华人民共和国","山东省","德州市","乐陵市"
"371500","山东省聊城市","中华人民共和国","山东省","聊城市",""
"371502","山东省聊城市东昌府区","中华人民共和国","山东省","聊城市","东昌府区"
"371522","山东省聊城市莘县","中华人民共和国","山东省","聊城市","莘县"
"371523","山东省聊城市茌平县","中华人民共和国","山东省","聊城市","茌平县"
"371525","山东省聊城市冠县","中华人民共和国","山东省","聊城市","冠县"
"371526","山东省聊城市高唐县","中华人民共和国","山东省","聊城市","高唐县"
"371581","山东省聊城市临清市","中华人民共和国","山东省","聊城市","临清市"
"371602","山东省滨州市滨城区","中华人民共和国","山东省","滨州市","滨城区"
"371622","山东省滨州市阳信县","中华人民共和国","山东省","滨州市","阳信县"
"371623","山东省滨州市无棣县","中华人民共和国","山东省","滨州市","无棣县"
"371625","山东省滨州市博兴县","中华人民共和国","山东省","滨州市","博兴县"
"371626","山东省滨州市邹平县","中华人民共和国","山东省","滨州市","邹平县"
"371702","山东省菏泽市牡丹区","中华人民共和国","山东省","菏泽市","牡丹区"
"371721","山东省菏泽市曹县","中华人民共和国","山东省","菏泽市","曹县"
"371723","山东省菏泽市成武县","中华人民共和国","山东省","菏泽市","成武县"
"371724","山东省菏泽市巨野县","中华人民共和国","山东省","菏泽市","巨野县"
"371726","山东省菏泽市鄄城县","中华人民共和国","山东省","菏泽市","鄄城县"
"371727","山东省菏泽市定陶县","中华人民共和国","山东省","菏泽市","定陶县"
"410000","河南省","中华人民共和国","河南省","",""
"410100","河南省郑州市","中华人民共和国","河南省","郑州市",""
"410102","河南省郑州市中原区","中华人民共和国","河南省","郑州市","中原区"
"410104","河南省郑州市管城回族区","中华人民共和国","河南省","郑州市","管城回族区"
"410106","河南省郑州市上街区","中华人民共和国","河南省","郑州市","上街区"
"410108","河南省郑州市惠济区","中华人民共和国","河南省","郑州市","惠济区"
"410181","河南省郑州市巩义市","中华人民共和国","河南省","郑州市","巩义市"
"410183","河南省郑州市新密市","中华人民共和国","河南省","郑州市","新密市"
"410200","河南省开封市","中华人民共和国","河南省","开封市",""
"410203","河南省开封市顺河回族区","中华人民共和国","河南省","开封市","顺河回族区"
"410211","河南省开封市金明区","中华人民共和国","河南省","开封市","金明区"
"410222","河南省开封市通许县","中华人民共和国","河南省","开封市","通许县"
"410224","河南省开封市开封县","中华人民共和国","河南省","开封市","开封县"
"410302","河南省洛阳市老城区","中华人民共和国","河南省","洛阳市","老城区"
"410305","河南省洛阳市涧西区","中华人民共和国","河南省","洛阳市","涧西区"
"410311","河南省洛阳市洛龙区","中华人民共和国","河南省","洛阳市","洛龙区"
"410323","河南省洛阳市新安县","中华人民共和国","河南省","洛阳市","新安县"
"410326","河南省洛阳市汝阳县","中华人民共和国","河南省","洛阳市","汝阳县"
"410328","河南省洛阳市洛宁县","中华人民共和国","河南省","洛阳市","洛宁县"
"410400","河南省平顶山市","中华人民共和国","河南省","平顶山市",""
"410403","河南省平顶山市卫东区","中华人民共和国","河南省","平顶山市","卫东区"
"410421","河南省平顶山市宝丰县","中华人民共和国","河南省","平顶山市","宝丰县"
"410422","河南省平顶山市叶县","中华人民共和国","河南省","平顶山市","叶县"
"410482","河南省平顶山市汝州市","中华人民共和国","河南省","平顶山市","汝州市"
"410500","河南省安阳市","中华人民共和国","河南省","安阳市",""
"410505","河南省安阳市殷都区","中华人民共和国","河南省","安阳市","殷都区"
"410522","河南省安阳市安阳县","中华人民共和国","河南省","安阳市","安阳县"
"410527","河南省安阳市内黄县","中华人民共和国","河南省","安阳市","内黄县"
"410600","河南省鹤壁市","中华人民共和国","河南省","鹤壁市",""
"410611","河南省鹤壁市淇滨区","中华人民共和国","河南省","鹤壁市","淇滨区"
"410622","河南省鹤壁市淇县","中华人民共和国","河南省","鹤壁市","淇县"
"410702","河南省新乡市红旗区","中华人民共和国","河南省","新乡市","红旗区"
"410711","河南省新乡市牧野区","中华人民共和国","河南省","新乡市","牧野区"
"410724","河南省新乡市获嘉县","中华人民共和国","河南省","新乡市","获嘉县"
"410727","河南省新乡市封丘县","中华人民共和国","河南省","新乡市","封丘县"
"410781","河南省新乡市卫辉市","中华人民共和国","河南省","新乡市","卫辉市"
"410802","河南省焦作市解放区","中华人民共和国","河南省","焦作市","解放区"
"410804","河南省焦作市马村区","中华人民共和国","河南省","焦作市","马村区"
"410822","河南省焦作市博爱县","中华人民共和国","河南省","焦作市","博爱县"
"410825","河南省焦作市温县","中华人民共和国","河南省","焦作市","温县"
"410900","河南省濮阳市","中华人民共和国","河南省","濮阳市",""
"410922","河南省濮阳市清丰县","中华人民共和国","河南省","濮阳市","清丰县"
"410927","河南省濮阳市台前县","中华人民共和国","河南省","濮阳市","台前县"
"411000","河南省许昌市","中华人民共和国","河南省","许昌市",""
"411024","河南省许昌市鄢陵县","中华人民共和国","河南省","许昌市","鄢陵县"
"411081","河南省许昌市禹州市","中华人民共和国","河南省","许昌市","禹州市"
"411102","河南省漯河市源汇区","中华人民共和国","河南省","漯河市","源汇区"
"411104","河南省漯河市召陵区","中华人民共和国","河南省","漯河市","召陵区"
"411200","河南省三门峡市","中华人民共和国","河南省","三门峡市",""
"411221","河南省三门峡市渑池县","中华人民共和国","河南省","三门峡市","渑池县"
"411281","河南省三门峡市义马市","中华人民共和国","河南省","三门峡市","义马市"
"411300","河南省南阳市","中华人民共和国","河南省","南阳市",""
"411302","河南省南阳市宛城区","中华人民共和国","河南省","南阳市","宛城区"
"411322","河南省南阳市方城县","中华人民共和国","河南省","南阳市","方城县"
"411324","河南省南阳市镇平县","中华人民共和国","河南省","南阳市","镇平县"
"411327","河南省南阳市社旗县","中华人民共和国","河南省","南阳市","社旗县"
"411329","河南省南阳市新野县","中华人民共和国","河南省","南阳市","新野县"
"411400","河南省商丘市","中华人民共和国","河南省","商丘市",""
"411403","河南省商丘市睢阳区","中华人民共和国","河南省","商丘市","睢阳区"
"411423","河南省商丘市宁陵县","中华人民共和国","河南省","商丘市","宁陵县"
"411425","河南省商丘市虞城县","中华人民共和国","河南省","商丘市","虞城县"
"411500","河南省信阳市","中华人民共和国","河南省","信阳市",""
"411503","河南省信阳市平桥区","中华人民共和国","河南省","信阳市","平桥区"
"411523","河南省信阳市新县","中华人民共和国","河南省","信阳市","新县"
"411525","河南省信阳市固始县","中华人民共和国","河南省","信阳市","固始县"
"411528","河南省信阳市息县","中华人民共和国","河南省","信阳市","息县"
"411602","河南省周口市川汇区","中华人民共和国","河南省","周口市","川汇区"
"411623","河南省周口市商水县","中华人民共和国","河南省","周口市","商水县"
"411625","河南省周口市郸城县","中华人民共和国","河南省","周口市","郸城县"
"411628","河南省周口市鹿邑县","中华人民共和国","河南省","周口市","鹿邑县"
"411700","河南省驻马店市","中华人民共和国","河南省","驻马店市",""
"411702","河南省驻马店市驿城区","中华人民共和国","河南省","驻马店市","驿城区"
"411724","河南省驻马店市正阳县","中华人民共和国","河南省","驻马店市","正阳县"
"411727","河南省驻马店市汝南县","中华人民共和国","河南省","驻马店市","汝南县"
"411728","河南省驻马店市遂平县","中华人民共和国","河南省","驻马店市","遂平县"
"411729","河南省驻马店市新蔡县","中华人民共和国","河南省","驻马店市","新蔡县"
"419001","河南省省直辖县级行政区划济源市","中华人民共和国","河南省","省直辖县级行政区划","济源市"
"420000","湖北省","中华人民共和国","湖北省","",""
"420102","湖北省武汉市江岸区","中华人民共和国","湖北省","武汉市","江岸区"
"420104","湖北省武汉市硚口区","中华人民共和国","湖北省","武汉市","硚口区"
"420105","湖北省武汉市汉阳区","中华人民共和国","湖北省","武汉市","汉阳区"
"420107","湖北省武汉市青山区","中华人民共和国","湖北省","武汉市","青山区"
"420111","湖北省武汉市洪山区","中华人民共和国","湖北省","武汉市","洪山区"
"420113","湖北省武汉市汉南区","中华人民共和国","湖北省","武汉市","汉南区"
"420114","湖北省武汉市蔡甸区","中华人民共和国","湖北省","武汉市","蔡甸区"
"420115","湖北省武汉市江夏区","中华人民共和国","湖北省","武汉市","江夏区"
"420117","湖北省武汉市新洲区","中华人民共和国","湖北省","武汉市","新洲区"
"420200","湖北省黄石市","中华人民共和国","湖北省","黄石市",""
"420203","湖北省黄石市西塞山区","中华人民共和国","湖北省","黄石市","西塞山区"
"420204","湖北省黄石市下陆区","中华人民共和国","湖北省","黄石市","下陆区"
"420222","湖北省黄石市阳新县","中华人民共和国","湖北省","黄石市","阳新县"
"420281","湖北省黄石市大冶市","中华人民共和国","湖北省","黄石市","大冶市"
"420302","湖北省十堰市茅箭区","中华人民共和国","湖北省","十堰市","茅箭区"
"420321","湖北省十堰市郧县","中华人民共和国","湖北省","十堰市","郧县"
"420322","湖北省十堰市郧西县","中华人民共和国","湖北省","十堰市","郧西县"
"420323","湖北省十堰市竹山县","中华人民共和国","湖北省","十堰市","竹山县"
"420325","湖北省十堰市房县","中华人民共和国","湖北省","十堰市","房县"
"420381","湖北省十堰市丹江口市","中华人民共和国","湖北省","十堰市","丹江口市"
"420502","湖北省宜昌市西陵区","中华人民共和国","湖北省","宜昌市","西陵区"
"420504","湖北省宜昌市点军区","中华人民共和国","湖北省","宜昌市","点军区"
"420505","湖北省宜昌市猇亭区","中华人民共和国","湖北省","宜昌市","猇亭区"
"420525","湖北省宜昌市远安县","中华人民共和国","湖北省","宜昌市","远安县"
"420526","湖北省宜昌市兴山县","中华人民共和国","湖北省","宜昌市","兴山县"
"420528","湖北省宜昌市长阳土家族自治县","中华人民共和国","湖北省","宜昌市","长阳土家族自治县"
"420581","湖北省宜昌市宜都市","中华人民共和国","湖北省","宜昌市","宜都市"
"420582","湖北省宜昌市当阳市","中华人民共和国","湖北省","宜昌市","当阳市"
"420583","湖北省宜昌市枝江市","中华人民共和国","湖北省","宜昌市","枝江市"
"420600","湖北省襄阳市","中华人民共和国","湖北省","襄阳市",""
"420606","湖北省襄阳市樊城区","中华人民共和国","湖北省","襄阳市","樊城区"
"420607","湖北省襄阳市襄州区","中华人民共和国","湖北省","襄阳市","襄州区"
"420625","湖北省襄阳市谷城县","中华人民共和国","湖北省","襄阳市","谷城县"
"420626","湖北省襄阳市保康县","中华人民共和国","湖北省","襄阳市","保康县"
"420683","湖北省襄阳市枣阳市","中华人民共和国","湖北省","襄阳市","枣阳市"
"420684","湖北省襄阳市宜城市","中华人民共和国","湖北省","襄阳市","宜城市"
"420704","湖北省鄂州市鄂城区","中华人民共和国","湖北省","鄂州市","鄂城区"
"420800","湖北省荆门市","中华人民共和国","湖北省","荆门市",""
"420822","湖北省荆门市沙洋县","中华人民共和国","湖北省","荆门市","沙洋县"
"420881","湖北省荆门市钟祥市","中华人民共和国","湖北省","荆门市","钟祥市"
"420922","湖北省孝感市大悟县","中华人民共和国","湖北省","孝感市","大悟县"
"420923","湖北省孝感市云梦县","中华人民共和国","湖北省","孝感市","云梦县"
"421000","湖北省荆州市","中华人民共和国","湖北省","荆州市",""
"421002","湖北省荆州市沙市区","中华人民共和国","湖北省","荆州市","沙市区"
"421024","湖北省荆州市江陵县","中华人民共和国","湖北省","荆州市","江陵县"
"421081","湖北省荆州市石首市","中华人民共和国","湖北省","荆州市","石首市"
"421102","湖北省黄冈市黄州区","中华人民共和国","湖北省","黄冈市","黄州区"
"421122","湖北省黄冈市红安县","中华人民共和国","湖北省","黄冈市","红安县"
"421125","湖北省黄冈市浠水县","中华人民共和国","湖北省","黄冈市","浠水县"
"421126","湖北省黄冈市蕲春县","中华人民共和国","湖北省","黄冈市","蕲春县"
"421200","湖北省咸宁市","中华人民共和国","湖北省","咸宁市",""
"421202","湖北省咸宁市咸安区","中华人民共和国","湖北省","咸宁市","咸安区"
"421222","湖北省咸宁市通城县","中华人民共和国","湖北省","咸宁市","通城县"
"421281","湖北省咸宁市赤壁市","中华人民共和国","湖北省","咸宁市","赤壁市"
"421303","湖北省随州市曾都区","中华人民共和国","湖北省","随州市","曾都区"
"422801","湖北省恩施土家族苗族自治州恩施市","中华人民共和国","湖北省","恩施土家族苗族自治州","恩施市"
"422823","湖北省恩施土家族苗族自治州巴东县","中华人民共和国","湖北省","恩施土家族苗族自治州","巴东县"
"422826","湖北省恩施土家族苗族自治州咸丰县","中华人民共和国","湖北省","恩施土家族苗族自治州","咸丰县"
"422828","湖北省恩施土家族苗族自治州鹤峰县","中华人民共和国","湖北省","恩施土家族苗族自治州","鹤峰县"
"429005","湖北省省直辖县级行政区划潜江市","中华人民共和国","湖北省","省直辖县级行政区划","潜江市"
"429021","湖北省省直辖县级行政区划神农架林区","中华人民共和国","湖北省","省直辖县级行政区划","神农架林区"
"430102","湖南省长沙市芙蓉区","中华人民共和国","湖南省","长沙市","芙蓉区"
"430104","湖南省长沙市岳麓区","中华人民共和国","湖南省","长沙市","岳麓区"
"430112","湖南省长沙市望城区","中华人民共和国","湖南省","长沙市","望城区"
"430124","湖南省长沙市宁乡县","中华人民共和国","湖南省","长沙市","宁乡县"
"430202","湖南省株洲市荷塘区","中华人民共和国","湖南省","株洲市","荷塘区"
"430204","湖南省株洲市石峰区","中华人民共和国","湖南省","株洲市","石峰区"
"430223","湖南省株洲市攸县","中华人民共和国","湖南省","株洲市","攸县"
"430225","湖南省株洲市炎陵县","中华人民共和国","湖南省","株洲市","炎陵县"
"430302","湖南省湘潭市雨湖区","中华人民共和国","湖南省","湘潭市","雨湖区"
"430321","湖南省湘潭市湘潭县","中华人民共和国","湖南省","湘潭市","湘潭县"
"430400","湖南省衡阳市","中华人民共和国","湖南省","衡阳市",""
"430406","湖南省衡阳市雁峰区","中华人民共和国","湖南省","衡阳市","雁峰区"
"430412","湖南省衡阳市南岳区","中华人民共和国","湖南省","衡阳市","南岳区"
"430422","湖南省衡阳市衡南县","中华人民共和国","湖南省","衡阳市","衡南县"
"430426","湖南省衡阳市祁东县","中华人民共和国","湖南省","衡阳市","祁东县"
"430482","湖南省衡阳市常宁市","中华人民共和国","湖南省","衡阳市","常宁市"
"430503","湖南省邵阳市大祥区","中华人民共和国","湖南省","邵阳市","大祥区"
"430521","湖南省邵阳市邵东县","中华人民共和国","湖南省","邵阳市","邵东县"
"430524","湖南省邵阳市隆回县","中华人民共和国","湖南省","邵阳市","隆回县"
"430527","湖南省邵阳市绥宁县","中华人民共和国","湖南省","邵阳市","绥宁县"
"430581","湖南省邵阳市武冈市","中华人民共和国","湖南省","邵阳市","武冈市"
"430600","湖南省岳阳市","中华人民共和国","湖南省","岳阳市",""
"430611","湖南省岳阳市君山区","中华人民共和国","湖南省","岳阳市","君山区"
"430623","湖南省岳阳市华容县","中华人民共和国","湖南省","岳阳市","华容县"
"430681","湖南省岳阳市汨罗市","中华人民共和国","湖南省","岳阳市","汨罗市"
"430700","湖南省常德市","中华人民共和国","湖南省","常德市",""
"430721","湖南省常德市安乡县","中华人民共和国","湖南省","常德市","安乡县"
"430723","湖南省常德市澧县","中华人民共和国","湖南省","常德市","澧县"
"430726","湖南省常德市石门县","中华人民共和国","湖南省","常德市","石门县"
"430800","湖南省张家界市","中华人民共和国","湖南省","张家界市",""
"430821","湖南省张家界市慈利县","中华人民共和国","湖南省","张家界市","慈利县"
"430822","湖南省张家界市桑植县","中华人民共和国","湖南省","张家界市","桑植县"
"430921","湖南省益阳市南县","中华人民共和国","湖南省","益阳市","南县"
"430923","湖南省益阳市安化县","中华人民共和国","湖南省","益阳市","安化县"
"430981","湖南省益阳市沅江市","中华人民共和国","湖南省","益阳市","沅江市"
"431021","湖南省郴州市桂阳县","中华人民共和国","湖南省","郴州市","桂阳县"
"431023","湖南省郴州市永兴县","中华人民共和国","湖南省","郴州市","永兴县"
"431026","湖南省郴州市汝城县","中华人民共和国","湖南省","郴州市","汝城县"
"431027","湖南省郴州市桂东县","中华人民共和国","湖南省","郴州市","桂东县"
"431103","湖南省永州市冷水滩区","中华人民共和国","湖南省","永州市","冷水滩区"
"431121","湖南省永州市祁阳县","中华人民共和国","湖南省","永州市","祁阳县"
"431123","湖南省永州市双牌县","中华人民共和国","湖南省","永州市","双牌县"
"431124","湖南省永州市道县","中华人民共和国","湖南省","永州市","道县"
"431126","湖南省永州市宁远县","中华人民共和国","湖南省","永州市","宁远县"
"431127","湖南省永州市蓝山县","中华人民共和国","湖南省","永州市","蓝山县"
"431129","湖南省永州市江华瑶族自治县","中华人民共和国","湖南省","永州市","江华瑶族自治县"
"431200","湖南省怀化市","中华人民共和国","湖南省","怀化市",""
"431221","湖南省怀化市中方县","中华人民共和国","湖南省","怀化市","中方县"
"431222","湖南省怀化市沅陵县","中华人民共和国","湖南省","怀化市","沅陵县"
"431224","湖南省怀化市溆浦县","中华人民共和国","湖南省","怀化市","溆浦县"
"431225","湖南省怀化市会同县","中华人民共和国","湖南省","怀化市","会同县"
"431227","湖南省怀化市新晃侗族自治县","中华人民共和国","湖南省","怀化市","新晃侗族自治县"
"431229","湖南省怀化市靖州苗族侗族自治县","中华人民共和国","湖南省","怀化市","靖州苗族侗族自治县"
"431230","湖南省怀化市通道侗族自治县","中华人民共和国","湖南省","怀化市","通道侗族自治县"
"431300","湖南省娄底市","中华人民共和国","湖南省","娄底市",""
"431302","湖南省娄底市娄星区","中华人民共和国","湖南省","娄底市","娄星区"
"431322","湖南省娄底市新化县","中华人民共和国","湖南省","娄底市","新化县"
"431381","湖南省娄底市冷水江市","中华人民共和国","湖南省","娄底市","冷水江市"
"433100","湖南省湘西土家族苗族自治州","中华人民共和国","湖南省","湘西土家族苗族自治州",""
"433122","湖南省湘西土家族苗族自治州泸溪县","中华人民共和国","湖南省","湘西土家族苗族自治州","泸溪县"
"433123","湖南省湘西土家族苗族自治州凤凰县","中华人民共和国","湖南省","湘西土家族苗族自治州","凤凰县"
"433125","湖南省湘西土家族苗族自治州保靖县","中华人民共和国","湖南省","湘西土家族苗族自治州","保靖县"
"433127","湖南省湘西土家族苗族自治州永顺县","中华人民共和国","湖南省","湘西土家族苗族自治州","永顺县"
"433130","湖南省湘西土家族苗族自治州龙山县","中华人民共和国","湖南省","湘西土家族苗族自治州","龙山县"
"440000","广东省","中华人民共和国","广东省","",""
"440103","广东省广州市荔湾区","中华人民共和国","广东省","广州市","荔湾区"
"440105","广东省广州市海珠区","中华人民共和国","广东省","广州市","海珠区"
"440106","广东省广州市天河区","中华人民共和国","广东省","广州市","天河区"
"440112","广东省广州市黄埔区","中华人民共和国","广东省","广州市","黄埔区"
"440113","广东省广州市番禺区","中华人民共和国","广东省","广州市","番禺区"
"440115","广东省广州市南沙区","中华人民共和国","广东省","广州市","南沙区"
"440116","广东省广州市萝岗区","中华人民共和国","广东省","广州市","萝岗区"
"440184","广东省广州市从化市","中华人民共和国","广东省","广州市","从化市"
"440200","广东省韶关市","中华人民共和国","广东省","韶关市",""
"440203","广东省韶关市武江区","中华人民共和国","广东省","韶关市","武江区"
"440205","广东省韶关市曲江区","中华人民共和国","广东省","韶关市","曲江区"
"440222","广东省韶关市始兴县","中华人民共和国","广东省","韶关市","始兴县"
"440232","广东省韶关市乳源瑶族自治县","中华人民共和国","广东省","韶关市","乳源瑶族自治县"
"440282","广东省韶关市南雄市","中华人民共和国","广东省","韶关市","南雄市"
"440303","广东省深圳市罗湖区","中华人民共和国","广东省","深圳市","罗湖区"
"440306","广东省深圳市宝安区","中华人民共和国","广东省","深圳市","宝安区"
"440308","广东省深圳市盐田区","中华人民共和国","广东省","深圳市","盐田区"
"440311","广东省深圳市龙华新区","中华人民共和国","广东省","深圳市","龙华新区"
"440400","广东省珠海市","中华人民共和国","广东省","珠海市",""
"440402","广东省珠海市香洲区","中华人民共和国","广东省","珠海市","香洲区"
"440406","广东省珠海市高新技术产业开发区","中华人民共和国","广东省","珠海市","高新技术产业开发区"
"440500","广东省汕头市","中华人民共和国","广东省","汕头市",""
"440511","广东省汕头市金平区","中华人民共和国","广东省","汕头市","金平区"
"440512","广东省汕头市濠江区","中华人民共和国","广东省","汕头市","濠江区"
"440515","广东省汕头市澄海区","中华人民共和国","广东省","汕头市","澄海区"
"440600","广东省佛山市","中华人民共和国","广东省","佛山市",""
"440606","广东省佛山市顺德区","中华人民共和国","广东省","佛山市","顺德区"
"440608","广东省佛山市高明区","中华人民共和国","广东省","佛山市","高明区"
"440705","广东省江门市新会区","中华人民共和国","广东省","江门市","新会区"
"440781","广东省江门市台山市","中华人民共和国","广东省","江门市","台山市"
"440800","广东省湛江市","中华人民共和国","广东省","湛江市",""
"440802","广东省湛江市赤坎区","中华人民共和国","广东省","湛江市","赤坎区"
"440811","广东省湛江市麻章区","中华人民共和国","广东省","湛江市","麻章区"
"440825","广东省湛江市徐闻县","中华人民共和国","广东省","湛江市","徐闻县"
"440883","广东省湛江市吴川市","中华人民共和国","广东省","湛江市","吴川市"
"440900","广东省茂名市","中华人民共和国","广东省","茂名市",""
"440904","广东省茂名市电白区","中华人民共和国","广东省","茂名市","电白区"
"440983","广东省茂名市信宜市","中华人民共和国","广东省","茂名市","信宜市"
"441202","广东省肇庆市端州区","中华人民共和国","广东省","肇庆市","端州区"
"441205","广东省肇庆市肇庆新区","中华人民共和国","广东省","肇庆市","肇庆新区"
"441225","广东省肇庆市封开县","中华人民共和国","广东省","肇庆市","封开县"
"441283","广东省肇庆市高要市","中华人民共和国","广东省","肇庆市","高要市"
"441300","广东省惠州市","中华人民共和国","广东省","惠州市",""
"441304","广东省惠州市大亚湾区","中华人民共和国","广东省","惠州市","大亚湾区"
"441323","广东省惠州市惠东县","中华人民共和国","广东省","惠州市","惠东县"
"441400","广东省梅州市","中华人民共和国","广东省","梅州市",""
"441402","广东省梅州市梅江区","中华人民共和国","广东省","梅州市","梅江区"
"441424","广东省梅州市五华县","中华人民共和国","广东省","梅州市","五华县"
"441426","广东省梅州市平远县","中华人民共和国","广东省","梅州市","平远县"
"441502","广东省汕尾市城区","中华人民共和国","广东省","汕尾市","城区"
"441523","广东省汕尾市陆河县","中华人民共和国","广东省","汕尾市","陆河县"
"441583","广东省汕尾市华侨管理区","中华人民共和国","广东省","汕尾市","华侨管理区"
"441600","广东省河源市","中华人民共和国","广东省","河源市",""
"441622","广东省河源市龙川县","中华人民共和国","广东省","河源市","龙川县"
"441624","广东省河源市和平县","中华人民共和国","广东省","河源市","和平县"
"441700","广东省阳江市","中华人民共和国","广东省","阳江市",""
"441723","广东省阳江市阳东县","中华人民共和国","广东省","阳江市","阳东县"
"441781","广东省阳江市阳春市","中华人民共和国","广东省","阳江市","阳春市"
"441803","广东省清远市清新区","中华人民共和国","广东省","清远市","清新区"
"441825","广东省清远市连山壮族瑶族自治县","中华人民共和国","广东省","清远市","连山壮族瑶族自治县"
"441882","广东省清远市连州市","中华人民共和国","广东省","清远市","连州市"
"441902","广东省东莞市莞城区","中华人民共和国","广东省","东莞市","莞城区"
"441904","广东省东莞市东城区","中华人民共和国","广东省","东莞市","东城区"
"441907","广东省东莞市虎门镇","中华人民共和国","广东省","东莞市","虎门镇"
"441909","广东省东莞市常平镇","中华人民共和国","广东省","东莞市","常平镇"
"441912","广东省东莞市塘厦镇","中华人民共和国","广东省","东莞市","塘厦镇"
"441914","广东省东莞市寮步镇","中华人民共和国","广东省","东莞市","寮步镇"
"441917","广东省东莞市凤岗镇","中华人民共和国","广东省","东莞市","凤岗镇"
"441918","广东省东莞市横沥镇","中华人民共和国","广东省","东莞市","横沥镇"
"441922","广东省东莞市中堂镇","中华人民共和国","广东省","东莞市","中堂镇"
"441923","广东省东莞市石排镇","中华人民共和国","广东省","东莞市","石排镇"
"441927","广东省东莞市道滘镇","中华人民共和国","广东省","东莞市","道滘镇"
"441928","广东省东莞市麻涌镇","中华人民共和国","广东省","东莞市","麻涌镇"
"441931","广东省东莞市望牛墩镇","中华人民共和国","广东省","东莞市","望牛墩镇"
"441933","广东省东莞市洪梅镇","中华人民共和国","广东省","东莞市","洪梅镇"
"442004","广东省中山市南区","中华人民共和国","广东省","中山市","南区"
"442005","广东省中山市东区","中华人民共和国","广东省","中山市","东区"
"442007","广东省中山市五桂山区","中华人民共和国","广东省","中山市","五桂山区"
"442008","广东省中山市小榄镇","中华人民共和国","广东省","中山市","小榄镇"
"442010","广东省中山市坦洲镇","中华人民共和国","广东省","中山市","坦洲镇"
"442011","广东省中山市三乡镇","中华人民共和国","广东省","中山市","三乡镇"
"442013","广东省中山市黄圃镇","中华人民共和国","广东省","中山市","黄圃镇"
"442014","广东省中山市东凤镇","中华人民共和国","广东省","中山市","东凤镇"
"442016","广东省中山市港口镇","中华人民共和国","广东省","中山市","港口镇"
"442017","广东省中山市民众镇","中华人民共和国","广东省","中山市","民众镇"
"442019","广东省中山市南头镇","中华人民共和国","广东省","中山市","南头镇"
"442020","广东省中山市南朗镇","中华人民共和国","广东省","中山市","南朗镇"
"442022","广东省中山市板芙镇","中华人民共和国","广东省","中山市","板芙镇"
"442023","广东省中山市横栏镇","中华人民共和国","广东省","中山市","横栏镇"
"442025","广东省中山市阜沙镇","中华人民共和国","广东省","中山市","阜沙镇"
"445100","广东省潮州市","中华人民共和国","广东省","潮州市",""
"445103","广东省潮州市潮安区","中华人民共和国","广东省","潮州市","潮安区"
"445122","广东省潮州市饶平县","中华人民共和国","广东省","潮州市","饶平县"
"445200","广东省揭阳市","中华人民共和国","广东省","揭阳市",""
"445202","广东省揭阳市榕城区","中华人民共和国","广东省","揭阳市","榕城区"
"445222","广东省揭阳市揭西县","中华人民共和国","广东省","揭阳市","揭西县"
"445224","广东省揭阳市惠来县","中华人民共和国","广东省","揭阳市","惠来县"
"445282","广东省揭阳市蓝城区","中华人民共和国","广东省","揭阳市","蓝城区"
"445283","广东省揭阳市空港经济区","中华人民共和国","广东省","揭阳市","空港经济区"
"445302","广东省云浮市云城区","中华人民共和国","广东省","云浮市","云城区"
"445321","广东省云浮市新兴县","中华人民共和国","广东省","云浮市","新兴县"
"445323","广东省云浮市云安县","中华人民共和国","广东省","云浮市","云安县"
"445381","广东省云浮市罗定市","中华人民共和国","广东省","云浮市","罗定市"
"450100","广西壮族自治区南宁市","中华人民共和国","广西壮族自治区","南宁市",""
"450103","广西壮族自治区南宁市青秀区","中华人民共和国","广西壮族自治区","南宁市","青秀区"
"450105","广西壮族自治区南宁市江南区","中华人民共和国","广西壮族自治区","南宁市","江南区"
"450108","广西壮族自治区南宁市良庆区","中华人民共和国","广西壮族自治区","南宁市","良庆区"
"450122","广西壮族自治区南宁市武鸣县","中华人民共和国","广西壮族自治区","南宁市","武鸣县"
"450123","广西壮族自治区南宁市隆安县","中华人民共和国","广西壮族自治区","南宁市","隆安县"
"450125","广西壮族自治区南宁市上林县","中华人民共和国","广西壮族自治区","南宁市","上林县"
"450126","广西壮族自治区南宁市宾阳县","中华人民共和国","广西壮族自治区","南宁市","宾阳县"
"450200","广西壮族自治区柳州市","中华人民共和国","广西壮族自治区","柳州市",""
"450202","广西壮族自治区柳州市城中区","中华人民共和国","广西壮族自治区","柳州市","城中区"
"450204","广西壮族自治区柳州市柳南区","中华人民共和国","广西壮族自治区","柳州市","柳南区"
"450221","广西壮族自治区柳州市柳江县","中华人民共和国","广西壮族自治区","柳州市","柳江县"
"450223","广西壮族自治区柳州市鹿寨县","中华人民共和国","广西壮族自治区","柳州市","鹿寨县"
"450226","广西壮族自治区柳州市三江侗族自治县","中华人民共和国","广西壮族自治区","柳州市","三江侗族自治县"
"450300","广西壮族自治区桂林市","中华人民共和国","广西壮族自治区","桂林市",""
"450304","广西壮族自治区桂林市象山区","中华人民共和国","广西壮族自治区","桂林市","象山区"
"450321","广西壮族自治区桂林市阳朔县","中华人民共和国","广西壮族自治区","桂林市","阳朔县"
"450322","广西壮族自治区桂林市临桂县","中华人民共和国","广西壮族自治区","桂林市","临桂县"
"450325","广西壮族自治区桂林市兴安县","中华人民共和国","广西壮族自治区","桂林市","兴安县"
"450327","广西壮族自治区桂林市灌阳县","中华人民共和国","广西壮族自治区","桂林市","灌阳县"
"450330","广西壮族自治区桂林市平乐县","中华人民共和国","广西壮族自治区","桂林市","平乐县"
"450331","广西壮族自治区桂林市荔浦县","中华人民共和国","广西壮族自治区","桂林市","荔浦县"
"450403","广西壮族自治区梧州市万秀区","中华人民共和国","广西壮族自治区","梧州市","万秀区"
"450421","广西壮族自治区梧州市苍梧县","中华人民共和国","广西壮族自治区","梧州市","苍梧县"
"450422","广西壮族自治区梧州市藤县","中华人民共和国","广西壮族自治区","梧州市","藤县"
"450500","广西壮族自治区北海市","中华人民共和国","广西壮族自治区","北海市",""
"450503","广西壮族自治区北海市银海区","中华人民共和国","广西壮族自治区","北海市","银海区"
"450600","广西壮族自治区防城港市","中华人民共和国","广西壮族自治区","防城港市",""
"450602","广西壮族自治区防城港市港口区","中华人民共和国","广西壮族自治区","防城港市","港口区"
"450681","广西壮族自治区防城港市东兴市","中华人民共和国","广西壮族自治区","防城港市","东兴市"
"450700","广西壮族自治区钦州市","中华人民共和国","广西壮族自治区","钦州市",""
"450721","广西壮族自治区钦州市灵山县","中华人民共和国","广西壮族自治区","钦州市","灵山县"
"450802","广西壮族自治区贵港市港北区","中华人民共和国","广西壮族自治区","贵港市","港北区"
"450804","广西壮族自治区贵港市覃塘区","中华人民共和国","广西壮族自治区","贵港市","覃塘区"
"450900","广西壮族自治区玉林市","中华人民共和国","广西壮族自治区","玉林市",""
"450902","广西壮族自治区玉林市玉州区","中华人民共和国","广西壮族自治区","玉林市","玉州区"
"450922","广西壮族自治区玉林市陆川县","中华人民共和国","广西壮族自治区","玉林市","陆川县"
"450981","广西壮族自治区玉林市北流市","中华人民共和国","广西壮族自治区","玉林市","北流市"
"451000","广西壮族自治区百色市","中华人民共和国","广西壮族自治区","百色市",""
"451022","广西壮族自治区百色市田东县","中华人民共和国","广西壮族自治区","百色市","田东县"
"451024","广西壮族自治区百色市德保县","中华人民共和国","广西壮族自治区","百色市","德保县"
"451027","广西壮族自治区百色市凌云县","中华人民共和国","广西壮族自治区","百色市","凌云县"
"451030","广西壮族自治区百色市西林县","中华人民共和国","广西壮族自治区","百色市","西林县"
"451031","广西壮族自治区百色市隆林各族自治县","中华人民共和国","广西壮族自治区","百色市","隆林各族自治县"
"451119","广西壮族自治区贺州市平桂区","中华人民共和国","广西壮族自治区","贺州市","平桂区"
"451122","广西壮族自治区贺州市钟山县","中华人民共和国","广西壮族自治区","贺州市","钟山县"
"451202","广西壮族自治区河池市金城江区","中华人民共和国","广西壮族自治区","河池市","金城江区"
"451223","广西壮族自治区河池市凤山县","中华人民共和国","广西壮族自治区","河池市","凤山县"
"451224","广西壮族自治区河池市东兰县","中华人民共和国","广西壮族自治区","河池市","东兰县"
"451227","广西壮族自治区河池市巴马瑶族自治县","中华人民共和国","广西壮族自治区","河池市","巴马瑶族自治县"
"451228","广西壮族自治区河池市都安瑶族自治县","中华人民共和国","广西壮族自治区","河池市","都安瑶族自治县"
"451300","广西壮族自治区来宾市","中华人民共和国","广西壮族自治区","来宾市",""
"451321","广西壮族自治区来宾市忻城县","中华人民共和国","广西壮族自治区","来宾市","忻城县"
"451324","广西壮族自治区来宾市金秀瑶族自治县","中华人民共和国","广西壮族自治区","来宾市","金秀瑶族自治县"
"451400","广西壮族自治区崇左市","中华人民共和国","广西壮族自治区","崇左市",""
"451421","广西壮族自治区崇左市扶绥县","中华人民共和国","广西壮族自治区","崇左市","扶绥县"
"451424","广西壮族自治区崇左市大新县","中华人民共和国","广西壮族自治区","崇左市","大新县"
"451425","广西壮族自治区崇左市天等县","中华人民共和国","广西壮族自治区","崇左市","天等县"
"460100","海南省海口市","中华人民共和国","海南省","海口市",""
"460107","海南省海口市琼山区","中华人民共和国","海南省","海口市","琼山区"
"460200","海南省三亚市","中华人民共和国","海南省","三亚市",""
"460204","海南省三亚市天涯区","中华人民共和国","海南省","三亚市","天涯区"
"469001","海南省省直辖县级行政区划五指山市","中华人民共和国","海南省","省直辖县级行政区划","五指山市"
"469002","海南省省直辖县级行政区划琼海市","中华人民共和国","海南省","省直辖县级行政区划","琼海市"
"469006","海南省省直辖县级行政区划万宁市","中华人民共和国","海南省","省直辖县级行政区划","万宁市"
"469007","海南省省直辖县级行政区划东方市","中华人民共和国","海南省","省直辖县级行政区划","东方市"
"469023","海南省省直辖县级行政区划澄迈县","中华人民共和国","海南省","省直辖县级行政区划","澄迈县"
"469024","海南省省直辖县级行政区划临高县","中华人民共和国","海南省","省直辖县级行政区划","临高县"
"469026","海南省省直辖县级行政区划昌江黎族自治县","中华人民共和国","海南省","省直辖县级行政区划","昌江黎族自治县"
"469028","海南省省直辖县级行政区划陵水黎族自治县","中华人民共和国","海南省","省直辖县级行政区划","陵水黎族自治县"
"469029","海南省省直辖县级行政区划保亭黎族苗族自治县","中华人民共和国","海南省","省直辖县级行政区划","保亭黎族苗族自治县"
"469031","海南省省直辖县级行政区划西沙群岛","中华人民共和国","海南省","省直辖县级行政区划","西沙群岛"
"469032","海南省省直辖县级行政区划南沙群岛","中华人民共和国","海南省","省直辖县级行政区划","南沙群岛"
"500000","重庆市","中华人民共和国","重庆市","",""
"500100","重庆市市辖区","中华人民共和国","重庆市","市辖区",""
"500101","重庆市市辖区万州区","中华人民共和国","重庆市","市辖区","万州区"
"500102","重庆市市辖区涪陵区","中华人民共和国","重庆市","市辖区","涪陵区"
"500104","重庆市市辖区大渡口区","中华人民共和国","重庆市","市辖区","大渡口区"
"500105","重庆市市辖区江北区","中华人民共和国","重庆市","市辖区","江北区"
"500107","重庆市市辖区九龙坡区","中华人民共和国","重庆市","市辖区","九龙坡区"
"500108","重庆市市辖区南岸区","中华人民共和国","重庆市","市辖区","南岸区"
"500110","重庆市市辖区綦江区","中华人民共和国","重庆市","市辖区","綦江区"
"500111","重庆市市辖区大足区","中华人民共和国","重庆市","市辖区","大足区"
"500113","重庆市市辖区巴南区","中华人民共和国","重庆市","市辖区","巴南区"
"500114","重庆市市辖区黔江区","中华人民共和国","重庆市","市辖区","黔江区"
"500116","重庆市市辖区江津区","中华人民共和国","重庆市","市辖区","江津区"
"500117","重庆市市辖区合川区","中华人民共和国","重庆市","市辖区","合川区"
"500119","重庆市市辖区南川区","中华人民共和国","重庆市","市辖区","南川区"
"500198","重庆市市辖区万盛区","中华人民共和国","重庆市","市辖区","万盛区"
"500200","重庆市县","中华人民共和国","重庆市","县",""
"500223","重庆市县潼南县","中华人民共和国","重庆市","县","潼南县"
"500224","重庆市县铜梁县","中华人民共和国","重庆市","县","铜梁县"
"500226","重庆市县荣昌县","中华人民共和国","重庆市","县","荣昌县"
"500228","重庆市县梁平县","中华人民共和国","重庆市","县","梁平县"
"500229","重庆市县城口县","中华人民共和国","重庆市","县","城口县"
"500231","重庆市县垫江县","中华人民共和国","重庆市","县","垫江县"
"500232","重庆市县武隆县","中华人民共和国","重庆市","县","武隆县"
"500234","重庆市县开县","中华人民共和国","重庆市","县","开县"
"500235","重庆市县云阳县","中华人民共和国","重庆市","县","云阳县"
"500236","重庆市县奉节县","中华人民共和国","重庆市","县","奉节县"
"500238","重庆市县巫溪县","中华人民共和国","重庆市","县","巫溪县"
"500241","重庆市县秀山土家族苗族自治县","中华人民共和国","重庆市","县","秀山土家族苗族自治县"
"500242","重庆市县酉阳土家族苗族自治县","中华人民共和国","重庆市","县","酉阳土家族苗族自治县"
"510000","四川省","中华人民共和国","四川省","",""
"510100","四川省成都市","中华人民共和国","四川省","成都市",""
"510104","四川省成都市锦江区","中华人民共和国","四川省","成都市","锦江区"
"510106","四川省成都市金牛区","中华人民共和国","四川省","成都市","金牛区"
"510107","四川省成都市武侯区","中华人民共和国","四川省","成都市","武侯区"
"510114","四川省成都市新都区","中华人民共和国","四川省","成都市","新都区"
"510115","四川省成都市温江区","中华人民共和国","四川省","成都市","温江区"
"510124","四川省成都市郫县","中华人民共和国","四川省","成都市","郫县"
"510131","四川省成都市蒲江县","中华人民共和国","四川省","成都市","蒲江县"
"510182","四川省成都市彭州市","中华人民共和国","四川省","成都市","彭州市"
"510184","四川省成都市崇州市","中华人民共和国","四川省","成都市","崇州市"
"510302","四川省自贡市自流井区","中华人民共和国","四川省","自贡市","自流井区"
"510311","四川省自贡市沿滩区","中华人民共和国","四川省","自贡市","沿滩区"
"510322","四川省自贡市富顺县","中华人民共和国","四川省","自贡市","富顺县"
"510403","四川省攀枝花市西区","中华人民共和国","四川省","攀枝花市","西区"
"510500","四川省泸州市","中华人民共和国","四川省","泸州市",""
"510502","四川省泸州市江阳区","中华人民共和国","四川省","泸州市","江阳区"
"510504","四川省泸州市龙马潭区","中华人民共和国","四川省","泸州市","龙马潭区"
"510524","四川省泸州市叙永县","中华人民共和国","四川省","泸州市","叙永县"
"510600","四川省德阳市","中华人民共和国","四川省","德阳市",""
"510626","四川省德阳市罗江县","中华人民共和国","四川省","德阳市","罗江县"
"510682","四川省德阳市什邡市","中华人民共和国","四川省","德阳市","什邡市"
"510703","四川省绵阳市涪城区","中华人民共和国","四川省","绵阳市","涪城区"
"510722","四川省绵阳市三台县","中华人民共和国","四川省","绵阳市","三台县"
"510725","四川省绵阳市梓潼县","中华人民共和国","四川省","绵阳市","梓潼县"
"510727","四川省绵阳市平武县","中华人民共和国","四川省","绵阳市","平武县"
"510802","四川省广元市利州区","中华人民共和国","四川省","广元市","利州区"
"510812","四川省广元市朝天区","中华人民共和国","四川省","广元市","朝天区"
"510823","四川省广元市剑阁县","中华人民共和国","四川省","广元市","剑阁县"
"510900","四川省遂宁市","中华人民共和国","四川省","遂宁市",""
"510921","四川省遂宁市蓬溪县","中华人民共和国","四川省","遂宁市","蓬溪县"
"510923","四川省遂宁市大英县","中华人民共和国","四川省","遂宁市","大英县"
"511000","四川省内江市","中华人民共和国","四川省","内江市",""
"511024","四川省内江市威远县","中华人民共和国","四川省","内江市","威远县"
"511028","四川省内江市隆昌县","中华人民共和国","四川省","内江市","隆昌县"
"511112","四川省乐山市五通桥区","中华人民共和国","四川省","乐山市","五通桥区"
"511124","四川省乐山市井研县","中华人民共和国","四川省","乐山市","井研县"
"511129","四川省乐山市沐川县","中华人民共和国","四川省","乐山市","沐川县"
"511181","四川省乐山市峨眉山市","中华人民共和国","四川省","乐山市","峨眉山市"
"511300","四川省南充市","中华人民共和国","四川省","南充市",""
"511303","四川省南充市高坪区","中华人民共和国","四川省","南充市","高坪区"
"511322","四川省南充市营山县","中华人民共和国","四川省","南充市","营山县"
"511324","四川省南充市仪陇县","中华人民共和国","四川省","南充市","仪陇县"
"511400","四川省眉山市","中华人民共和国","四川省","眉山市",""
"511421","四川省眉山市仁寿县","中华人民共和国","四川省","眉山市","仁寿县"
"511422","四川省眉山市彭山县","中华人民共和国","四川省","眉山市","彭山县"
"511500","四川省宜宾市","中华人民共和国","四川省","宜宾市",""
"511502","四川省宜宾市翠屏区","中华人民共和国","四川省","宜宾市","翠屏区"
"511523","四川省宜宾市江安县","中华人民共和国","四川省","宜宾市","江安县"
"511525","四川省宜宾市高县","中华人民共和国","四川省","宜宾市","高县"
"511528","四川省宜宾市兴文县","中华人民共和国","四川省","宜宾市","兴文县"
"511600","四川省广安市","中华人民共和国","四川省","广安市",""
"511621","四川省广安市岳池县","中华人民共和国","四川省","广安市","岳池县"
"511623","四川省广安市邻水县","中华人民共和国","四川省","广安市","邻水县"
"511700","四川省达州市","中华人民共和国","四川省","达州市",""
"511722","四川省达州市宣汉县","中华人民共和国","四川省","达州市","宣汉县"
"511724","四川省达州市大竹县","中华人民共和国","四川省","达州市","大竹县"
"511800","四川省雅安市","中华人民共和国","四川省","雅安市",""
"511802","四川省雅安市雨城区","中华人民共和国","四川省","雅安市","雨城区"
"511824","四川省雅安市石棉县","中华人民共和国","四川省","雅安市","石棉县"
"511825","四川省雅安市天全县","中华人民共和国","四川省","雅安市","天全县"
"511902","四川省巴中市巴州区","中华人民共和国","四川省","巴中市","巴州区"
"511921","四川省巴中市通江县","中华人民共和国","四川省","巴中市","通江县"
"512000","四川省资阳市","中华人民共和国","四川省","资阳市",""
"512021","四川省资阳市安岳县","中华人民共和国","四川省","资阳市","安岳县"
"513200","四川省阿坝藏族羌族自治州","中华人民共和国","四川省","阿坝藏族羌族自治州",""
"513223","四川省阿坝藏族羌族自治州茂县","中华人民共和国","四川省","阿坝藏族羌族自治州","茂县"
"513224","四川省阿坝藏族羌族自治州松潘县","中华人民共和国","四川省","阿坝藏族羌族自治州","松潘县"
"513227","四川省阿坝藏族羌族自治州小金县","中华人民共和国","四川省","阿坝藏族羌族自治州","小金县"
"441913","广东省东莞市大朗镇","中华人民共和国","广东省","东莞市","大朗镇"
"441916","广东省东莞市石龙镇","中华人民共和国","广东省","东莞市","石龙镇"
"441919","广东省东莞市大岭山镇","中华人民共和国","广东省","东莞市","大岭山镇"
"441921","广东省东莞市桥头镇","中华人民共和国","广东省","东莞市","桥头镇"
"441924","广东省东莞市茶山镇","中华人民共和国","广东省","东莞市","茶山镇"
"441926","广东省东莞市高埗镇","中华人民共和国","广东省","东莞市","高埗镇"
"441929","广东省东莞市东坑镇","中华人民共和国","广东省","东莞市","东坑镇"
"441932","广东省东莞市谢岗镇","中华人民共和国","广东省","东莞市","谢岗镇"
"442000","广东省中山市","中华人民共和国","广东省","中山市",""
"442003","广东省中山市开发区","中华人民共和国","广东省","中山市","开发区"
"450222","广西壮族自治区柳州市柳城县","中华人民共和国","广西壮族自治区","柳州市","柳城县"
"450225","广西壮族自治区柳州市融水苗族自治县","中华人民共和国","广西壮族自治区","柳州市","融水苗族自治县"
"450303","广西壮族自治区桂林市叠彩区","中华人民共和国","广西壮族自治区","桂林市","叠彩区"
"450311","广西壮族自治区桂林市雁山区","中华人民共和国","广西壮族自治区","桂林市","雁山区"
"450323","广西壮族自治区桂林市灵川县","中华人民共和国","广西壮族自治区","桂林市","灵川县"
"450326","广西壮族自治区桂林市永福县","中华人民共和国","广西壮族自治区","桂林市","永福县"
"450329","广西壮族自治区桂林市资源县","中华人民共和国","广西壮族自治区","桂林市","资源县"
"450332","广西壮族自治区桂林市恭城瑶族自治县","中华人民共和国","广西壮族自治区","桂林市","恭城瑶族自治县"
"450406","广西壮族自治区梧州市龙圩区","中华人民共和国","广西壮族自治区","梧州市","龙圩区"
"450423","广西壮族自治区梧州市蒙山县","中华人民共和国","广西壮族自治区","梧州市","蒙山县"
"450502","广西壮族自治区北海市海城区","中华人民共和国","广西壮族自治区","北海市","海城区"
"450521","广西壮族自治区北海市合浦县","中华人民共和国","广西壮族自治区","北海市","合浦县"
"450621","广西壮族自治区防城港市上思县","中华人民共和国","广西壮族自治区","防城港市","上思县"
"450702","广西壮族自治区钦州市钦南区","中华人民共和国","广西壮族自治区","钦州市","钦南区"
"450722","广西壮族自治区钦州市浦北县","中华人民共和国","广西壮族自治区","钦州市","浦北县"
"450803","广西壮族自治区贵港市港南区","中华人民共和国","广西壮族自治区","贵港市","港南区"
"450881","广西壮族自治区贵港市桂平市","中华人民共和国","广西壮族自治区","贵港市","桂平市"
"450903","广西壮族自治区玉林市福绵区","中华人民共和国","广西壮族自治区","玉林市","福绵区"
"450924","广西壮族自治区玉林市兴业县","中华人民共和国","广西壮族自治区","玉林市","兴业县"
"451002","广西壮族自治区百色市右江区","中华人民共和国","广西壮族自治区","百色市","右江区"
"451023","广西壮族自治区百色市平果县","中华人民共和国","广西壮族自治区","百色市","平果县"
"451026","广西壮族自治区百色市那坡县","中华人民共和国","广西壮族自治区","百色市","那坡县"
"451029","广西壮族自治区百色市田林县","中华人民共和国","广西壮族自治区","百色市","田林县"
"451100","广西壮族自治区贺州市","中华人民共和国","广西壮族自治区","贺州市",""
"451200","广西壮族自治区河池市","中华人民共和国","广西壮族自治区","河池市",""
"451222","广西壮族自治区河池市天峨县","中华人民共和国","广西壮族自治区","河池市","天峨县"
"451229","广西壮族自治区河池市大化瑶族自治县","中华人民共和国","广西壮族自治区","河池市","大化瑶族自治县"
"451302","广西壮族自治区来宾市兴宾区","中华人民共和国","广西壮族自治区","来宾市","兴宾区"
"451323","广西壮族自治区来宾市武宣县","中华人民共和国","广西壮族自治区","来宾市","武宣县"
"451423","广西壮族自治区崇左市龙州县","中华人民共和国","广西壮族自治区","崇左市","龙州县"
"451481","广西壮族自治区崇左市凭祥市","中华人民共和国","广西壮族自治区","崇左市","凭祥市"
"460108","海南省海口市美兰区","中华人民共和国","海南省","海口市","美兰区"
"460202","海南省三亚市海棠区","中华人民共和国","海南省","三亚市","海棠区"
"460205","海南省三亚市崖州区","中华人民共和国","海南省","三亚市","崖州区"
"469003","海南省省直辖县级行政区划儋州市","中华人民共和国","海南省","省直辖县级行政区划","儋州市"
"510108","四川省成都市成华区","中华人民共和国","四川省","成都市","成华区"
"510113","四川省成都市青白江区","中华人民共和国","四川省","成都市","青白江区"
"510121","四川省成都市金堂县","中华人民共和国","四川省","成都市","金堂县"
"510129","四川省成都市大邑县","中华人民共和国","四川省","成都市","大邑县"
"510183","四川省成都市邛崃市","中华人民共和国","四川省","成都市","邛崃市"
"510300","四川省自贡市","中华人民共和国","四川省","自贡市",""
"510303","四川省自贡市贡井区","中华人民共和国","四川省","自贡市","贡井区"
"510321","四川省自贡市荣县","中华人民共和国","四川省","自贡市","荣县"
"510411","四川省攀枝花市仁和区","中华人民共和国","四川省","攀枝花市","仁和区"
"510422","四川省攀枝花市盐边县","中华人民共和国","四川省","攀枝花市","盐边县"
"510522","四川省泸州市合江县","中华人民共和国","四川省","泸州市","合江县"
"510525","四川省泸州市古蔺县","中华人民共和国","四川省","泸州市","古蔺县"
"510681","四川省德阳市广汉市","中华人民共和国","四川省","德阳市","广汉市"
"510700","四川省绵阳市","中华人民共和国","四川省","绵阳市",""
"510704","四川省绵阳市游仙区","中华人民共和国","四川省","绵阳市","游仙区"
"510726","四川省绵阳市北川羌族自治县","中华人民共和国","四川省","绵阳市","北川羌族自治县"
"510800","四川省广元市","中华人民共和国","四川省","广元市",""
"510811","四川省广元市昭化区","中华人民共和国","四川省","广元市","昭化区"
"510824","四川省广元市苍溪县","中华人民共和国","四川省","广元市","苍溪县"
"510904","四川省遂宁市安居区","中华人民共和国","四川省","遂宁市","安居区"
"510922","四川省遂宁市射洪县","中华人民共和国","四川省","遂宁市","射洪县"
"511025","四川省内江市资中县","中华人民共和国","四川省","内江市","资中县"
"511100","四川省乐山市","中华人民共和国","四川省","乐山市",""
"511111","四川省乐山市沙湾区","中华人民共和国","四川省","乐山市","沙湾区"
"511126","四川省乐山市夹江县","中华人民共和国","四川省","乐山市","夹江县"
"511133","四川省乐山市马边彝族自治县","中华人民共和国","四川省","乐山市","马边彝族自治县"
"511321","四川省南充市南部县","中华人民共和国","四川省","南充市","南部县"
"511323","四川省南充市蓬安县","中华人民共和国","四川省","南充市","蓬安县"
"511381","四川省南充市阆中市","中华人民共和国","四川省","南充市","阆中市"
"511402","四川省眉山市东坡区","中华人民共和国","四川省","眉山市","东坡区"
"511423","四川省眉山市洪雅县","中华人民共和国","四川省","眉山市","洪雅县"
"511425","四川省眉山市青神县","中华人民共和国","四川省","眉山市","青神县"
"511503","四川省宜宾市南溪区","中华人民共和国","四川省","宜宾市","南溪区"
"511524","四川省宜宾市长宁县","中华人民共和国","四川省","宜宾市","长宁县"
"511526","四川省宜宾市珙县","中华人民共和国","四川省","宜宾市","珙县"
"511529","四川省宜宾市屏山县","中华人民共和国","四川省","宜宾市","屏山县"
"511602","四川省广安市广安区","中华人民共和国","四川省","广安市","广安区"
"511622","四川省广安市武胜县","中华人民共和国","四川省","广安市","武胜县"
"511681","四川省广安市华蓥市","中华人民共和国","四川省","广安市","华蓥市"
"511703","四川省达州市达川区","中华人民共和国","四川省","达州市","达川区"
"511723","四川省达州市开江县","中华人民共和国","四川省","达州市","开江县"
"511781","四川省达州市万源市","中华人民共和国","四川省","达州市","万源市"
"511821","四川省雅安市名山县","中华人民共和国","四川省","雅安市","名山县"
"511823","四川省雅安市汉源县","中华人民共和国","四川省","雅安市","汉源县"
"511826","四川省雅安市芦山县","中华人民共和国","四川省","雅安市","芦山县"
"511900","四川省巴中市","中华人民共和国","四川省","巴中市",""
"511903","四川省巴中市恩阳区","中华人民共和国","四川省","巴中市","恩阳区"
"511923","四川省巴中市平昌县","中华人民共和国","四川省","巴中市","平昌县"
"512002","四川省资阳市雁江区","中华人民共和国","四川省","资阳市","雁江区"
"512081","四川省资阳市简阳市","中华人民共和国","四川省","资阳市","简阳市"
"513222","四川省阿坝藏族羌族自治州理县","中华人民共和国","四川省","阿坝藏族羌族自治州","理县"
"513225","四川省阿坝藏族羌族自治州九寨沟县","中华人民共和国","四川省","阿坝藏族羌族自治州","九寨沟县"
"513228","四川省阿坝藏族羌族自治州黑水县","中华人民共和国","四川省","阿坝藏族羌族自治州","黑水县"
"532623","云南省文山壮族苗族自治州西畴县","中华人民共和国","云南省","文山壮族苗族自治州","西畴县"
"532627","云南省文山壮族苗族自治州广南县","中华人民共和国","云南省","文山壮族苗族自治州","广南县"
"532801","云南省西双版纳傣族自治州景洪市","中华人民共和国","云南省","西双版纳傣族自治州","景洪市"
"532901","云南省大理白族自治州大理市","中华人民共和国","云南省","大理白族自治州","大理市"
"532924","云南省大理白族自治州宾川县","中华人民共和国","云南省","大理白族自治州","宾川县"
"532927","云南省大理白族自治州巍山彝族回族自治县","中华人民共和国","云南省","大理白族自治州","巍山彝族回族自治县"
"532931","云南省大理白族自治州剑川县","中华人民共和国","云南省","大理白族自治州","剑川县"
"533102","云南省德宏傣族景颇族自治州瑞丽市","中华人民共和国","云南省","德宏傣族景颇族自治州","瑞丽市"
"533124","云南省德宏傣族景颇族自治州陇川县","中华人民共和国","云南省","德宏傣族景颇族自治州","陇川县"
"533323","云南省怒江傈僳族自治州福贡县","中华人民共和国","云南省","怒江傈僳族自治州","福贡县"
"533400","云南省迪庆藏族自治州","中华人民共和国","云南省","迪庆藏族自治州",""
"540121","西藏自治区拉萨市林周县","中华人民共和国","西藏自治区","拉萨市","林周县"
"540124","西藏自治区拉萨市曲水县","中华人民共和国","西藏自治区","拉萨市","曲水县"
"540127","西藏自治区拉萨市墨竹工卡县","中华人民共和国","西藏自治区","拉萨市","墨竹工卡县"
"542122","西藏自治区昌都地区江达县","中华人民共和国","西藏自治区","昌都地区","江达县"
"542128","西藏自治区昌都地区左贡县","中华人民共和国","西藏自治区","昌都地区","左贡县"
"542133","西藏自治区昌都地区边坝县","中华人民共和国","西藏自治区","昌都地区","边坝县"
"542225","西藏自治区山南地区琼结县","中华人民共和国","西藏自治区","山南地区","琼结县"
"542228","西藏自治区山南地区洛扎县","中华人民共和国","西藏自治区","山南地区","洛扎县"
"542301","西藏自治区日喀则地区日喀则市","中华人民共和国","西藏自治区","日喀则地区","日喀则市"
"542324","西藏自治区日喀则地区定日县","中华人民共和国","西藏自治区","日喀则地区","定日县"
"542330","西藏自治区日喀则地区仁布县","中华人民共和国","西藏自治区","日喀则地区","仁布县"
"542333","西藏自治区日喀则地区仲巴县","中华人民共和国","西藏自治区","日喀则地区","仲巴县"
"542421","西藏自治区那曲地区那曲县","中华人民共和国","西藏自治区","那曲地区","那曲县"
"542424","西藏自治区那曲地区聂荣县","中华人民共和国","西藏自治区","那曲地区","聂荣县"
"542427","西藏自治区那曲地区索县","中华人民共和国","西藏自治区","那曲地区","索县"
"542521","西藏自治区阿里地区普兰县","中华人民共和国","西藏自治区","阿里地区","普兰县"
"542524","西藏自治区阿里地区日土县","中华人民共和国","西藏自治区","阿里地区","日土县"
"542622","西藏自治区林芝地区工布江达县","中华人民共和国","西藏自治区","林芝地区","工布江达县"
"542625","西藏自治区林芝地区波密县","中华人民共和国","西藏自治区","林芝地区","波密县"
"610000","陕西省","中华人民共和国","陕西省","",""
"610600","陕西省延安市","中华人民共和国","陕西省","延安市",""
"610623","陕西省延安市子长县","中华人民共和国","陕西省","延安市","子长县"
"610626","陕西省延安市吴起县","中华人民共和国","陕西省","延安市","吴起县"
"610631","陕西省延安市黄龙县","中华人民共和国","陕西省","延安市","黄龙县"
"610702","陕西省汉中市汉台区","中华人民共和国","陕西省","汉中市","汉台区"
"610722","陕西省汉中市城固县","中华人民共和国","陕西省","汉中市","城固县"
"610727","陕西省汉中市略阳县","中华人民共和国","陕西省","汉中市","略阳县"
"610730","陕西省汉中市佛坪县","中华人民共和国","陕西省","汉中市","佛坪县"
"610802","陕西省榆林市榆阳区","中华人民共和国","陕西省","榆林市","榆阳区"
"610826","陕西省榆林市绥德县","中华人民共和国","陕西省","榆林市","绥德县"
"610828","陕西省榆林市佳县","中华人民共和国","陕西省","榆林市","佳县"
"610831","陕西省榆林市子洲县","中华人民共和国","陕西省","榆林市","子洲县"
"610923","陕西省安康市宁陕县","中华人民共和国","陕西省","安康市","宁陕县"
"610925","陕西省安康市岚皋县","中华人民共和国","陕西省","安康市","岚皋县"
"611000","陕西省商洛市","中华人民共和国","陕西省","商洛市",""
"611021","陕西省商洛市洛南县","中华人民共和国","陕西省","商洛市","洛南县"
"611024","陕西省商洛市山阳县","中华人民共和国","陕西省","商洛市","山阳县"
"611100","陕西省杨凌区","中华人民共和国","陕西省","杨凌区",""
"620100","甘肃省兰州市","中华人民共和国","甘肃省","兰州市",""
"620103","甘肃省兰州市七里河区","中华人民共和国","甘肃省","兰州市","七里河区"
"620111","甘肃省兰州市红古区","中华人民共和国","甘肃省","兰州市","红古区"
"620122","甘肃省兰州市皋兰县","中华人民共和国","甘肃省","兰州市","皋兰县"
"620201","甘肃省嘉峪关市市辖区","中华人民共和国","甘肃省","嘉峪关市","市辖区"
"620321","甘肃省金昌市永昌县","中华人民共和国","甘肃省","金昌市","永昌县"
"620402","甘肃省白银市白银区","中华人民共和国","甘肃省","白银市","白银区"
"620422","甘肃省白银市会宁县","中华人民共和国","甘肃省","白银市","会宁县"
"620500","甘肃省天水市","中华人民共和国","甘肃省","天水市",""
"620503","甘肃省天水市麦积区","中华人民共和国","甘肃省","天水市","麦积区"
"620523","甘肃省天水市甘谷县","中华人民共和国","甘肃省","天水市","甘谷县"
"620525","甘肃省天水市张家川回族自治县","中华人民共和国","甘肃省","天水市","张家川回族自治县"
"620622","甘肃省武威市古浪县","中华人民共和国","甘肃省","武威市","古浪县"
"620700","甘肃省张掖市","中华人民共和国","甘肃省","张掖市",""
"620721","甘肃省张掖市肃南裕固族自治县","中华人民共和国","甘肃省","张掖市","肃南裕固族自治县"
"620725","甘肃省张掖市山丹县","中华人民共和国","甘肃省","张掖市","山丹县"
"620802","甘肃省平凉市崆峒区","中华人民共和国","甘肃省","平凉市","崆峒区"
"620823","甘肃省平凉市崇信县","中华人民共和国","甘肃省","平凉市","崇信县"
"620825","甘肃省平凉市庄浪县","中华人民共和国","甘肃省","平凉市","庄浪县"
"620902","甘肃省酒泉市肃州区","中华人民共和国","甘肃省","酒泉市","肃州区"
"620922","甘肃省酒泉市瓜州县","中华人民共和国","甘肃省","酒泉市","瓜州县"
"620981","甘肃省酒泉市玉门市","中华人民共和国","甘肃省","酒泉市","玉门市"
"621002","甘肃省庆阳市西峰区","中华人民共和国","甘肃省","庆阳市","西峰区"
"621022","甘肃省庆阳市环县","中华人民共和国","甘肃省","庆阳市","环县"
"621025","甘肃省庆阳市正宁县","中华人民共和国","甘肃省","庆阳市","正宁县"
"621027","甘肃省庆阳市镇原县","中华人民共和国","甘肃省","庆阳市","镇原县"
"621121","甘肃省定西市通渭县","中华人民共和国","甘肃省","定西市","通渭县"
"621123","甘肃省定西市渭源县","中华人民共和国","甘肃省","定西市","渭源县"
"621126","甘肃省定西市岷县","中华人民共和国","甘肃省","定西市","岷县"
"621202","甘肃省陇南市武都区","中华人民共和国","甘肃省","陇南市","武都区"
"621223","甘肃省陇南市宕昌县","中华人民共和国","甘肃省","陇南市","宕昌县"
"621225","甘肃省陇南市西和县","中华人民共和国","甘肃省","陇南市","西和县"
"621228","甘肃省陇南市两当县","中华人民共和国","甘肃省","陇南市","两当县"
"622921","甘肃省临夏回族自治州临夏县","中华人民共和国","甘肃省","临夏回族自治州","临夏县"
"622924","甘肃省临夏回族自治州广河县","中华人民共和国","甘肃省","临夏回族自治州","广河县"
"622927","甘肃省临夏回族自治州积石山保安族东乡族撒拉族自治县","中华人民共和国","甘肃省","临夏回族自治州","积石山保安族东乡族撒拉族自治县"
"623023","甘肃省甘南藏族自治州舟曲县","中华人民共和国","甘肃省","甘南藏族自治州","舟曲县"
"623026","甘肃省甘南藏族自治州碌曲县","中华人民共和国","甘肃省","甘南藏族自治州","碌曲县"
"640202","宁夏回族自治区石嘴山市大武口区","中华人民共和国","宁夏回族自治区","石嘴山市","大武口区"
"640302","宁夏回族自治区吴忠市利通区","中华人民共和国","宁夏回族自治区","吴忠市","利通区"
"640324","宁夏回族自治区吴忠市同心县","中华人民共和国","宁夏回族自治区","吴忠市","同心县"
"640424","宁夏回族自治区固原市泾源县","中华人民共和国","宁夏回族自治区","固原市","泾源县"
"640502","宁夏回族自治区中卫市沙坡头区","中华人民共和国","宁夏回族自治区","中卫市","沙坡头区"
"650103","新疆维吾尔自治区乌鲁木齐市沙依巴克区","中华人民共和国","新疆维吾尔自治区","乌鲁木齐市","沙依巴克区"
"650200","新疆维吾尔自治区克拉玛依市","中华人民共和国","新疆维吾尔自治区","克拉玛依市",""
"650204","新疆维吾尔自治区克拉玛依市白碱滩区","中华人民共和国","新疆维吾尔自治区","克拉玛依市","白碱滩区"
"652201","新疆维吾尔自治区哈密地区哈密市","中华人民共和国","新疆维吾尔自治区","哈密地区","哈密市"
"652301","新疆维吾尔自治区昌吉回族自治州昌吉市","中华人民共和国","新疆维吾尔自治区","昌吉回族自治州","昌吉市"
"652701","新疆维吾尔自治区博尔塔拉蒙古自治州博乐市","中华人民共和国","新疆维吾尔自治区","博尔塔拉蒙古自治州","博乐市"
"652801","新疆维吾尔自治区巴音郭楞蒙古自治州库尔勒市","中华人民共和国","新疆维吾尔自治区","巴音郭楞蒙古自治州","库尔勒市"
"652829","新疆维吾尔自治区巴音郭楞蒙古自治州博湖县","中华人民共和国","新疆维吾尔自治区","巴音郭楞蒙古自治州","博湖县"
"652923","新疆维吾尔自治区阿克苏地区库车县","中华人民共和国","新疆维吾尔自治区","阿克苏地区","库车县"
"653000","新疆维吾尔自治区克孜勒苏柯尔克孜自治州","中华人民共和国","新疆维吾尔自治区","克孜勒苏柯尔克孜自治州",""
"653123","新疆维吾尔自治区喀什地区英吉沙县","中华人民共和国","新疆维吾尔自治区","喀什地区","英吉沙县"
"653126","新疆维吾尔自治区喀什地区叶城县","中华人民共和国","新疆维吾尔自治区","喀什地区","叶城县"
"653130","新疆维吾尔自治区喀什地区巴楚县","中华人民共和国","新疆维吾尔自治区","喀什地区","巴楚县"
"653224","新疆维吾尔自治区和田地区洛浦县","中华人民共和国","新疆维吾尔自治区","和田地区","洛浦县"
"653227","新疆维吾尔自治区和田地区民丰县","中华人民共和国","新疆维吾尔自治区","和田地区","民丰县"
"150782","内蒙古自治区呼伦贝尔市牙克石市","中华人民共和国","内蒙古自治区","呼伦贝尔市","牙克石市"
"150785","内蒙古自治区呼伦贝尔市根河市","中华人民共和国","内蒙古自治区","呼伦贝尔市","根河市"
"150821","内蒙古自治区巴彦淖尔市五原县","中华人民共和国","内蒙古自治区","巴彦淖尔市","五原县"
"150823","内蒙古自治区巴彦淖尔市乌拉特前旗","中华人民共和国","内蒙古自治区","巴彦淖尔市","乌拉特前旗"
"150826","内蒙古自治区巴彦淖尔市杭锦后旗","中华人民共和国","内蒙古自治区","巴彦淖尔市","杭锦后旗"
"150921","内蒙古自治区乌兰察布市卓资县","中华人民共和国","内蒙古自治区","乌兰察布市","卓资县"
"150923","内蒙古自治区乌兰察布市商都县","中华人民共和国","内蒙古自治区","乌兰察布市","商都县"
"150926","内蒙古自治区乌兰察布市察哈尔右翼前旗","中华人民共和国","内蒙古自治区","乌兰察布市","察哈尔右翼前旗"
"150928","内蒙古自治区乌兰察布市察哈尔右翼后旗","中华人民共和国","内蒙古自治区","乌兰察布市","察哈尔右翼后旗"
"152201","内蒙古自治区兴安盟乌兰浩特市","中华人民共和国","内蒙古自治区","兴安盟","乌兰浩特市"
"152221","内蒙古自治区兴安盟科尔沁右翼前旗","中华人民共和国","内蒙古自治区","兴安盟","科尔沁右翼前旗"
"152224","内蒙古自治区兴安盟突泉县","中华人民共和国","内蒙古自治区","兴安盟","突泉县"
"530628","云南省昭通市彝良县","中华人民共和国","云南省","昭通市","彝良县"
"530629","云南省昭通市威信县","中华人民共和国","云南省","昭通市","威信县"
"530700","云南省丽江市","中华人民共和国","云南省","丽江市",""
"530702","云南省丽江市古城区","中华人民共和国","云南省","丽江市","古城区"
"530722","云南省丽江市永胜县","中华人民共和国","云南省","丽江市","永胜县"
"530723","云南省丽江市华坪县","中华人民共和国","云南省","丽江市","华坪县"
"530724","云南省丽江市宁蒗彝族自治县","中华人民共和国","云南省","丽江市","宁蒗彝族自治县"
"530802","云南省普洱市思茅区","中华人民共和国","云南省","普洱市","思茅区"
"530822","云南省普洱市墨江哈尼族自治县","中华人民共和国","云南省","普洱市","墨江哈尼族自治县"
"530823","云南省普洱市景东彝族自治县","中华人民共和国","云南省","普洱市","景东彝族自治县"
"530825","云南省普洱市镇沅彝族哈尼族拉祜族自治县","中华人民共和国","云南省","普洱市","镇沅彝族哈尼族拉祜族自治县"
"530827","云南省普洱市孟连傣族拉祜族佤族自治县","中华人民共和国","云南省","普洱市","孟连傣族拉祜族佤族自治县"
"530828","云南省普洱市澜沧拉祜族自治县","中华人民共和国","云南省","普洱市","澜沧拉祜族自治县"
"530900","云南省临沧市","中华人民共和国","云南省","临沧市",""
"530902","云南省临沧市临翔区","中华人民共和国","云南省","临沧市","临翔区"
"530922","云南省临沧市云县","中华人民共和国","云南省","临沧市","云县"
"530923","云南省临沧市永德县","中华人民共和国","云南省","临沧市","永德县"
"530924","云南省临沧市镇康县","中华人民共和国","云南省","临沧市","镇康县"
"530926","云南省临沧市耿马傣族佤族自治县","中华人民共和国","云南省","临沧市","耿马傣族佤族自治县"
"530927","云南省临沧市沧源佤族自治县","中华人民共和国","云南省","临沧市","沧源佤族自治县"
"532301","云南省楚雄彝族自治州楚雄市","中华人民共和国","云南省","楚雄彝族自治州","楚雄市"
"532323","云南省楚雄彝族自治州牟定县","中华人民共和国","云南省","楚雄彝族自治州","牟定县"
"532324","云南省楚雄彝族自治州南华县","中华人民共和国","云南省","楚雄彝族自治州","南华县"
"532326","云南省楚雄彝族自治州大姚县","中华人民共和国","云南省","楚雄彝族自治州","大姚县"
"532328","云南省楚雄彝族自治州元谋县","中华人民共和国","云南省","楚雄彝族自治州","元谋县"
"532329","云南省楚雄彝族自治州武定县","中华人民共和国","云南省","楚雄彝族自治州","武定县"
"532500","云南省红河哈尼族彝族自治州","中华人民共和国","云南省","红河哈尼族彝族自治州",""
"532501","云南省红河哈尼族彝族自治州个旧市","中华人民共和国","云南省","红河哈尼族彝族自治州","个旧市"
"532503","云南省红河哈尼族彝族自治州蒙自市","中华人民共和国","云南省","红河哈尼族彝族自治州","蒙自市"
"532524","云南省红河哈尼族彝族自治州建水县","中华人民共和国","云南省","红河哈尼族彝族自治州","建水县"
"532525","云南省红河哈尼族彝族自治州石屏县","中华人民共和国","云南省","红河哈尼族彝族自治州","石屏县"
"532527","云南省红河哈尼族彝族自治州泸西县","中华人民共和国","云南省","红河哈尼族彝族自治州","泸西县"
"532528","云南省红河哈尼族彝族自治州元阳县","中华人民共和国","云南省","红河哈尼族彝族自治州","元阳县"
"532530","云南省红河哈尼族彝族自治州金平苗族瑶族傣族自治县","中华人民共和国","云南省","红河哈尼族彝族自治州","金平苗族瑶族傣族自治县"
"532532","云南省红河哈尼族彝族自治州河口瑶族自治县","中华人民共和国","云南省","红河哈尼族彝族自治州","河口瑶族自治县"
"532601","云南省文山壮族苗族自治州文山市","中华人民共和国","云南省","文山壮族苗族自治州","文山市"
"532624","云南省文山壮族苗族自治州麻栗坡县","中华人民共和国","云南省","文山壮族苗族自治州","麻栗坡县"
"532625","云南省文山壮族苗族自治州马关县","中华人民共和国","云南省","文山壮族苗族自治州","马关县"
"532628","云南省文山壮族苗族自治州富宁县","中华人民共和国","云南省","文山壮族苗族自治州","富宁县"
"532800","云南省西双版纳傣族自治州","中华人民共和国","云南省","西双版纳傣族自治州",""
"532823","云南省西双版纳傣族自治州勐腊县","中华人民共和国","云南省","西双版纳傣族自治州","勐腊县"
"532900","云南省大理白族自治州","中华人民共和国","云南省","大理白族自治州",""
"532923","云南省大理白族自治州祥云县","中华人民共和国","云南省","大理白族自治州","祥云县"
"532925","云南省大理白族自治州弥渡县","中华人民共和国","云南省","大理白族自治州","弥渡县"
"532928","云南省大理白族自治州永平县","中华人民共和国","云南省","大理白族自治州","永平县"
"532929","云南省大理白族自治州云龙县","中华人民共和国","云南省","大理白族自治州","云龙县"
"532932","云南省大理白族自治州鹤庆县","中华人民共和国","云南省","大理白族自治州","鹤庆县"
"533103","云南省德宏傣族景颇族自治州芒市","中华人民共和国","云南省","德宏傣族景颇族自治州","芒市"
"533123","云南省德宏傣族景颇族自治州盈江县","中华人民共和国","云南省","德宏傣族景颇族自治州","盈江县"
"533300","云南省怒江傈僳族自治州","中华人民共和国","云南省","怒江傈僳族自治州",""
"533324","云南省怒江傈僳族自治州贡山独龙族怒族自治县","中华人民共和国","云南省","怒江傈僳族自治州","贡山独龙族怒族自治县"
"533421","云南省迪庆藏族自治州香格里拉县","中华人民共和国","云南省","迪庆藏族自治州","香格里拉县"
"533422","云南省迪庆藏族自治州德钦县","中华人民共和国","云南省","迪庆藏族自治州","德钦县"
"540000","西藏自治区","中华人民共和国","西藏自治区","",""
"540100","西藏自治区拉萨市","中华人民共和国","西藏自治区","拉萨市",""
"540122","西藏自治区拉萨市当雄县","中华人民共和国","西藏自治区","拉萨市","当雄县"
"540123","西藏自治区拉萨市尼木县","中华人民共和国","西藏自治区","拉萨市","尼木县"
"540126","西藏自治区拉萨市达孜县","中华人民共和国","西藏自治区","拉萨市","达孜县"
"542100","西藏自治区昌都地区","中华人民共和国","西藏自治区","昌都地区",""
"542123","西藏自治区昌都地区贡觉县","中华人民共和国","西藏自治区","昌都地区","贡觉县"
"542124","西藏自治区昌都地区类乌齐县","中华人民共和国","西藏自治区","昌都地区","类乌齐县"
"542127","西藏自治区昌都地区八宿县","中华人民共和国","西藏自治区","昌都地区","八宿县"
"542132","西藏自治区昌都地区洛隆县","中华人民共和国","西藏自治区","昌都地区","洛隆县"
"542200","西藏自治区山南地区","中华人民共和国","西藏自治区","山南地区",""
"542223","西藏自治区山南地区贡嘎县","中华人民共和国","西藏自治区","山南地区","贡嘎县"
"542224","西藏自治区山南地区桑日县","中华人民共和国","西藏自治区","山南地区","桑日县"
"542227","西藏自治区山南地区措美县","中华人民共和国","西藏自治区","山南地区","措美县"
"542229","西藏自治区山南地区加查县","中华人民共和国","西藏自治区","山南地区","加查县"
"542233","西藏自治区山南地区浪卡子县","中华人民共和国","西藏自治区","山南地区","浪卡子县"
"542300","西藏自治区日喀则地区","中华人民共和国","西藏自治区","日喀则地区",""
"542323","西藏自治区日喀则地区江孜县","中华人民共和国","西藏自治区","日喀则地区","江孜县"
"542326","西藏自治区日喀则地区拉孜县","中华人民共和国","西藏自治区","日喀则地区","拉孜县"
"542328","西藏自治区日喀则地区谢通门县","中华人民共和国","西藏自治区","日喀则地区","谢通门县"
"542331","西藏自治区日喀则地区康马县","中华人民共和国","西藏自治区","日喀则地区","康马县"
"542332","西藏自治区日喀则地区定结县","中华人民共和国","西藏自治区","日喀则地区","定结县"
"542335","西藏自治区日喀则地区吉隆县","中华人民共和国","西藏自治区","日喀则地区","吉隆县"
"542338","西藏自治区日喀则地区岗巴县","中华人民共和国","西藏自治区","日喀则地区","岗巴县"
"542400","西藏自治区那曲地区","中华人民共和国","西藏自治区","那曲地区",""
"542422","西藏自治区那曲地区嘉黎县","中华人民共和国","西藏自治区","那曲地区","嘉黎县"
"542425","西藏自治区那曲地区安多县","中华人民共和国","西藏自治区","那曲地区","安多县"
"542428","西藏自治区那曲地区班戈县","中华人民共和国","西藏自治区","那曲地区","班戈县"
"542429","西藏自治区那曲地区巴青县","中华人民共和国","西藏自治区","那曲地区","巴青县"
"542500","西藏自治区阿里地区","中华人民共和国","西藏自治区","阿里地区",""
"542522","西藏自治区阿里地区札达县","中华人民共和国","西藏自治区","阿里地区","札达县"
"542525","西藏自治区阿里地区革吉县","中华人民共和国","西藏自治区","阿里地区","革吉县"
"542526","西藏自治区阿里地区改则县","中华人民共和国","西藏自治区","阿里地区","改则县"
"542621","西藏自治区林芝地区林芝县","中华人民共和国","西藏自治区","林芝地区","林芝县"
"542624","西藏自治区林芝地区墨脱县","中华人民共和国","西藏自治区","林芝地区","墨脱县"
"542626","西藏自治区林芝地区察隅县","中华人民共和国","西藏自治区","林芝地区","察隅县"
"610102","陕西省西安市新城区","中华人民共和国","陕西省","西安市","新城区"
"610104","陕西省西安市莲湖区","中华人民共和国","陕西省","西安市","莲湖区"
"610111","陕西省西安市灞桥区","中华人民共和国","陕西省","西安市","灞桥区"
"610113","陕西省西安市雁塔区","中华人民共和国","陕西省","西安市","雁塔区"
"610114","陕西省西安市阎良区","中华人民共和国","陕西省","西安市","阎良区"
"610116","陕西省西安市长安区","中华人民共和国","陕西省","西安市","长安区"
"610122","陕西省西安市蓝田县","中华人民共和国","陕西省","西安市","蓝田县"
"610125","陕西省西安市户县","中华人民共和国","陕西省","西安市","户县"
"610126","陕西省西安市高陵县","中华人民共和国","陕西省","西安市","高陵县"
"610200","陕西省铜川市","中华人民共和国","陕西省","铜川市",""
"610203","陕西省铜川市印台区","中华人民共和国","陕西省","铜川市","印台区"
"610204","陕西省铜川市耀州区","中华人民共和国","陕西省","铜川市","耀州区"
"610300","陕西省宝鸡市","中华人民共和国","陕西省","宝鸡市",""
"610302","陕西省宝鸡市渭滨区","中华人民共和国","陕西省","宝鸡市","渭滨区"
"610304","陕西省宝鸡市陈仓区","中华人民共和国","陕西省","宝鸡市","陈仓区"
"610322","陕西省宝鸡市凤翔县","中华人民共和国","陕西省","宝鸡市","凤翔县"
"610324","陕西省宝鸡市扶风县","中华人民共和国","陕西省","宝鸡市","扶风县"
"610326","陕西省宝鸡市眉县","中华人民共和国","陕西省","宝鸡市","眉县"
"610328","陕西省宝鸡市千阳县","中华人民共和国","陕西省","宝鸡市","千阳县"
"610329","陕西省宝鸡市麟游县","中华人民共和国","陕西省","宝鸡市","麟游县"
"610331","陕西省宝鸡市太白县","中华人民共和国","陕西省","宝鸡市","太白县"
"610400","陕西省咸阳市","中华人民共和国","陕西省","咸阳市",""
"610404","陕西省咸阳市渭城区","中华人民共和国","陕西省","咸阳市","渭城区"
"610422","陕西省咸阳市三原县","中华人民共和国","陕西省","咸阳市","三原县"
"610424","陕西省咸阳市乾县","中华人民共和国","陕西省","咸阳市","乾县"
"610425","陕西省咸阳市礼泉县","中华人民共和国","陕西省","咸阳市","礼泉县"
"610426","陕西省咸阳市永寿县","中华人民共和国","陕西省","咸阳市","永寿县"
"610428","陕西省咸阳市长武县","中华人民共和国","陕西省","咸阳市","长武县"
"610430","陕西省咸阳市淳化县","中华人民共和国","陕西省","咸阳市","淳化县"
"610431","陕西省咸阳市武功县","中华人民共和国","陕西省","咸阳市","武功县"
"610500","陕西省渭南市","中华人民共和国","陕西省","渭南市",""
"610502","陕西省渭南市临渭区","中华人民共和国","陕西省","渭南市","临渭区"
"610521","陕西省渭南市华县","中华人民共和国","陕西省","渭南市","华县"
"610523","陕西省渭南市大荔县","中华人民共和国","陕西省","渭南市","大荔县"
"610524","陕西省渭南市合阳县","中华人民共和国","陕西省","渭南市","合阳县"
"610526","陕西省渭南市蒲城县","中华人民共和国","陕西省","渭南市","蒲城县"
"610527","陕西省渭南市白水县","中华人民共和国","陕西省","渭南市","白水县"
"610581","陕西省渭南市韩城市","中华人民共和国","陕西省","渭南市","韩城市"
"610582","陕西省渭南市华阴市","中华人民共和国","陕西省","渭南市","华阴市"
"610622","陕西省延安市延川县","中华人民共和国","陕西省","延安市","延川县"
"610624","陕西省延安市安塞县","中华人民共和国","陕西省","延安市","安塞县"
"610627","陕西省延安市甘泉县","中华人民共和国","陕西省","延安市","甘泉县"
"610628","陕西省延安市富县","中华人民共和国","陕西省","延安市","富县"
"610632","陕西省延安市黄陵县","中华人民共和国","陕西省","延安市","黄陵县"
"610700","陕西省汉中市","中华人民共和国","陕西省","汉中市",""
"610723","陕西省汉中市洋县","中华人民共和国","陕西省","汉中市","洋县"
"610724","陕西省汉中市西乡县","中华人民共和国","陕西省","汉中市","西乡县"
"610728","陕西省汉中市镇巴县","中华人民共和国","陕西省","汉中市","镇巴县"
"610729","陕西省汉中市留坝县","中华人民共和国","陕西省","汉中市","留坝县"
"610800","陕西省榆林市","中华人民共和国","陕西省","榆林市",""
"610822","陕西省榆林市府谷县","中华人民共和国","陕西省","榆林市","府谷县"
"610824","陕西省榆林市靖边县","中华人民共和国","陕西省","榆林市","靖边县"
"610827","陕西省榆林市米脂县","中华人民共和国","陕西省","榆林市","米脂县"
"610829","陕西省榆林市吴堡县","中华人民共和国","陕西省","榆林市","吴堡县"
"610900","陕西省安康市","中华人民共和国","陕西省","安康市",""
"610921","陕西省安康市汉阴县","中华人民共和国","陕西省","安康市","汉阴县"
"610924","陕西省安康市紫阳县","中华人民共和国","陕西省","安康市","紫阳县"
"610926","陕西省安康市平利县","中华人民共和国","陕西省","安康市","平利县"
"610929","陕西省安康市白河县","中华人民共和国","陕西省","安康市","白河县"
"611002","陕西省商洛市商州区","中华人民共和国","陕西省","商洛市","商州区"
"611023","陕西省商洛市商南县","中华人民共和国","陕西省","商洛市","商南县"
"611025","陕西省商洛市镇安县","中华人民共和国","陕西省","商洛市","镇安县"
"611101","陕西省杨凌区市辖区","中华人民共和国","陕西省","杨凌区","市辖区"
"620102","甘肃省兰州市城关区","中华人民共和国","甘肃省","兰州市","城关区"
"620105","甘肃省兰州市安宁区","中华人民共和国","甘肃省","兰州市","安宁区"
"620121","甘肃省兰州市永登县","中华人民共和国","甘肃省","兰州市","永登县"
"620200","甘肃省嘉峪关市","中华人民共和国","甘肃省","嘉峪关市",""
"620300","甘肃省金昌市","中华人民共和国","甘肃省","金昌市",""
"620302","甘肃省金昌市金川区","中华人民共和国","甘肃省","金昌市","金川区"
"620403","甘肃省白银市平川区","中华人民共和国","甘肃省","白银市","平川区"
"620423","甘肃省白银市景泰县","中华人民共和国","甘肃省","白银市","景泰县"
"620502","甘肃省天水市秦州区","中华人民共和国","甘肃省","天水市","秦州区"
"620522","甘肃省天水市秦安县","中华人民共和国","甘肃省","天水市","秦安县"
"620524","甘肃省天水市武山县","中华人民共和国","甘肃省","天水市","武山县"
"620600","甘肃省武威市","中华人民共和国","甘肃省","武威市",""
"620621","甘肃省武威市民勤县","中华人民共和国","甘肃省","武威市","民勤县"
"620702","甘肃省张掖市甘州区","中华人民共和国","甘肃省","张掖市","甘州区"
"620722","甘肃省张掖市民乐县","中华人民共和国","甘肃省","张掖市","民乐县"
"620723","甘肃省张掖市临泽县","中华人民共和国","甘肃省","张掖市","临泽县"
"620800","甘肃省平凉市","中华人民共和国","甘肃省","平凉市",""
"620821","甘肃省平凉市泾川县","中华人民共和国","甘肃省","平凉市","泾川县"
"620824","甘肃省平凉市华亭县","中华人民共和国","甘肃省","平凉市","华亭县"
"620826","甘肃省平凉市静宁县","中华人民共和国","甘肃省","平凉市","静宁县"
"620900","甘肃省酒泉市","中华人民共和国","甘肃省","酒泉市",""
"620923","甘肃省酒泉市肃北蒙古族自治县","中华人民共和国","甘肃省","酒泉市","肃北蒙古族自治县"
"620982","甘肃省酒泉市敦煌市","中华人民共和国","甘肃省","酒泉市","敦煌市"
"621000","甘肃省庆阳市","中华人民共和国","甘肃省","庆阳市",""
"621021","甘肃省庆阳市庆城县","中华人民共和国","甘肃省","庆阳市","庆城县"
"621024","甘肃省庆阳市合水县","中华人民共和国","甘肃省","庆阳市","合水县"
"621026","甘肃省庆阳市宁县","中华人民共和国","甘肃省","庆阳市","宁县"
"621100","甘肃省定西市","中华人民共和国","甘肃省","定西市",""
"621122","甘肃省定西市陇西县","中华人民共和国","甘肃省","定西市","陇西县"
"621124","甘肃省定西市临洮县","中华人民共和国","甘肃省","定西市","临洮县"
"621200","甘肃省陇南市","中华人民共和国","甘肃省","陇南市",""
"621221","甘肃省陇南市成县","中华人民共和国","甘肃省","陇南市","成县"
"621224","甘肃省陇南市康县","中华人民共和国","甘肃省","陇南市","康县"
"621226","甘肃省陇南市礼县","中华人民共和国","甘肃省","陇南市","礼县"
"622900","甘肃省临夏回族自治州","中华人民共和国","甘肃省","临夏回族自治州",""
"622922","甘肃省临夏回族自治州康乐县","中华人民共和国","甘肃省","临夏回族自治州","康乐县"
"622923","甘肃省临夏回族自治州永靖县","中华人民共和国","甘肃省","临夏回族自治州","永靖县"
"622926","甘肃省临夏回族自治州东乡族自治县","中华人民共和国","甘肃省","临夏回族自治州","东乡族自治县"
"623000","甘肃省甘南藏族自治州","中华人民共和国","甘肃省","甘南藏族自治州",""
"623021","甘肃省甘南藏族自治州临潭县","中华人民共和国","甘肃省","甘南藏族自治州","临潭县"
"623022","甘肃省甘南藏族自治州卓尼县","中华人民共和国","甘肃省","甘南藏族自治州","卓尼县"
"623025","甘肃省甘南藏族自治州玛曲县","中华人民共和国","甘肃省","甘南藏族自治州","玛曲县"
"630000","青海省","中华人民共和国","青海省","",""
"630100","青海省西宁市","中华人民共和国","青海省","西宁市",""
"630103","青海省西宁市城中区","中华人民共和国","青海省","西宁市","城中区"
"630104","青海省西宁市城西区","中华人民共和国","青海省","西宁市","城西区"
"630121","青海省西宁市大通回族土族自治县","中华人民共和国","青海省","西宁市","大通回族土族自治县"
"630123","青海省西宁市湟源县","中华人民共和国","青海省","西宁市","湟源县"
"632100","青海省海东市","中华人民共和国","青海省","海东市",""
"632122","青海省海东市民和回族土族自治县","中华人民共和国","青海省","海东市","民和回族土族自治县"
"632123","青海省海东市乐都区","中华人民共和国","青海省","海东市","乐都区"
"632127","青海省海东市化隆回族自治县","中华人民共和国","青海省","海东市","化隆回族自治县"
"632200","青海省海北藏族自治州","中华人民共和国","青海省","海北藏族自治州",""
"632221","青海省海北藏族自治州门源回族自治县","中华人民共和国","青海省","海北藏族自治州","门源回族自治县"
"632223","青海省海北藏族自治州海晏县","中华人民共和国","青海省","海北藏族自治州","海晏县"
"632224","青海省海北藏族自治州刚察县","中华人民共和国","青海省","海北藏族自治州","刚察县"
"632321","青海省黄南藏族自治州同仁县","中华人民共和国","青海省","黄南藏族自治州","同仁县"
"632323","青海省黄南藏族自治州泽库县","中华人民共和国","青海省","黄南藏族自治州","泽库县"
"632500","青海省海南藏族自治州","中华人民共和国","青海省","海南藏族自治州",""
"632521","青海省海南藏族自治州共和县","中华人民共和国","青海省","海南藏族自治州","共和县"
"632522","青海省海南藏族自治州同德县","中华人民共和国","青海省","海南藏族自治州","同德县"
"632524","青海省海南藏族自治州兴海县","中华人民共和国","青海省","海南藏族自治州","兴海县"
"632525","青海省海南藏族自治州贵南县","中华人民共和国","青海省","海南藏族自治州","贵南县"
"632621","青海省果洛藏族自治州玛沁县","中华人民共和国","青海省","果洛藏族自治州","玛沁县"
"632623","青海省果洛藏族自治州甘德县","中华人民共和国","青海省","果洛藏族自治州","甘德县"
"632624","青海省果洛藏族自治州达日县","中华人民共和国","青海省","果洛藏族自治州","达日县"
"632626","青海省果洛藏族自治州玛多县","中华人民共和国","青海省","果洛藏族自治州","玛多县"
"632700","青海省玉树藏族自治州","中华人民共和国","青海省","玉树藏族自治州",""
"632722","青海省玉树藏族自治州杂多县","中华人民共和国","青海省","玉树藏族自治州","杂多县"
"632724","青海省玉树藏族自治州治多县","中华人民共和国","青海省","玉树藏族自治州","治多县"
"632725","青海省玉树藏族自治州囊谦县","中华人民共和国","青海省","玉树藏族自治州","囊谦县"
"632800","青海省海西蒙古族藏族自治州","中华人民共和国","青海省","海西蒙古族藏族自治州",""
"632801","青海省海西蒙古族藏族自治州格尔木市","中华人民共和国","青海省","海西蒙古族藏族自治州","格尔木市"
"632821","青海省海西蒙古族藏族自治州乌兰县","中华人民共和国","青海省","海西蒙古族藏族自治州","乌兰县"
"632823","青海省海西蒙古族藏族自治州天峻县","中华人民共和国","青海省","海西蒙古族藏族自治州","天峻县"
"640000","宁夏回族自治区","中华人民共和国","宁夏回族自治区","",""
"640100","宁夏回族自治区银川市","中华人民共和国","宁夏回族自治区","银川市",""
"640105","宁夏回族自治区银川市西夏区","中华人民共和国","宁夏回族自治区","银川市","西夏区"
"640121","宁夏回族自治区银川市永宁县","中华人民共和国","宁夏回族自治区","银川市","永宁县"
"640122","宁夏回族自治区银川市贺兰县","中华人民共和国","宁夏回族自治区","银川市","贺兰县"
"640200","宁夏回族自治区石嘴山市","中华人民共和国","宁夏回族自治区","石嘴山市",""
"640205","宁夏回族自治区石嘴山市惠农区","中华人民共和国","宁夏回族自治区","石嘴山市","惠农区"
"640300","宁夏回族自治区吴忠市","中华人民共和国","宁夏回族自治区","吴忠市",""
"640303","宁夏回族自治区吴忠市红寺堡区","中华人民共和国","宁夏回族自治区","吴忠市","红寺堡区"
"640381","宁夏回族自治区吴忠市青铜峡市","中华人民共和国","宁夏回族自治区","吴忠市","青铜峡市"
"640400","宁夏回族自治区固原市","中华人民共和国","宁夏回族自治区","固原市",""
"640423","宁夏回族自治区固原市隆德县","中华人民共和国","宁夏回族自治区","固原市","隆德县"
"640500","宁夏回族自治区中卫市","中华人民共和国","宁夏回族自治区","中卫市",""
"640521","宁夏回族自治区中卫市中宁县","中华人民共和国","宁夏回族自治区","中卫市","中宁县"
"650100","新疆维吾尔自治区乌鲁木齐市","中华人民共和国","新疆维吾尔自治区","乌鲁木齐市",""
"650102","新疆维吾尔自治区乌鲁木齐市天山区","中华人民共和国","新疆维吾尔自治区","乌鲁木齐市","天山区"
"650105","新疆维吾尔自治区乌鲁木齐市水磨沟区","中华人民共和国","新疆维吾尔自治区","乌鲁木齐市","水磨沟区"
"650109","新疆维吾尔自治区乌鲁木齐市米东区","中华人民共和国","新疆维吾尔自治区","乌鲁木齐市","米东区"
"650121","新疆维吾尔自治区乌鲁木齐市乌鲁木齐县","中华人民共和国","新疆维吾尔自治区","乌鲁木齐市","乌鲁木齐县"
"650203","新疆维吾尔自治区克拉玛依市克拉玛依区","中华人民共和国","新疆维吾尔自治区","克拉玛依市","克拉玛依区"
"652100","新疆维吾尔自治区吐鲁番地区","中华人民共和国","新疆维吾尔自治区","吐鲁番地区",""
"652101","新疆维吾尔自治区吐鲁番地区吐鲁番市","中华人民共和国","新疆维吾尔自治区","吐鲁番地区","吐鲁番市"
"652200","新疆维吾尔自治区哈密地区","中华人民共和国","新疆维吾尔自治区","哈密地区",""
"652223","新疆维吾尔自治区哈密地区伊吾县","中华人民共和国","新疆维吾尔自治区","哈密地区","伊吾县"
"652300","新疆维吾尔自治区昌吉回族自治州","中华人民共和国","新疆维吾尔自治区","昌吉回族自治州",""
"652302","新疆维吾尔自治区昌吉回族自治州阜康市","中华人民共和国","新疆维吾尔自治区","昌吉回族自治州","阜康市"
"652324","新疆维吾尔自治区昌吉回族自治州玛纳斯县","中华人民共和国","新疆维吾尔自治区","昌吉回族自治州","玛纳斯县"
"652328","新疆维吾尔自治区昌吉回族自治州木垒哈萨克自治县","中华人民共和国","新疆维吾尔自治区","昌吉回族自治州","木垒哈萨克自治县"
"652700","新疆维吾尔自治区博尔塔拉蒙古自治州","中华人民共和国","新疆维吾尔自治区","博尔塔拉蒙古自治州",""
"652723","新疆维吾尔自治区博尔塔拉蒙古自治州温泉县","中华人民共和国","新疆维吾尔自治区","博尔塔拉蒙古自治州","温泉县"
"652822","新疆维吾尔自治区巴音郭楞蒙古自治州轮台县","中华人民共和国","新疆维吾尔自治区","巴音郭楞蒙古自治州","轮台县"
"652824","新疆维吾尔自治区巴音郭楞蒙古自治州若羌县","中华人民共和国","新疆维吾尔自治区","巴音郭楞蒙古自治州","若羌县"
"652827","新疆维吾尔自治区巴音郭楞蒙古自治州和静县","中华人民共和国","新疆维吾尔自治区","巴音郭楞蒙古自治州","和静县"
"652828","新疆维吾尔自治区巴音郭楞蒙古自治州和硕县","中华人民共和国","新疆维吾尔自治区","巴音郭楞蒙古自治州","和硕县"
"652900","新疆维吾尔自治区阿克苏地区","中华人民共和国","新疆维吾尔自治区","阿克苏地区",""
"652922","新疆维吾尔自治区阿克苏地区温宿县","中华人民共和国","新疆维吾尔自治区","阿克苏地区","温宿县"
"652925","新疆维吾尔自治区阿克苏地区新和县","中华人民共和国","新疆维吾尔自治区","阿克苏地区","新和县"
"652926","新疆维吾尔自治区阿克苏地区拜城县","中华人民共和国","新疆维吾尔自治区","阿克苏地区","拜城县"
"652929","新疆维吾尔自治区阿克苏地区柯坪县","中华人民共和国","新疆维吾尔自治区","阿克苏地区","柯坪县"
"653022","新疆维吾尔自治区克孜勒苏柯尔克孜自治州阿克陶县","中华人民共和国","新疆维吾尔自治区","克孜勒苏柯尔克孜自治州","阿克陶县"
"653023","新疆维吾尔自治区克孜勒苏柯尔克孜自治州阿合奇县","中华人民共和国","新疆维吾尔自治区","克孜勒苏柯尔克孜自治州","阿合奇县"
"653101","新疆维吾尔自治区喀什地区喀什市","中华人民共和国","新疆维吾尔自治区","喀什地区","喀什市"
"653122","新疆维吾尔自治区喀什地区疏勒县","中华人民共和国","新疆维吾尔自治区","喀什地区","疏勒县"
"653124","新疆维吾尔自治区喀什地区泽普县","中华人民共和国","新疆维吾尔自治区","喀什地区","泽普县"
"653127","新疆维吾尔自治区喀什地区麦盖提县","中华人民共和国","新疆维吾尔自治区","喀什地区","麦盖提县"
"653129","新疆维吾尔自治区喀什地区伽师县","中华人民共和国","新疆维吾尔自治区","喀什地区","伽师县"
"653200","新疆维吾尔自治区和田地区","中华人民共和国","新疆维吾尔自治区","和田地区",""
"653221","新疆维吾尔自治区和田地区和田县","中华人民共和国","新疆维吾尔自治区","和田地区","和田县"
"653222","新疆维吾尔自治区和田地区墨玉县","中华人民共和国","新疆维吾尔自治区","和田地区","墨玉县"
"653225","新疆维吾尔自治区和田地区策勒县","中华人民共和国","新疆维吾尔自治区","和田地区","策勒县"
"653226","新疆维吾尔自治区和田地区于田县","中华人民共和国","新疆维吾尔自治区","和田地区","于田县"
"654002","新疆维吾尔自治区伊犁哈萨克自治州伊宁市","中华人民共和国","新疆维吾尔自治区","伊犁哈萨克自治州","伊宁市"
"654003","新疆维吾尔自治区伊犁哈萨克自治州奎屯市","中华人民共和国","新疆维吾尔自治区","伊犁哈萨克自治州","奎屯市"
"654021","新疆维吾尔自治区伊犁哈萨克自治州伊宁县","中华人民共和国","新疆维吾尔自治区","伊犁哈萨克自治州","伊宁县"
"654022","新疆维吾尔自治区伊犁哈萨克自治州察布查尔锡伯自治县","中华人民共和国","新疆维吾尔自治区","伊犁哈萨克自治州","察布查尔锡伯自治县"
"654023","新疆维吾尔自治区伊犁哈萨克自治州霍城县","中华人民共和国","新疆维吾尔自治区","伊犁哈萨克自治州","霍城县"
"654024","新疆维吾尔自治区伊犁哈萨克自治州巩留县","中华人民共和国","新疆维吾尔自治区","伊犁哈萨克自治州","巩留县"
"654025","新疆维吾尔自治区伊犁哈萨克自治州新源县","中华人民共和国","新疆维吾尔自治区","伊犁哈萨克自治州","新源县"
"654026","新疆维吾尔自治区伊犁哈萨克自治州昭苏县","中华人民共和国","新疆维吾尔自治区","伊犁哈萨克自治州","昭苏县"
"654027","新疆维吾尔自治区伊犁哈萨克自治州特克斯县","中华人民共和国","新疆维吾尔自治区","伊犁哈萨克自治州","特克斯县"
"654028","新疆维吾尔自治区伊犁哈萨克自治州尼勒克县","中华人民共和国","新疆维吾尔自治区","伊犁哈萨克自治州","尼勒克县"
"654200","新疆维吾尔自治区塔城地区","中华人民共和国","新疆维吾尔自治区","塔城地区",""
"654201","新疆维吾尔自治区塔城地区塔城市","中华人民共和国","新疆维吾尔自治区","塔城地区","塔城市"
"654202","新疆维吾尔自治区塔城地区乌苏市","中华人民共和国","新疆维吾尔自治区","塔城地区","乌苏市"
"654221","新疆维吾尔自治区塔城地区额敏县","中华人民共和国","新疆维吾尔自治区","塔城地区","额敏县"
"654223","新疆维吾尔自治区塔城地区沙湾县","中华人民共和国","新疆维吾尔自治区","塔城地区","沙湾县"
"654224","新疆维吾尔自治区塔城地区托里县","中华人民共和国","新疆维吾尔自治区","塔城地区","托里县"
"654225","新疆维吾尔自治区塔城地区裕民县","中华人民共和国","新疆维吾尔自治区","塔城地区","裕民县"
"654226","新疆维吾尔自治区塔城地区和布克赛尔蒙古自治县","中华人民共和国","新疆维吾尔自治区","塔城地区","和布克赛尔蒙古自治县"
"654300","新疆维吾尔自治区阿勒泰地区","中华人民共和国","新疆维吾尔自治区","阿勒泰地区",""
"654301","新疆维吾尔自治区阿勒泰地区阿勒泰市","中华人民共和国","新疆维吾尔自治区","阿勒泰地区","阿勒泰市"
"654321","新疆维吾尔自治区阿勒泰地区布尔津县","中华人民共和国","新疆维吾尔自治区","阿勒泰地区","布尔津县"
"654322","新疆维吾尔自治区阿勒泰地区富蕴县","中华人民共和国","新疆维吾尔自治区","阿勒泰地区","富蕴县"
"654323","新疆维吾尔自治区阿勒泰地区福海县","中华人民共和国","新疆维吾尔自治区","阿勒泰地区","福海县"
"654324","新疆维吾尔自治区阿勒泰地区哈巴河县","中华人民共和国","新疆维吾尔自治区","阿勒泰地区","哈巴河县"
"654325","新疆维吾尔自治区阿勒泰地区青河县","中华人民共和国","新疆维吾尔自治区","阿勒泰地区","青河县"
"659000","新疆维吾尔自治区自治区直辖县级行政区划","中华人民共和国","新疆维吾尔自治区","自治区直辖县级行政区划",""
"659002","新疆维吾尔自治区自治区直辖县级行政区划阿拉尔市","中华人民共和国","新疆维吾尔自治区","自治区直辖县级行政区划","阿拉尔市"
"659004","新疆维吾尔自治区自治区直辖县级行政区划五家渠市","中华人民共和国","新疆维吾尔自治区","自治区直辖县级行政区划","五家渠市"
"152503","内蒙古自治区锡林郭勒盟乌拉盖管理区","中华人民共和国","内蒙古自治区","锡林郭勒盟","乌拉盖管理区"
"152523","内蒙古自治区锡林郭勒盟苏尼特左旗","中华人民共和国","内蒙古自治区","锡林郭勒盟","苏尼特左旗"
"152526","内蒙古自治区锡林郭勒盟西乌珠穆沁旗","中华人民共和国","内蒙古自治区","锡林郭勒盟","西乌珠穆沁旗"
"152529","内蒙古自治区锡林郭勒盟正镶白旗","中华人民共和国","内蒙古自治区","锡林郭勒盟","正镶白旗"
"152600","内蒙古自治区二连浩特市","中华人民共和国","内蒙古自治区","二连浩特市",""
"152700","内蒙古自治区满洲里市","中华人民共和国","内蒙古自治区","满洲里市",""
"152902","内蒙古自治区阿拉善盟阿拉善经济开发区","中华人民共和国","内蒙古自治区","阿拉善盟","阿拉善经济开发区"
"152921","内蒙古自治区阿拉善盟阿拉善左旗","中华人民共和国","内蒙古自治区","阿拉善盟","阿拉善左旗"
"210000","辽宁省","中华人民共和国","辽宁省","",""
"210102","辽宁省沈阳市和平区","中华人民共和国","辽宁省","沈阳市","和平区"
"210106","辽宁省沈阳市铁西区","中华人民共和国","辽宁省","沈阳市","铁西区"
"210122","辽宁省沈阳市辽中县","中华人民共和国","辽宁省","沈阳市","辽中县"
"210202","辽宁省大连市中山区","中华人民共和国","辽宁省","大连市","中山区"
"210213","辽宁省大连市金州区","中华人民共和国","辽宁省","大连市","金州区"
"210300","辽宁省鞍山市","中华人民共和国","辽宁省","鞍山市",""
"210304","辽宁省鞍山市立山区","中华人民共和国","辽宁省","鞍山市","立山区"
"210402","辽宁省抚顺市新抚区","中华人民共和国","辽宁省","抚顺市","新抚区"
"210422","辽宁省抚顺市新宾满族自治县","中华人民共和国","辽宁省","抚顺市","新宾满族自治县"
"210504","辽宁省本溪市明山区","中华人民共和国","辽宁省","本溪市","明山区"
"210522","辽宁省本溪市桓仁满族自治县","中华人民共和国","辽宁省","本溪市","桓仁满族自治县"
"210682","辽宁省丹东市凤城市","中华人民共和国","辽宁省","丹东市","凤城市"
"210726","辽宁省锦州市黑山县","中华人民共和国","辽宁省","锦州市","黑山县"
"210802","辽宁省营口市站前区","中华人民共和国","辽宁省","营口市","站前区"
"210882","辽宁省营口市大石桥市","中华人民共和国","辽宁省","营口市","大石桥市"
"210911","辽宁省阜新市细河区","中华人民共和国","辽宁省","阜新市","细河区"
"211002","辽宁省辽阳市白塔区","中华人民共和国","辽宁省","辽阳市","白塔区"
"211021","辽宁省辽阳市辽阳县","中华人民共和国","辽宁省","辽阳市","辽阳县"
"211121","辽宁省盘锦市大洼县","中华人民共和国","辽宁省","盘锦市","大洼县"
"211221","辽宁省铁岭市铁岭县","中华人民共和国","辽宁省","铁岭市","铁岭县"
"211302","辽宁省朝阳市双塔区","中华人民共和国","辽宁省","朝阳市","双塔区"
"211324","辽宁省朝阳市喀喇沁左翼蒙古族自治县","中华人民共和国","辽宁省","朝阳市","喀喇沁左翼蒙古族自治县"
"211481","辽宁省葫芦岛市兴城市","中华人民共和国","辽宁省","葫芦岛市","兴城市"
"220100","吉林省长春市","中华人民共和国","吉林省","长春市",""
"220106","吉林省长春市绿园区","中华人民共和国","吉林省","长春市","绿园区"
"220183","吉林省长春市德惠市","中华人民共和国","吉林省","长春市","德惠市"
"220211","吉林省吉林市丰满区","中华人民共和国","吉林省","吉林市","丰满区"
"220284","吉林省吉林市磐石市","中华人民共和国","吉林省","吉林市","磐石市"
"220323","吉林省四平市伊通满族自治县","中华人民共和国","吉林省","四平市","伊通满族自治县"
"220421","吉林省辽源市东丰县","中华人民共和国","吉林省","辽源市","东丰县"
"220502","吉林省通化市东昌区","中华人民共和国","吉林省","通化市","东昌区"
"220523","吉林省通化市辉南县","中华人民共和国","吉林省","通化市","辉南县"
"220581","吉林省通化市梅河口市","中华人民共和国","吉林省","通化市","梅河口市"
"220605","吉林省白山市江源区","中华人民共和国","吉林省","白山市","江源区"
"220623","吉林省白山市长白朝鲜族自治县","中华人民共和国","吉林省","白山市","长白朝鲜族自治县"
"220721","吉林省松原市前郭尔罗斯蒙古族自治县","中华人民共和国","吉林省","松原市","前郭尔罗斯蒙古族自治县"
"220800","吉林省白城市","中华人民共和国","吉林省","白城市",""
"220821","吉林省白城市镇赉县","中华人民共和国","吉林省","白城市","镇赉县"
"220882","吉林省白城市大安市","中华人民共和国","吉林省","白城市","大安市"
"221101","吉林省公主岭市市辖区","中华人民共和国","吉林省","公主岭市","市辖区"
"222201","吉林省长白山管理委员会池北区","中华人民共和国","吉林省","长白山管理委员会","池北区"
"222400","吉林省延边朝鲜族自治州","中华人民共和国","吉林省","延边朝鲜族自治州",""
"222402","吉林省延边朝鲜族自治州图们市","中华人民共和国","吉林省","延边朝鲜族自治州","图们市"
"222405","吉林省延边朝鲜族自治州龙井市","中华人民共和国","吉林省","延边朝鲜族自治州","龙井市"
"222424","吉林省延边朝鲜族自治州汪清县","中华人民共和国","吉林省","延边朝鲜族自治州","汪清县"
"230102","黑龙江省哈尔滨市道里区","中华人民共和国","黑龙江省","哈尔滨市","道里区"
"230108","黑龙江省哈尔滨市平房区","中华人民共和国","黑龙江省","哈尔滨市","平房区"
"230111","黑龙江省哈尔滨市呼兰区","中华人民共和国","黑龙江省","哈尔滨市","呼兰区"
"230124","黑龙江省哈尔滨市方正县","中华人民共和国","黑龙江省","哈尔滨市","方正县"
"230129","黑龙江省哈尔滨市延寿县","中华人民共和国","黑龙江省","哈尔滨市","延寿县"
"230184","黑龙江省哈尔滨市五常市","中华人民共和国","黑龙江省","哈尔滨市","五常市"
"230204","黑龙江省齐齐哈尔市铁锋区","中华人民共和国","黑龙江省","齐齐哈尔市","铁锋区"
"230221","黑龙江省齐齐哈尔市龙江县","中华人民共和国","黑龙江省","齐齐哈尔市","龙江县"
"230227","黑龙江省齐齐哈尔市富裕县","中华人民共和国","黑龙江省","齐齐哈尔市","富裕县"
"230231","黑龙江省齐齐哈尔市拜泉县","中华人民共和国","黑龙江省","齐齐哈尔市","拜泉县"
"230304","黑龙江省鸡西市滴道区","中华人民共和国","黑龙江省","鸡西市","滴道区"
"230381","黑龙江省鸡西市虎林市","中华人民共和国","黑龙江省","鸡西市","虎林市"
"230404","黑龙江省鹤岗市南山区","中华人民共和国","黑龙江省","鹤岗市","南山区"
"230421","黑龙江省鹤岗市萝北县","中华人民共和国","黑龙江省","鹤岗市","萝北县"
"230505","黑龙江省双鸭山市四方台区","中华人民共和国","黑龙江省","双鸭山市","四方台区"
"230524","黑龙江省双鸭山市饶河县","中华人民共和国","黑龙江省","双鸭山市","饶河县"
"230604","黑龙江省大庆市让胡路区","中华人民共和国","黑龙江省","大庆市","让胡路区"
"230623","黑龙江省大庆市林甸县","中华人民共和国","黑龙江省","大庆市","林甸县"
"230703","黑龙江省伊春市南岔区","中华人民共和国","黑龙江省","伊春市","南岔区"
"230708","黑龙江省伊春市美溪区","中华人民共和国","黑龙江省","伊春市","美溪区"
"230713","黑龙江省伊春市带岭区","中华人民共和国","黑龙江省","伊春市","带岭区"
"230722","黑龙江省伊春市嘉荫县","中华人民共和国","黑龙江省","伊春市","嘉荫县"
"230805","黑龙江省佳木斯市东风区","中华人民共和国","黑龙江省","佳木斯市","东风区"
"230833","黑龙江省佳木斯市抚远县","中华人民共和国","黑龙江省","佳木斯市","抚远县"
"230902","黑龙江省七台河市新兴区","中华人民共和国","黑龙江省","七台河市","新兴区"
"230921","黑龙江省七台河市勃利县","中华人民共和国","黑龙江省","七台河市","勃利县"
"231005","黑龙江省牡丹江市西安区","中华人民共和国","黑龙江省","牡丹江市","西安区"
"231084","黑龙江省牡丹江市宁安市","中华人民共和国","黑龙江省","牡丹江市","宁安市"
"231123","黑龙江省黑河市逊克县","中华人民共和国","黑龙江省","黑河市","逊克县"
"231202","黑龙江省绥化市北林区","中华人民共和国","黑龙江省","绥化市","北林区"
"231225","黑龙江省绥化市明水县","中华人民共和国","黑龙江省","绥化市","明水县"
"231282","黑龙江省绥化市肇东市","中华人民共和国","黑龙江省","绥化市","肇东市"
"232703","黑龙江省大兴安岭地区新林区","中华人民共和国","黑龙江省","大兴安岭地区","新林区"
"232722","黑龙江省大兴安岭地区塔河县","中华人民共和国","黑龙江省","大兴安岭地区","塔河县"
"232902","黑龙江省农垦总局红兴隆分局","中华人民共和国","黑龙江省","农垦总局","红兴隆分局"
"232907","黑龙江省农垦总局齐齐哈尔分局","中华人民共和国","黑龙江省","农垦总局","齐齐哈尔分局"
"310101","上海市市辖区黄浦区","中华人民共和国","上海市","市辖区","黄浦区"
"310106","上海市市辖区静安区","中华人民共和国","上海市","市辖区","静安区"
"310109","上海市市辖区虹口区","中华人民共和国","上海市","市辖区","虹口区"
"310113","上海市市辖区宝山区","中华人民共和国","上海市","市辖区","宝山区"
"310116","上海市市辖区金山区","中华人民共和国","上海市","市辖区","金山区"
"310120","上海市市辖区奉贤区","中华人民共和国","上海市","市辖区","奉贤区"
"320102","江苏省南京市玄武区","中华人民共和国","江苏省","南京市","玄武区"
"320106","江苏省南京市鼓楼区","中华人民共和国","江苏省","南京市","鼓楼区"
"320114","江苏省南京市雨花台区","中华人民共和国","江苏省","南京市","雨花台区"
"320124","江苏省南京市溧水区","中华人民共和国","江苏省","南京市","溧水区"
"320202","江苏省无锡市崇安区","中华人民共和国","江苏省","无锡市","崇安区"
"320205","江苏省无锡市锡山区","中华人民共和国","江苏省","无锡市","锡山区"
"320212","江苏省无锡市无锡新区","中华人民共和国","江苏省","无锡市","无锡新区"
"320302","江苏省徐州市鼓楼区","中华人民共和国","江苏省","徐州市","鼓楼区"
"320311","江苏省徐州市泉山区","中华人民共和国","江苏省","徐州市","泉山区"
"320322","江苏省徐州市沛县","中华人民共和国","江苏省","徐州市","沛县"
"320382","江苏省徐州市邳州市","中华人民共和国","江苏省","徐州市","邳州市"
"320404","江苏省常州市钟楼区","中华人民共和国","江苏省","常州市","钟楼区"
"320482","江苏省常州市金坛市","中华人民共和国","江苏省","常州市","金坛市"
"320505","江苏省苏州市高新区","中华人民共和国","江苏省","苏州市","高新区"
"320583","江苏省苏州市昆山市","中华人民共和国","江苏省","苏州市","昆山市"
"320612","江苏省南通市通州区","中华人民共和国","江苏省","南通市","通州区"
"320682","江苏省南通市如皋市","中华人民共和国","江苏省","南通市","如皋市"
"320707","江苏省连云港市赣榆区","中华人民共和国","江苏省","连云港市","赣榆区"
"320800","江苏省淮安市","中华人民共和国","江苏省","淮安市",""
"320812","江苏省淮安市开发区","中华人民共和国","江苏省","淮安市","开发区"
"320900","江苏省盐城市","中华人民共和国","江苏省","盐城市",""
"320922","江苏省盐城市滨海县","中华人民共和国","江苏省","盐城市","滨海县"
"210104","辽宁省沈阳市大东区","中华人民共和国","辽宁省","沈阳市","大东区"
"210111","辽宁省沈阳市苏家屯区","中华人民共和国","辽宁省","沈阳市","苏家屯区"
"210114","辽宁省沈阳市于洪区","中华人民共和国","辽宁省","沈阳市","于洪区"
"210123","辽宁省沈阳市康平县","中华人民共和国","辽宁省","沈阳市","康平县"
"210200","辽宁省大连市","中华人民共和国","辽宁省","大连市",""
"210203","辽宁省大连市西岗区","中华人民共和国","辽宁省","大连市","西岗区"
"210211","辽宁省大连市甘井子区","中华人民共和国","辽宁省","大连市","甘井子区"
"210224","辽宁省大连市长海县","中华人民共和国","辽宁省","大连市","长海县"
"210283","辽宁省大连市庄河市","中华人民共和国","辽宁省","大连市","庄河市"
"210302","辽宁省鞍山市铁东区","中华人民共和国","辽宁省","鞍山市","铁东区"
"210311","辽宁省鞍山市千山区","中华人民共和国","辽宁省","鞍山市","千山区"
"210323","辽宁省鞍山市岫岩满族自治县","中华人民共和国","辽宁省","鞍山市","岫岩满族自治县"
"210403","辽宁省抚顺市东洲区","中华人民共和国","辽宁省","抚顺市","东洲区"
"210411","辽宁省抚顺市顺城区","中华人民共和国","辽宁省","抚顺市","顺城区"
"210423","辽宁省抚顺市清原满族自治县","中华人民共和国","辽宁省","抚顺市","清原满族自治县"
"210503","辽宁省本溪市溪湖区","中华人民共和国","辽宁省","本溪市","溪湖区"
"210505","辽宁省本溪市南芬区","中华人民共和国","辽宁省","本溪市","南芬区"
"210600","辽宁省丹东市","中华人民共和国","辽宁省","丹东市",""
"210603","辽宁省丹东市振兴区","中华人民共和国","辽宁省","丹东市","振兴区"
"210681","辽宁省丹东市东港市","中华人民共和国","辽宁省","丹东市","东港市"
"210700","辽宁省锦州市","中华人民共和国","辽宁省","锦州市",""
"210703","辽宁省锦州市凌河区","中华人民共和国","辽宁省","锦州市","凌河区"
"210727","辽宁省锦州市义县","中华人民共和国","辽宁省","锦州市","义县"
"210782","辽宁省锦州市北镇市","中华人民共和国","辽宁省","锦州市","北镇市"
"210803","辽宁省营口市西市区","中华人民共和国","辽宁省","营口市","西市区"
"210811","辽宁省营口市老边区","中华人民共和国","辽宁省","营口市","老边区"
"210900","辽宁省阜新市","中华人民共和国","辽宁省","阜新市",""
"210903","辽宁省阜新市新邱区","中华人民共和国","辽宁省","阜新市","新邱区"
"210905","辽宁省阜新市清河门区","中华人民共和国","辽宁省","阜新市","清河门区"
"210922","辽宁省阜新市彰武县","中华人民共和国","辽宁省","阜新市","彰武县"
"211003","辽宁省辽阳市文圣区","中华人民共和国","辽宁省","辽阳市","文圣区"
"211005","辽宁省辽阳市弓长岭区","中华人民共和国","辽宁省","辽阳市","弓长岭区"
"211081","辽宁省辽阳市灯塔市","中华人民共和国","辽宁省","辽阳市","灯塔市"
"211103","辽宁省盘锦市兴隆台区","中华人民共和国","辽宁省","盘锦市","兴隆台区"
"211122","辽宁省盘锦市盘山县","中华人民共和国","辽宁省","盘锦市","盘山县"
"211204","辽宁省铁岭市清河区","中华人民共和国","辽宁省","铁岭市","清河区"
"211223","辽宁省铁岭市西丰县","中华人民共和国","辽宁省","铁岭市","西丰县"
"211282","辽宁省铁岭市开原市","中华人民共和国","辽宁省","铁岭市","开原市"
"211303","辽宁省朝阳市龙城区","中华人民共和国","辽宁省","朝阳市","龙城区"
"211322","辽宁省朝阳市建平县","中华人民共和国","辽宁省","朝阳市","建平县"
"211382","辽宁省朝阳市凌源市","中华人民共和国","辽宁省","朝阳市","凌源市"
"211402","辽宁省葫芦岛市连山区","中华人民共和国","辽宁省","葫芦岛市","连山区"
"211422","辽宁省葫芦岛市建昌县","中华人民共和国","辽宁省","葫芦岛市","建昌县"
"219001","辽宁省省直辖县级行政区划绥中县","中华人民共和国","辽宁省","省直辖县级行政区划","绥中县"
"220102","吉林省长春市南关区","中华人民共和国","吉林省","长春市","南关区"
"220105","吉林省长春市二道区","中华人民共和国","吉林省","长春市","二道区"
"220112","吉林省长春市双阳区","中华人民共和国","吉林省","长春市","双阳区"
"220182","吉林省长春市榆树市","中华人民共和国","吉林省","长春市","榆树市"
"220203","吉林省吉林市龙潭区","中华人民共和国","吉林省","吉林市","龙潭区"
"220221","吉林省吉林市永吉县","中华人民共和国","吉林省","吉林市","永吉县"
"220300","吉林省四平市","中华人民共和国","吉林省","四平市",""
"220303","吉林省四平市铁东区","中华人民共和国","吉林省","四平市","铁东区"
"220381","吉林省四平市公主岭市","中华人民共和国","吉林省","四平市","公主岭市"
"220403","吉林省辽源市西安区","中华人民共和国","吉林省","辽源市","西安区"
"230125","黑龙江省哈尔滨市宾县","中华人民共和国","黑龙江省","哈尔滨市","宾县"
"230183","黑龙江省哈尔滨市尚志市","中华人民共和国","黑龙江省","哈尔滨市","尚志市"
"230202","黑龙江省齐齐哈尔市龙沙区","中华人民共和国","黑龙江省","齐齐哈尔市","龙沙区"
"230208","黑龙江省齐齐哈尔市梅里斯达斡尔族区","中华人民共和国","黑龙江省","齐齐哈尔市","梅里斯达斡尔族区"
"230225","黑龙江省齐齐哈尔市甘南县","中华人民共和国","黑龙江省","齐齐哈尔市","甘南县"
"230300","黑龙江省鸡西市","中华人民共和国","黑龙江省","鸡西市",""
"230303","黑龙江省鸡西市恒山区","中华人民共和国","黑龙江省","鸡西市","恒山区"
"230306","黑龙江省鸡西市城子河区","中华人民共和国","黑龙江省","鸡西市","城子河区"
"230400","黑龙江省鹤岗市","中华人民共和国","黑龙江省","鹤岗市",""
"230403","黑龙江省鹤岗市工农区","中华人民共和国","黑龙江省","鹤岗市","工农区"
"230406","黑龙江省鹤岗市东山区","中华人民共和国","黑龙江省","鹤岗市","东山区"
"230502","黑龙江省双鸭山市尖山区","中华人民共和国","黑龙江省","双鸭山市","尖山区"
"230506","黑龙江省双鸭山市宝山区","中华人民共和国","黑龙江省","双鸭山市","宝山区"
"230602","黑龙江省大庆市萨尔图区","中华人民共和国","黑龙江省","大庆市","萨尔图区"
"230605","黑龙江省大庆市红岗区","中华人民共和国","黑龙江省","大庆市","红岗区"
"230622","黑龙江省大庆市肇源县","中华人民共和国","黑龙江省","大庆市","肇源县"
"230704","黑龙江省伊春市友好区","中华人民共和国","黑龙江省","伊春市","友好区"
"230707","黑龙江省伊春市新青区","中华人民共和国","黑龙江省","伊春市","新青区"
"230709","黑龙江省伊春市金山屯区","中华人民共和国","黑龙江省","伊春市","金山屯区"
"230715","黑龙江省伊春市红星区","中华人民共和国","黑龙江省","伊春市","红星区"
"230781","黑龙江省伊春市铁力市","中华人民共和国","黑龙江省","伊春市","铁力市"
"230804","黑龙江省佳木斯市前进区","中华人民共和国","黑龙江省","佳木斯市","前进区"
"230828","黑龙江省佳木斯市汤原县","中华人民共和国","黑龙江省","佳木斯市","汤原县"
"230882","黑龙江省佳木斯市富锦市","中华人民共和国","黑龙江省","佳木斯市","富锦市"
"231000","黑龙江省牡丹江市","中华人民共和国","黑龙江省","牡丹江市",""
"231003","黑龙江省牡丹江市阳明区","中华人民共和国","黑龙江省","牡丹江市","阳明区"
"231024","黑龙江省牡丹江市东宁县","中华人民共和国","黑龙江省","牡丹江市","东宁县"
"231083","黑龙江省牡丹江市海林市","中华人民共和国","黑龙江省","牡丹江市","海林市"
"231100","黑龙江省黑河市","中华人民共和国","黑龙江省","黑河市",""
"231121","黑龙江省黑河市嫩江县","中华人民共和国","黑龙江省","黑河市","嫩江县"
"231124","黑龙江省黑河市孙吴县","中华人民共和国","黑龙江省","黑河市","孙吴县"
"231200","黑龙江省绥化市","中华人民共和国","黑龙江省","绥化市",""
"231221","黑龙江省绥化市望奎县","中华人民共和国","黑龙江省","绥化市","望奎县"
"231224","黑龙江省绥化市庆安县","中华人民共和国","黑龙江省","绥化市","庆安县"
"231281","黑龙江省绥化市安达市","中华人民共和国","黑龙江省","绥化市","安达市"
"231283","黑龙江省绥化市海伦市","中华人民共和国","黑龙江省","绥化市","海伦市"
"232702","黑龙江省大兴安岭地区松岭区","中华人民共和国","黑龙江省","大兴安岭地区","松岭区"
"232721","黑龙江省大兴安岭地区呼玛县","中华人民共和国","黑龙江省","大兴安岭地区","呼玛县"
"232900","黑龙江省农垦总局","中华人民共和国","黑龙江省","农垦总局",""
"232903","黑龙江省农垦总局哈尔滨分局","中华人民共和国","黑龙江省","农垦总局","哈尔滨分局"
"232906","黑龙江省农垦总局九三分局","中华人民共和国","黑龙江省","农垦总局","九三分局"
"232909","黑龙江省农垦总局绥化分局","中华人民共和国","黑龙江省","农垦总局","绥化分局"
"320405","江苏省常州市戚墅堰区","中华人民共和国","江苏省","常州市","戚墅堰区"
"320481","江苏省常州市溧阳市","中华人民共和国","江苏省","常州市","溧阳市"
"320501","江苏省苏州市苏州工业园区","中华人民共和国","江苏省","苏州市","苏州工业园区"
"320506","江苏省苏州市吴中区","中华人民共和国","江苏省","苏州市","吴中区"
"320581","江苏省苏州市常熟市","中华人民共和国","江苏省","苏州市","常熟市"
"320584","江苏省苏州市吴江区","中华人民共和国","江苏省","苏州市","吴江区"
"320600","江苏省南通市","中华人民共和国","江苏省","南通市",""
"320611","江苏省南通市港闸区","中华人民共和国","江苏省","南通市","港闸区"
"320621","江苏省南通市海安县","中华人民共和国","江苏省","南通市","海安县"
"320681","江苏省南通市启东市","中华人民共和国","江苏省","南通市","启东市"
"320700","江苏省连云港市","中华人民共和国","江苏省","连云港市",""
"320706","江苏省连云港市海州区","中华人民共和国","江苏省","连云港市","海州区"
"320723","江苏省连云港市灌云县","中华人民共和国","江苏省","连云港市","灌云县"
"320802","江苏省淮安市清河区","中华人民共和国","江苏省","淮安市","清河区"
"320804","江苏省淮安市淮阴区","中华人民共和国","江苏省","淮安市","淮阴区"
"320826","江苏省淮安市涟水县","中华人民共和国","江苏省","淮安市","涟水县"
"320830","江苏省淮安市盱眙县","中华人民共和国","江苏省","淮安市","盱眙县"
"320902","江苏省盐城市亭湖区","中华人民共和国","江苏省","盐城市","亭湖区"
"320921","江苏省盐城市响水县","中华人民共和国","江苏省","盐城市","响水县"
"320924","江苏省盐城市射阳县","中华人民共和国","江苏省","盐城市","射阳县"
"320982","江苏省盐城市大丰市","中华人民共和国","江苏省","盐城市","大丰市"
"321002","江苏省扬州市广陵区","中华人民共和国","江苏省","扬州市","广陵区"
"321023","江苏省扬州市宝应县","中华人民共和国","江苏省","扬州市","宝应县"
"321084","江苏省扬州市高邮市","中华人民共和国","江苏省","扬州市","高邮市"
"321111","江苏省镇江市润州区","中华人民共和国","江苏省","镇江市","润州区"
"321181","江苏省镇江市丹阳市","中华人民共和国","江苏省","镇江市","丹阳市"
"321200","江苏省泰州市","中华人民共和国","江苏省","泰州市",""
"321283","江苏省泰州市泰兴市","中华人民共和国","江苏省","泰州市","泰兴市"
"321300","江苏省宿迁市","中华人民共和国","江苏省","宿迁市",""
"321311","江苏省宿迁市宿豫区","中华人民共和国","江苏省","宿迁市","宿豫区"
"330100","浙江省杭州市","中华人民共和国","浙江省","杭州市",""
"330103","浙江省杭州市下城区","中华人民共和国","浙江省","杭州市","下城区"
"330106","浙江省杭州市西湖区","中华人民共和国","浙江省","杭州市","西湖区"
"330127","浙江省杭州市淳安县","中华人民共和国","浙江省","杭州市","淳安县"
"330185","浙江省杭州市临安市","中华人民共和国","浙江省","杭州市","临安市"
"330203","浙江省宁波市海曙区","中华人民共和国","浙江省","宁波市","海曙区"
"330212","浙江省宁波市鄞州区","中华人民共和国","浙江省","宁波市","鄞州区"
"330281","浙江省宁波市余姚市","中华人民共和国","浙江省","宁波市","余姚市"
"330283","浙江省宁波市奉化市","中华人民共和国","浙江省","宁波市","奉化市"
"330324","浙江省温州市永嘉县","中华人民共和国","浙江省","温州市","永嘉县"
"330327","浙江省温州市苍南县","中华人民共和国","浙江省","温州市","苍南县"
"330400","浙江省嘉兴市","中华人民共和国","浙江省","嘉兴市",""
"330411","浙江省嘉兴市秀洲区","中华人民共和国","浙江省","嘉兴市","秀洲区"
"330481","浙江省嘉兴市海宁市","中华人民共和国","浙江省","嘉兴市","海宁市"
"330503","浙江省湖州市南浔区","中华人民共和国","浙江省","湖州市","南浔区"
"330523","浙江省湖州市安吉县","中华人民共和国","浙江省","湖州市","安吉县"
"330602","浙江省绍兴市越城区","中华人民共和国","浙江省","绍兴市","越城区"
"330683","浙江省绍兴市嵊州市","中华人民共和国","浙江省","绍兴市","嵊州市"
"330703","浙江省金华市金东区","中华人民共和国","浙江省","金华市","金东区"
"330726","浙江省金华市浦江县","中华人民共和国","浙江省","金华市","浦江县"
"330800","浙江省衢州市","中华人民共和国","浙江省","衢州市",""
"330803","浙江省衢州市衢江区","中华人民共和国","浙江省","衢州市","衢江区"
"330824","浙江省衢州市开化县","中华人民共和国","浙江省","衢州市","开化县"
"330903","浙江省舟山市普陀区","中华人民共和国","浙江省","舟山市","普陀区"
"330922","浙江省舟山市嵊泗县","中华人民共和国","浙江省","舟山市","嵊泗县"
"331021","浙江省台州市玉环县","中华人民共和国","浙江省","台州市","玉环县"
"331024","浙江省台州市仙居县","中华人民共和国","浙江省","台州市","仙居县"
"130204","河北省唐山市古冶区","中华人民共和国","河北省","唐山市","古冶区"
"130223","河北省唐山市滦县","中华人民共和国","河北省","唐山市","滦县"
"130225","河北省唐山市乐亭县","中华人民共和国","河北省","唐山市","乐亭县"
"130281","河北省唐山市遵化市","中华人民共和国","河北省","唐山市","遵化市"
"130303","河北省秦皇岛市山海关区","中华人民共和国","河北省","秦皇岛市","山海关区"
"130322","河北省秦皇岛市昌黎县","中华人民共和国","河北省","秦皇岛市","昌黎县"
"130403","河北省邯郸市丛台区","中华人民共和国","河北省","邯郸市","丛台区"
"130421","河北省邯郸市邯郸县","中华人民共和国","河北省","邯郸市","邯郸县"
"130424","河北省邯郸市成安县","中华人民共和国","河北省","邯郸市","成安县"
"130427","河北省邯郸市磁县","中华人民共和国","河北省","邯郸市","磁县"
"130429","河北省邯郸市永年县","中华人民共和国","河北省","邯郸市","永年县"
"130432","河北省邯郸市广平县","中华人民共和国","河北省","邯郸市","广平县"
"130434","河北省邯郸市魏县","中华人民共和国","河北省","邯郸市","魏县"
"130500","河北省邢台市","中华人民共和国","河北省","邢台市",""
"130503","河北省邢台市桥西区","中华人民共和国","河北省","邢台市","桥西区"
"130522","河北省邢台市临城县","中华人民共和国","河北省","邢台市","临城县"
"130525","河北省邢台市隆尧县","中华人民共和国","河北省","邢台市","隆尧县"
"130527","河北省邢台市南和县","中华人民共和国","河北省","邢台市","南和县"
"130530","河北省邢台市新河县","中华人民共和国","河北省","邢台市","新河县"
"130533","河北省邢台市威县","中华人民共和国","河北省","邢台市","威县"
"130535","河北省邢台市临西县","中华人民共和国","河北省","邢台市","临西县"
"130600","河北省保定市","中华人民共和国","河北省","保定市",""
"130603","河北省保定市北市区","中华人民共和国","河北省","保定市","北市区"
"130621","河北省保定市满城县","中华人民共和国","河北省","保定市","满城县"
"130624","河北省保定市阜平县","中华人民共和国","河北省","保定市","阜平县"
"130626","河北省保定市定兴县","中华人民共和国","河北省","保定市","定兴县"
"130629","河北省保定市容城县","中华人民共和国","河北省","保定市","容城县"
"130631","河北省保定市望都县","中华人民共和国","河北省","保定市","望都县"
"130634","河北省保定市曲阳县","中华人民共和国","河北省","保定市","曲阳县"
"130637","河北省保定市博野县","中华人民共和国","河北省","保定市","博野县"
"130681","河北省保定市涿州市","中华人民共和国","河北省","保定市","涿州市"
"130684","河北省保定市高碑店市","中华人民共和国","河北省","保定市","高碑店市"
"130702","河北省张家口市桥东区","中华人民共和国","河北省","张家口市","桥东区"
"130706","河北省张家口市下花园区","中华人民共和国","河北省","张家口市","下花园区"
"130723","河北省张家口市康保县","中华人民共和国","河北省","张家口市","康保县"
"130726","河北省张家口市蔚县","中华人民共和国","河北省","张家口市","蔚县"
"130728","河北省张家口市怀安县","中华人民共和国","河北省","张家口市","怀安县"
"130731","河北省张家口市涿鹿县","中华人民共和国","河北省","张家口市","涿鹿县"
"130800","河北省承德市","中华人民共和国","河北省","承德市",""
"130803","河北省承德市双滦区","中华人民共和国","河北省","承德市","双滦区"
"130821","河北省承德市承德县","中华人民共和国","河北省","承德市","承德县"
"130824","河北省承德市滦平县","中华人民共和国","河北省","承德市","滦平县"
"130826","河北省承德市丰宁满族自治县","中华人民共和国","河北省","承德市","丰宁满族自治县"
"130902","河北省沧州市新华区","中华人民共和国","河北省","沧州市","新华区"
"130921","河北省沧州市沧县","中华人民共和国","河北省","沧州市","沧县"
"130924","河北省沧州市海兴县","中华人民共和国","河北省","沧州市","海兴县"
"130926","河北省沧州市肃宁县","中华人民共和国","河北省","沧州市","肃宁县"
"130929","河北省沧州市献县","中华人民共和国","河北省","沧州市","献县"
"130981","河北省沧州市泊头市","中华人民共和国","河北省","沧州市","泊头市"
"130984","河北省沧州市河间市","中华人民共和国","河北省","沧州市","河间市"
"131002","河北省廊坊市安次区","中华人民共和国","河北省","廊坊市","安次区"
"131023","河北省廊坊市永清县","中华人民共和国","河北省","廊坊市","永清县"
"131025","河北省廊坊市大城县","中华人民共和国","河北省","廊坊市","大城县"
"131102","河北省衡水市桃城区","中华人民共和国","河北省","衡水市","桃城区"
"131122","河北省衡水市武邑县","中华人民共和国","河北省","衡水市","武邑县"
"131125","河北省衡水市安平县","中华人民共和国","河北省","衡水市","安平县"
"131182","河北省衡水市深州市","中华人民共和国","河北省","衡水市","深州市"
"140100","山西省太原市","中华人民共和国","山西省","太原市",""
"140106","山西省太原市迎泽区","中华人民共和国","山西省","太原市","迎泽区"
"140729","山西省晋中市灵石县","中华人民共和国","山西省","晋中市","灵石县"
"140800","山西省运城市","中华人民共和国","山西省","运城市",""
"140821","山西省运城市临猗县","中华人民共和国","山西省","运城市","临猗县"
"140826","山西省运城市绛县","中华人民共和国","山西省","运城市","绛县"
"140829","山西省运城市平陆县","中华人民共和国","山西省","运城市","平陆县"
"140881","山西省运城市永济市","中华人民共和国","山西省","运城市","永济市"
"140922","山西省忻州市五台县","中华人民共和国","山西省","忻州市","五台县"
"140925","山西省忻州市宁武县","中华人民共和国","山西省","忻州市","宁武县"
"140928","山西省忻州市五寨县","中华人民共和国","山西省","忻州市","五寨县"
"140981","山西省忻州市原平市","中华人民共和国","山西省","忻州市","原平市"
"141002","山西省临汾市尧都区","中华人民共和国","山西省","临汾市","尧都区"
"141025","山西省临汾市古县","中华人民共和国","山西省","临汾市","古县"
"141028","山西省临汾市吉县","中华人民共和国","山西省","临汾市","吉县"
"141030","山西省临汾市大宁县","中华人民共和国","山西省","临汾市","大宁县"
"141033","山西省临汾市蒲县","中华人民共和国","山西省","临汾市","蒲县"
"141102","山西省吕梁市离石区","中华人民共和国","山西省","吕梁市","离石区"
"141122","山西省吕梁市交城县","中华人民共和国","山西省","吕梁市","交城县"
"141128","山西省吕梁市方山县","中华人民共和国","山西省","吕梁市","方山县"
"141130","山西省吕梁市交口县","中华人民共和国","山西省","吕梁市","交口县"
"150000","内蒙古自治区","中华人民共和国","内蒙古自治区","",""
"150105","内蒙古自治区呼和浩特市赛罕区","中华人民共和国","内蒙古自治区","呼和浩特市","赛罕区"
"150123","内蒙古自治区呼和浩特市和林格尔县","中华人民共和国","内蒙古自治区","呼和浩特市","和林格尔县"
"150205","内蒙古自治区包头市石拐区","中华人民共和国","内蒙古自治区","包头市","石拐区"
"150221","内蒙古自治区包头市土默特右旗","中华人民共和国","内蒙古自治区","包头市","土默特右旗"
"150303","内蒙古自治区乌海市海南区","中华人民共和国","内蒙古自治区","乌海市","海南区"
"150402","内蒙古自治区赤峰市红山区","中华人民共和国","内蒙古自治区","赤峰市","红山区"
"150425","内蒙古自治区赤峰市克什克腾旗","中华人民共和国","内蒙古自治区","赤峰市","克什克腾旗"
"150429","内蒙古自治区赤峰市宁城县","中华人民共和国","内蒙古自治区","赤峰市","宁城县"
"150502","内蒙古自治区通辽市科尔沁区","中华人民共和国","内蒙古自治区","通辽市","科尔沁区"
"150523","内蒙古自治区通辽市开鲁县","中华人民共和国","内蒙古自治区","通辽市","开鲁县"
"150526","内蒙古自治区通辽市扎鲁特旗","中华人民共和国","内蒙古自治区","通辽市","扎鲁特旗"
"150602","内蒙古自治区鄂尔多斯市东胜区","中华人民共和国","内蒙古自治区","鄂尔多斯市","东胜区"
"150623","内蒙古自治区鄂尔多斯市鄂托克前旗","中华人民共和国","内蒙古自治区","鄂尔多斯市","鄂托克前旗"
"150626","内蒙古自治区鄂尔多斯市乌审旗","中华人民共和国","内蒙古自治区","鄂尔多斯市","乌审旗"
"150700","内蒙古自治区呼伦贝尔市","中华人民共和国","内蒙古自治区","呼伦贝尔市",""
"150722","内蒙古自治区呼伦贝尔市莫力达瓦达斡尔族自治旗","中华人民共和国","内蒙古自治区","呼伦贝尔市","莫力达瓦达斡尔族自治旗"
"150727","内蒙古自治区呼伦贝尔市新巴尔虎右旗","中华人民共和国","内蒙古自治区","呼伦贝尔市","新巴尔虎右旗"
"520221","贵州省六盘水市水城县","中华人民共和国","贵州省","六盘水市","水城县"
"520302","贵州省遵义市红花岗区","中华人民共和国","贵州省","遵义市","红花岗区"
"520322","贵州省遵义市桐梓县","中华人民共和国","贵州省","遵义市","桐梓县"
"520324","贵州省遵义市正安县","中华人民共和国","贵州省","遵义市","正安县"
"520327","贵州省遵义市凤冈县","中华人民共和国","贵州省","遵义市","凤冈县"
"520329","贵州省遵义市余庆县","中华人民共和国","贵州省","遵义市","余庆县"
"520382","贵州省遵义市仁怀市","中华人民共和国","贵州省","遵义市","仁怀市"
"520421","贵州省安顺市平坝县","中华人民共和国","贵州省","安顺市","平坝县"
"520423","贵州省安顺市镇宁布依族苗族自治县","中华人民共和国","贵州省","安顺市","镇宁布依族苗族自治县"
"520502","贵州省毕节市七星关区","中华人民共和国","贵州省","毕节市","七星关区"
"520522","贵州省毕节市黔西县","中华人民共和国","贵州省","毕节市","黔西县"
"520525","贵州省毕节市纳雍县","中华人民共和国","贵州省","毕节市","纳雍县"
"520600","贵州省铜仁市","中华人民共和国","贵州省","铜仁市",""
"520603","贵州省铜仁市万山区","中华人民共和国","贵州省","铜仁市","万山区"
"520622","贵州省铜仁市玉屏侗族自治县","中华人民共和国","贵州省","铜仁市","玉屏侗族自治县"
"520625","贵州省铜仁市印江土家族苗族自治县","中华人民共和国","贵州省","铜仁市","印江土家族苗族自治县"
"522300","贵州省黔西南布依族苗族自治州","中华人民共和国","贵州省","黔西南布依族苗族自治州",""
"522323","贵州省黔西南布依族苗族自治州普安县","中华人民共和国","贵州省","黔西南布依族苗族自治州","普安县"
"522327","贵州省黔西南布依族苗族自治州册亨县","中华人民共和国","贵州省","黔西南布依族苗族自治州","册亨县"
"522601","贵州省黔东南苗族侗族自治州凯里市","中华人民共和国","贵州省","黔东南苗族侗族自治州","凯里市"
"522625","贵州省黔东南苗族侗族自治州镇远县","中华人民共和国","贵州省","黔东南苗族侗族自治州","镇远县"
"522629","贵州省黔东南苗族侗族自治州剑河县","中华人民共和国","贵州省","黔东南苗族侗族自治州","剑河县"
"522632","贵州省黔东南苗族侗族自治州榕江县","中华人民共和国","贵州省","黔东南苗族侗族自治州","榕江县"
"522636","贵州省黔东南苗族侗族自治州丹寨县","中华人民共和国","贵州省","黔东南苗族侗族自治州","丹寨县"
"522726","贵州省黔南布依族苗族自治州独山县","中华人民共和国","贵州省","黔南布依族苗族自治州","独山县"
"522729","贵州省黔南布依族苗族自治州长顺县","中华人民共和国","贵州省","黔南布依族苗族自治州","长顺县"
"530000","云南省","中华人民共和国","云南省","",""
"530103","云南省昆明市盘龙区","中华人民共和国","云南省","昆明市","盘龙区"
"530113","云南省昆明市东川区","中华人民共和国","云南省","昆明市","东川区"
"530126","云南省昆明市石林彝族自治县","中华人民共和国","云南省","昆明市","石林彝族自治县"
"530321","云南省曲靖市马龙县","中华人民共和国","云南省","曲靖市","马龙县"
"530323","云南省曲靖市师宗县","中华人民共和国","云南省","曲靖市","师宗县"
"530326","云南省曲靖市会泽县","中华人民共和国","云南省","曲靖市","会泽县"
"530381","云南省曲靖市宣威市","中华人民共和国","云南省","曲靖市","宣威市"
"530421","云南省玉溪市江川县","中华人民共和国","云南省","玉溪市","江川县"
"530426","云南省玉溪市峨山彝族自治县","中华人民共和国","云南省","玉溪市","峨山彝族自治县"
"530500","云南省保山市","中华人民共和国","云南省","保山市",""
"530524","云南省保山市昌宁县","中华人民共和国","云南省","保山市","昌宁县"
"530602","云南省昭通市昭阳区","中华人民共和国","云南省","昭通市","昭阳区"
"530623","云南省昭通市盐津县","中华人民共和国","云南省","昭通市","盐津县"
"340700","安徽省铜陵市","中华人民共和国","安徽省","铜陵市",""
"340703","安徽省铜陵市狮子山区","中华人民共和国","安徽省","铜陵市","狮子山区"
"340721","安徽省铜陵市铜陵县","中华人民共和国","安徽省","铜陵市","铜陵县"
"340822","安徽省安庆市怀宁县","中华人民共和国","安徽省","安庆市","怀宁县"
"340825","安徽省安庆市太湖县","中华人民共和国","安徽省","安庆市","太湖县"
"340828","安徽省安庆市岳西县","中华人民共和国","安徽省","安庆市","岳西县"
"341003","安徽省黄山市黄山区","中华人民共和国","安徽省","黄山市","黄山区"
"341022","安徽省黄山市休宁县","中华人民共和国","安徽省","黄山市","休宁县"
"341103","安徽省滁州市南谯区","中华人民共和国","安徽省","滁州市","南谯区"
"341124","安徽省滁州市全椒县","中华人民共和国","安徽省","滁州市","全椒县"
"341181","安徽省滁州市天长市","中华人民共和国","安徽省","滁州市","天长市"
"341204","安徽省阜阳市颍泉区","中华人民共和国","安徽省","阜阳市","颍泉区"
"341225","安徽省阜阳市阜南县","中华人民共和国","安徽省","阜阳市","阜南县"
"341321","安徽省宿州市砀山县","中华人民共和国","安徽省","宿州市","砀山县"
"341323","安徽省宿州市灵璧县","中华人民共和国","安徽省","宿州市","灵璧县"
"341502","安徽省六安市金安区","中华人民共和国","安徽省","六安市","金安区"
"341524","安徽省六安市金寨县","中华人民共和国","安徽省","六安市","金寨县"
"341602","安徽省亳州市谯城区","中华人民共和国","安徽省","亳州市","谯城区"
"341622","安徽省亳州市蒙城县","中华人民共和国","安徽省","亳州市","蒙城县"
"341722","安徽省池州市石台县","中华人民共和国","安徽省","池州市","石台县"
"341802","安徽省宣城市宣州区","中华人民共和国","安徽省","宣城市","宣州区"
"341823","安徽省宣城市泾县","中华人民共和国","安徽省","宣城市","泾县"
"350100","福建省福州市","中华人民共和国","福建省","福州市",""
"350103","福建省福州市台江区","中华人民共和国","福建省","福州市","台江区"
"350105","福建省福州市马尾区","中华人民共和国","福建省","福州市","马尾区"
"350122","福建省福州市连江县","中华人民共和国","福建省","福州市","连江县"
"350124","福建省福州市闽清县","中华人民共和国","福建省","福州市","闽清县"
"350181","福建省福州市福清市","中华人民共和国","福建省","福州市","福清市"
"350200","福建省厦门市","中华人民共和国","福建省","厦门市",""
"350205","福建省厦门市海沧区","中华人民共和国","福建省","厦门市","海沧区"
"350212","福建省厦门市同安区","中华人民共和国","福建省","厦门市","同安区"
"350302","福建省莆田市城厢区","中华人民共和国","福建省","莆田市","城厢区"
"350304","福建省莆田市荔城区","中华人民共和国","福建省","莆田市","荔城区"
"350400","福建省三明市","中华人民共和国","福建省","三明市",""
"350403","福建省三明市三元区","中华人民共和国","福建省","三明市","三元区"
"350423","福建省三明市清流县","中华人民共和国","福建省","三明市","清流县"
"350426","福建省三明市尤溪县","中华人民共和国","福建省","三明市","尤溪县"
"350428","福建省三明市将乐县","中华人民共和国","福建省","三明市","将乐县"
"350481","福建省三明市永安市","中华人民共和国","福建省","三明市","永安市"
"350503","福建省泉州市丰泽区","中华人民共和国","福建省","泉州市","丰泽区"
"350505","福建省泉州市泉港区","中华人民共和国","福建省","泉州市","泉港区"
"350524","福建省泉州市安溪县","中华人民共和国","福建省","泉州市","安溪县"
"350526","福建省泉州市德化县","中华人民共和国","福建省","泉州市","德化县"
"350582","福建省泉州市晋江市","中华人民共和国","福建省","泉州市","晋江市"
"350600","福建省漳州市","中华人民共和国","福建省","漳州市",""
"350603","福建省漳州市龙文区","中华人民共和国","福建省","漳州市","龙文区"
"350624","福建省漳州市诏安县","中华人民共和国","福建省","漳州市","诏安县"
"350627","福建省漳州市南靖县","中华人民共和国","福建省","漳州市","南靖县"
"350629","福建省漳州市华安县","中华人民共和国","福建省","漳州市","华安县"
"350702","福建省南平市延平区","中华人民共和国","福建省","南平市","延平区"
"350722","福建省南平市浦城县","中华人民共和国","福建省","南平市","浦城县"
"350725","福建省南平市政和县","中华人民共和国","福建省","南平市","政和县"
"350782","福建省南平市武夷山市","中华人民共和国","福建省","南平市","武夷山市"
"350800","福建省龙岩市","中华人民共和国","福建省","龙岩市",""
"350821","福建省龙岩市长汀县","中华人民共和国","福建省","龙岩市","长汀县"
"350824","福建省龙岩市武平县","中华人民共和国","福建省","龙岩市","武平县"
"350881","福建省龙岩市漳平市","中华人民共和国","福建省","龙岩市","漳平市"
"350921","福建省宁德市霞浦县","中华人民共和国","福建省","宁德市","霞浦县"
"350923","福建省宁德市屏南县","中华人民共和国","福建省","宁德市","屏南县"
"360730","江西省赣州市宁都县","中华人民共和国","江西省","赣州市","宁都县"
"360733","江西省赣州市会昌县","中华人民共和国","江西省","赣州市","会昌县"
"360735","江西省赣州市石城县","中华人民共和国","江西省","赣州市","石城县"
"360800","江西省吉安市","中华人民共和国","江西省","吉安市",""
"360803","江西省吉安市青原区","中华人民共和国","江西省","吉安市","青原区"
"360822","江西省吉安市吉水县","中华人民共和国","江西省","吉安市","吉水县"
"360825","江西省吉安市永丰县","中华人民共和国","江西省","吉安市","永丰县"
"360828","江西省吉安市万安县","中华人民共和国","江西省","吉安市","万安县"
"360830","江西省吉安市永新县","中华人民共和国","江西省","吉安市","永新县"
"360902","江西省宜春市袁州区","中华人民共和国","江西省","宜春市","袁州区"
"360922","江西省宜春市万载县","中华人民共和国","江西省","宜春市","万载县"
"360925","江西省宜春市靖安县","中华人民共和国","江西省","宜春市","靖安县"
"360981","江西省宜春市丰城市","中华人民共和国","江西省","宜春市","丰城市"
"361000","江西省抚州市","中华人民共和国","江西省","抚州市",""
"361021","江西省抚州市南城县","中华人民共和国","江西省","抚州市","南城县"
"361026","江西省抚州市宜黄县","中华人民共和国","江西省","抚州市","宜黄县"
"361029","江西省抚州市东乡县","中华人民共和国","江西省","抚州市","东乡县"
"361100","江西省上饶市","中华人民共和国","江西省","上饶市",""
"361124","江西省上饶市铅山县","中华人民共和国","江西省","上饶市","铅山县"
"361126","江西省上饶市弋阳县","中华人民共和国","江西省","上饶市","弋阳县"
"361129","江西省上饶市万年县","中华人民共和国","江西省","上饶市","万年县"
"370100","山东省济南市","中华人民共和国","山东省","济南市",""
"370103","山东省济南市市中区","中华人民共和国","山东省","济南市","市中区"
"370124","山东省济南市平阴县","中华人民共和国","山东省","济南市","平阴县"
"370181","山东省济南市章丘市","中华人民共和国","山东省","济南市","章丘市"
"370202","山东省青岛市市南区","中华人民共和国","山东省","青岛市","市南区"
"370214","山东省青岛市城阳区","中华人民共和国","山东省","青岛市","城阳区"
"370283","山东省青岛市平度市","中华人民共和国","山东省","青岛市","平度市"
"370300","山东省淄博市","中华人民共和国","山东省","淄博市",""
"370305","山东省淄博市临淄区","中华人民共和国","山东省","淄博市","临淄区"
"370322","山东省淄博市高青县","中华人民共和国","山东省","淄博市","高青县"
"370400","山东省枣庄市","中华人民共和国","山东省","枣庄市",""
"370406","山东省枣庄市山亭区","中华人民共和国","山东省","枣庄市","山亭区"
"370500","山东省东营市","中华人民共和国","山东省","东营市",""
"370503","山东省东营市河口区","中华人民共和国","山东省","东营市","河口区"
"370611","山东省烟台市福山区","中华人民共和国","山东省","烟台市","福山区"
"370613","山东省烟台市莱山区","中华人民共和国","山东省","烟台市","莱山区"
"370634","山东省烟台市长岛县","中华人民共和国","山东省","烟台市","长岛县"
"370685","山东省烟台市招远市","中华人民共和国","山东省","烟台市","招远市"
"370687","山东省烟台市海阳市","中华人民共和国","山东省","烟台市","海阳市"
"370724","山东省潍坊市临朐县","中华人民共和国","山东省","潍坊市","临朐县"
"370781","山东省潍坊市青州市","中华人民共和国","山东省","潍坊市","青州市"
"370784","山东省潍坊市安丘市","中华人民共和国","山东省","潍坊市","安丘市"
"370811","山东省济宁市任城区","中华人民共和国","山东省","济宁市","任城区"
"370827","山东省济宁市鱼台县","中华人民共和国","山东省","济宁市","鱼台县"
"370830","山东省济宁市汶上县","中华人民共和国","山东省","济宁市","汶上县"
"370883","山东省济宁市邹城市","中华人民共和国","山东省","济宁市","邹城市"
"370911","山东省泰安市岱岳区","中华人民共和国","山东省","泰安市","岱岳区"
"371000","山东省威海市","中华人民共和国","山东省","威海市",""
"371003","山东省威海市文登区","中华人民共和国","山东省","威海市","文登区"
"371083","山东省威海市乳山市","中华人民共和国","山东省","威海市","乳山市"
"371103","山东省日照市岚山区","中华人民共和国","山东省","日照市","岚山区"
"371200","山东省莱芜市","中华人民共和国","山东省","莱芜市",""
"371203","山东省莱芜市钢城区","中华人民共和国","山东省","莱芜市","钢城区"
"371302","山东省临沂市兰山区","中华人民共和国","山东省","临沂市","兰山区"
"410182","河南省郑州市荥阳市","中华人民共和国","河南省","郑州市","荥阳市"
"410184","河南省郑州市新郑市","中华人民共和国","河南省","郑州市","新郑市"
"410202","河南省开封市龙亭区","中华人民共和国","河南省","开封市","龙亭区"
"410204","河南省开封市鼓楼区","中华人民共和国","河南省","开封市","鼓楼区"
"410221","河南省开封市杞县","中华人民共和国","河南省","开封市","杞县"
"410223","河南省开封市尉氏县","中华人民共和国","河南省","开封市","尉氏县"
"410300","河南省洛阳市","中华人民共和国","河南省","洛阳市",""
"410303","河南省洛阳市西工区","中华人民共和国","河南省","洛阳市","西工区"
"410306","河南省洛阳市吉利区","中华人民共和国","河南省","洛阳市","吉利区"
"410322","河南省洛阳市孟津县","中华人民共和国","河南省","洛阳市","孟津县"
"410325","河南省洛阳市嵩县","中华人民共和国","河南省","洛阳市","嵩县"
"410327","河南省洛阳市宜阳县","中华人民共和国","河南省","洛阳市","宜阳县"
"410381","河南省洛阳市偃师市","中华人民共和国","河南省","洛阳市","偃师市"
"410402","河南省平顶山市新华区","中华人民共和国","河南省","平顶山市","新华区"
"410411","河南省平顶山市湛河区","中华人民共和国","河南省","平顶山市","湛河区"
"410423","河南省平顶山市鲁山县","中华人民共和国","河南省","平顶山市","鲁山县"
"410481","河南省平顶山市舞钢市","中华人民共和国","河南省","平顶山市","舞钢市"
"410502","河南省安阳市文峰区","中华人民共和国","河南省","安阳市","文峰区"
"410506","河南省安阳市龙安区","中华人民共和国","河南省","安阳市","龙安区"
"410523","河南省安阳市汤阴县","中华人民共和国","河南省","安阳市","汤阴县"
"410581","河南省安阳市林州市","中华人民共和国","河南省","安阳市","林州市"
"410602","河南省鹤壁市鹤山区","中华人民共和国","河南省","鹤壁市","鹤山区"
"410621","河南省鹤壁市浚县","中华人民共和国","河南省","鹤壁市","浚县"
"410700","河南省新乡市","中华人民共和国","河南省","新乡市",""
"410703","河南省新乡市卫滨区","中华人民共和国","河南省","新乡市","卫滨区"
"410721","河南省新乡市新乡县","中华人民共和国","河南省","新乡市","新乡县"
"410726","河南省新乡市延津县","中华人民共和国","河南省","新乡市","延津县"
"410728","河南省新乡市长垣县","中华人民共和国","河南省","新乡市","长垣县"
"410800","河南省焦作市","中华人民共和国","河南省","焦作市",""
"410803","河南省焦作市中站区","中华人民共和国","河南省","焦作市","中站区"
"410811","河南省焦作市山阳区","中华人民共和国","河南省","焦作市","山阳区"
"410823","河南省焦作市武陟县","中华人民共和国","河南省","焦作市","武陟县"
"410882","河南省焦作市沁阳市","中华人民共和国","河南省","焦作市","沁阳市"
"410902","河南省濮阳市华龙区","中华人民共和国","河南省","濮阳市","华龙区"
"410926","河南省濮阳市范县","中华人民共和国","河南省","濮阳市","范县"
"410928","河南省濮阳市濮阳县","中华人民共和国","河南省","濮阳市","濮阳县"
"411023","河南省许昌市许昌县","中华人民共和国","河南省","许昌市","许昌县"
"411025","河南省许昌市襄城县","中华人民共和国","河南省","许昌市","襄城县"
"411100","河南省漯河市","中华人民共和国","河南省","漯河市",""
"411103","河南省漯河市郾城区","中华人民共和国","河南省","漯河市","郾城区"
"411121","河南省漯河市舞阳县","中华人民共和国","河南省","漯河市","舞阳县"
"411202","河南省三门峡市湖滨区","中华人民共和国","河南省","三门峡市","湖滨区"
"411224","河南省三门峡市卢氏县","中华人民共和国","河南省","三门峡市","卢氏县"
"411282","河南省三门峡市灵宝市","中华人民共和国","河南省","三门峡市","灵宝市"
"411323","河南省南阳市西峡县","中华人民共和国","河南省","南阳市","西峡县"
"411325","河南省南阳市内乡县","中华人民共和国","河南省","南阳市","内乡县"
"411330","河南省南阳市桐柏县","中华人民共和国","河南省","南阳市","桐柏县"
"411402","河南省商丘市梁园区","中华人民共和国","河南省","商丘市","梁园区"
"411421","河南省商丘市民权县","中华人民共和国","河南省","商丘市","民权县"
"411481","河南省商丘市永城市","中华人民共和国","河南省","商丘市","永城市"
"411502","河南省信阳市浉河区","中华人民共和国","河南省","信阳市","浉河区"
"411522","河南省信阳市光山县","中华人民共和国","河南省","信阳市","光山县"
"411527","河南省信阳市淮滨县","中华人民共和国","河南省","信阳市","淮滨县"
"411600","河南省周口市","中华人民共和国","河南省","周口市",""
"411621","河南省周口市扶沟县","中华人民共和国","河南省","周口市","扶沟县"
"411627","河南省周口市太康县","中华人民共和国","河南省","周口市","太康县"
"411681","河南省周口市项城市","中华人民共和国","河南省","周口市","项城市"
"411723","河南省驻马店市平舆县","中华人民共和国","河南省","驻马店市","平舆县"
"411726","河南省驻马店市泌阳县","中华人民共和国","河南省","驻马店市","泌阳县"
"420700","湖北省鄂州市","中华人民共和国","湖北省","鄂州市",""
"420703","湖北省鄂州市华容区","中华人民共和国","湖北省","鄂州市","华容区"
"420821","湖北省荆门市京山县","中华人民共和国","湖北省","荆门市","京山县"
"420900","湖北省孝感市","中华人民共和国","湖北省","孝感市",""
"420921","湖北省孝感市孝昌县","中华人民共和国","湖北省","孝感市","孝昌县"
"420984","湖北省孝感市汉川市","中华人民共和国","湖北省","孝感市","汉川市"
"421003","湖北省荆州市荆州区","中华人民共和国","湖北省","荆州市","荆州区"
"421083","湖北省荆州市洪湖市","中华人民共和国","湖北省","荆州市","洪湖市"
"421100","湖北省黄冈市","中华人民共和国","湖北省","黄冈市",""
"421121","湖北省黄冈市团风县","中华人民共和国","湖北省","黄冈市","团风县"
"421127","湖北省黄冈市黄梅县","中华人民共和国","湖北省","黄冈市","黄梅县"
"421182","湖北省黄冈市武穴市","中华人民共和国","湖北省","黄冈市","武穴市"
"421221","湖北省咸宁市嘉鱼县","中华人民共和国","湖北省","咸宁市","嘉鱼县"
"421300","湖北省随州市","中华人民共和国","湖北省","随州市",""
"421321","湖北省随州市随县","中华人民共和国","湖北省","随州市","随县"
"422800","湖北省恩施土家族苗族自治州","中华人民共和国","湖北省","恩施土家族苗族自治州",""
"422827","湖北省恩施土家族苗族自治州来凤县","中华人民共和国","湖北省","恩施土家族苗族自治州","来凤县"
"429004","湖北省省直辖县级行政区划仙桃市","中华人民共和国","湖北省","省直辖县级行政区划","仙桃市"
"430000","湖南省","中华人民共和国","湖南省","",""
"430100","湖南省长沙市","中华人民共和国","湖南省","长沙市",""
"430103","湖南省长沙市天心区","中华人民共和国","湖南省","长沙市","天心区"
"430111","湖南省长沙市雨花区","中华人民共和国","湖南省","长沙市","雨花区"
"430121","湖南省长沙市长沙县","中华人民共和国","湖南省","长沙市","长沙县"
"430200","湖南省株洲市","中华人民共和国","湖南省","株洲市",""
"430203","湖南省株洲市芦淞区","中华人民共和国","湖南省","株洲市","芦淞区"
"430221","湖南省株洲市株洲县","中华人民共和国","湖南省","株洲市","株洲县"
"430224","湖南省株洲市茶陵县","中华人民共和国","湖南省","株洲市","茶陵县"
"430300","湖南省湘潭市","中华人民共和国","湖南省","湘潭市",""
"430304","湖南省湘潭市岳塘区","中华人民共和国","湖南省","湘潭市","岳塘区"
"430381","湖南省湘潭市湘乡市","中华人民共和国","湖南省","湘潭市","湘乡市"
"430405","湖南省衡阳市珠晖区","中华人民共和国","湖南省","衡阳市","珠晖区"
"430407","湖南省衡阳市石鼓区","中华人民共和国","湖南省","衡阳市","石鼓区"
"430421","湖南省衡阳市衡阳县","中华人民共和国","湖南省","衡阳市","衡阳县"
"430424","湖南省衡阳市衡东县","中华人民共和国","湖南省","衡阳市","衡东县"
"430481","湖南省衡阳市耒阳市","中华人民共和国","湖南省","衡阳市","耒阳市"
"430502","湖南省邵阳市双清区","中华人民共和国","湖南省","邵阳市","双清区"
"430511","湖南省邵阳市北塔区","中华人民共和国","湖南省","邵阳市","北塔区"
"430523","湖南省邵阳市邵阳县","中华人民共和国","湖南省","邵阳市","邵阳县"
"430525","湖南省邵阳市洞口县","中华人民共和国","湖南省","邵阳市","洞口县"
"430529","湖南省邵阳市城步苗族自治县","中华人民共和国","湖南省","邵阳市","城步苗族自治县"
"430602","湖南省岳阳市岳阳楼区","中华人民共和国","湖南省","岳阳市","岳阳楼区"
"430621","湖南省岳阳市岳阳县","中华人民共和国","湖南省","岳阳市","岳阳县"
"430624","湖南省岳阳市湘阴县","中华人民共和国","湖南省","岳阳市","湘阴县"
"430682","湖南省岳阳市临湘市","中华人民共和国","湖南省","岳阳市","临湘市"
"430703","湖南省常德市鼎城区","中华人民共和国","湖南省","常德市","鼎城区"
"430722","湖南省常德市汉寿县","中华人民共和国","湖南省","常德市","汉寿县"
"430725","湖南省常德市桃源县","中华人民共和国","湖南省","常德市","桃源县"
"430781","湖南省常德市津市市","中华人民共和国","湖南省","常德市","津市市"
"430811","湖南省张家界市武陵源区","中华人民共和国","湖南省","张家界市","武陵源区"
"430900","湖南省益阳市","中华人民共和国","湖南省","益阳市",""
"430903","湖南省益阳市赫山区","中华人民共和国","湖南省","益阳市","赫山区"
"430922","湖南省益阳市桃江县","中华人民共和国","湖南省","益阳市","桃江县"
"431000","湖南省郴州市","中华人民共和国","湖南省","郴州市",""
"431003","湖南省郴州市苏仙区","中华人民共和国","湖南省","郴州市","苏仙区"
"431022","湖南省郴州市宜章县","中华人民共和国","湖南省","郴州市","宜章县"
"431025","湖南省郴州市临武县","中华人民共和国","湖南省","郴州市","临武县"
"431028","湖南省郴州市安仁县","中华人民共和国","湖南省","郴州市","安仁县"
"431100","湖南省永州市","中华人民共和国","湖南省","永州市",""
"440229","广东省韶关市翁源县","中华人民共和国","广东省","韶关市","翁源县"
"440233","广东省韶关市新丰县","中华人民共和国","广东省","韶关市","新丰县"
"440300","广东省深圳市","中华人民共和国","广东省","深圳市",""
"440304","广东省深圳市福田区","中华人民共和国","广东省","深圳市","福田区"
"440307","广东省深圳市龙岗区","中华人民共和国","广东省","深圳市","龙岗区"
"440309","广东省深圳市光明新区","中华人民共和国","广东省","深圳市","光明新区"
"440312","广东省深圳市大鹏新区","中华人民共和国","广东省","深圳市","大鹏新区"
"440405","广东省珠海市万山区","中华人民共和国","广东省","珠海市","万山区"
"440408","广东省珠海市横琴新区","中华人民共和国","广东省","珠海市","横琴新区"
"440513","广东省汕头市潮阳区","中华人民共和国","广东省","汕头市","潮阳区"
"440523","广东省汕头市南澳县","中华人民共和国","广东省","汕头市","南澳县"
"440604","广东省佛山市禅城区","中华人民共和国","广东省","佛山市","禅城区"
"440700","广东省江门市","中华人民共和国","广东省","江门市",""
"440704","广东省江门市江海区","中华人民共和国","广东省","江门市","江海区"
"440783","广东省江门市开平市","中华人民共和国","广东省","江门市","开平市"
"440803","广东省湛江市霞山区","中华人民共和国","广东省","湛江市","霞山区"
"440823","广东省湛江市遂溪县","中华人民共和国","广东省","湛江市","遂溪县"
"440881","广东省湛江市廉江市","中华人民共和国","广东省","湛江市","廉江市"
"440902","广东省茂名市茂南区","中华人民共和国","广东省","茂名市","茂南区"
"440982","广东省茂名市化州市","中华人民共和国","广东省","茂名市","化州市"
"441200","广东省肇庆市","中华人民共和国","广东省","肇庆市",""
"441223","广东省肇庆市广宁县","中华人民共和国","广东省","肇庆市","广宁县"
"441226","广东省肇庆市德庆县","中华人民共和国","广东省","肇庆市","德庆县"
"441303","广东省惠州市惠阳区","中华人民共和国","广东省","惠州市","惠阳区"
"441322","广东省惠州市博罗县","中华人民共和国","广东省","惠州市","博罗县"
"441325","广东省惠州市仲恺高新区","中华人民共和国","广东省","惠州市","仲恺高新区"
"441423","广东省梅州市丰顺县","中华人民共和国","广东省","梅州市","丰顺县"
"441427","广东省梅州市蕉岭县","中华人民共和国","广东省","梅州市","蕉岭县"
"441500","广东省汕尾市","中华人民共和国","广东省","汕尾市",""
"441582","广东省汕尾市红海湾经济开发区","中华人民共和国","广东省","汕尾市","红海湾经济开发区"
"441602","广东省河源市源城区","中华人民共和国","广东省","河源市","源城区"
"441625","广东省河源市东源县","中华人民共和国","广东省","河源市","东源县"
"441721","广东省阳江市阳西县","中华人民共和国","广东省","阳江市","阳西县"
"441782","广东省阳江市海陵试验区","中华人民共和国","广东省","阳江市","海陵试验区"
"441823","广东省清远市阳山县","中华人民共和国","广东省","清远市","阳山县"
"441881","广东省清远市英德市","中华人民共和国","广东省","清远市","英德市"
"441900","广东省东莞市","中华人民共和国","广东省","东莞市",""
"441906","广东省东莞市长安镇","中华人民共和国","广东省","东莞市","长安镇"
"441908","广东省东莞市厚街镇","中华人民共和国","广东省","东莞市","厚街镇"
"371728","山东省菏泽市东明县","中华人民共和国","山东省","菏泽市","东明县"
"410103","河南省郑州市二七区","中华人民共和国","河南省","郑州市","二七区"
"410105","河南省郑州市金水区","中华人民共和国","河南省","郑州市","金水区"
"410122","河南省郑州市中牟县","中华人民共和国","河南省","郑州市","中牟县"
"410185","河南省郑州市登封市","中华人民共和国","河南省","郑州市","登封市"
"410205","河南省开封市禹王台区","中华人民共和国","河南省","开封市","禹王台区"
"410225","河南省开封市兰考县","中华人民共和国","河南省","开封市","兰考县"
"410304","河南省洛阳市瀍河回族区","中华人民共和国","河南省","洛阳市","瀍河回族区"
"410324","河南省洛阳市栾川县","中华人民共和国","河南省","洛阳市","栾川县"
"410329","河南省洛阳市伊川县","中华人民共和国","河南省","洛阳市","伊川县"
"410404","河南省平顶山市石龙区","中华人民共和国","河南省","平顶山市","石龙区"
"410425","河南省平顶山市郏县","中华人民共和国","河南省","平顶山市","郏县"
"410503","河南省安阳市北关区","中华人民共和国","河南省","安阳市","北关区"
"410526","河南省安阳市滑县","中华人民共和国","河南省","安阳市","滑县"
"410603","河南省鹤壁市山城区","中华人民共和国","河南省","鹤壁市","山城区"
"410704","河南省新乡市凤泉区","中华人民共和国","河南省","新乡市","凤泉区"
"410725","河南省新乡市原阳县","中华人民共和国","河南省","新乡市","原阳县"
"410782","河南省新乡市辉县市","中华人民共和国","河南省","新乡市","辉县市"
"410821","河南省焦作市修武县","中华人民共和国","河南省","焦作市","修武县"
"410883","河南省焦作市孟州市","中华人民共和国","河南省","焦作市","孟州市"
"410923","河南省濮阳市南乐县","中华人民共和国","河南省","濮阳市","南乐县"
"411002","河南省许昌市魏都区","中华人民共和国","河南省","许昌市","魏都区"
"411082","河南省许昌市长葛市","中华人民共和国","河南省","许昌市","长葛市"
"411122","河南省漯河市临颍县","中华人民共和国","河南省","漯河市","临颍县"
"411222","河南省三门峡市陕县","中华人民共和国","河南省","三门峡市","陕县"
"411321","河南省南阳市南召县","中华人民共和国","河南省","南阳市","南召县"
"411326","河南省南阳市淅川县","中华人民共和国","河南省","南阳市","淅川县"
"411381","河南省南阳市邓州市","中华人民共和国","河南省","南阳市","邓州市"
"411422","河南省商丘市睢县","中华人民共和国","河南省","商丘市","睢县"
"411426","河南省商丘市夏邑县","中华人民共和国","河南省","商丘市","夏邑县"
"411521","河南省信阳市罗山县","中华人民共和国","河南省","信阳市","罗山县"
"411526","河南省信阳市潢川县","中华人民共和国","河南省","信阳市","潢川县"
"411622","河南省周口市西华县","中华人民共和国","河南省","周口市","西华县"
"411626","河南省周口市淮阳县","中华人民共和国","河南省","周口市","淮阳县"
"411722","河南省驻马店市上蔡县","中华人民共和国","河南省","驻马店市","上蔡县"
"411725","河南省驻马店市确山县","中华人民共和国","河南省","驻马店市","确山县"
"419000","河南省省直辖县级行政区划","中华人民共和国","河南省","省直辖县级行政区划",""
"420100","湖北省武汉市","中华人民共和国","湖北省","武汉市",""
"420103","湖北省武汉市江汉区","中华人民共和国","湖北省","武汉市","江汉区"
"420106","湖北省武汉市武昌区","中华人民共和国","湖北省","武汉市","武昌区"
"420112","湖北省武汉市东西湖区","中华人民共和国","湖北省","武汉市","东西湖区"
"420116","湖北省武汉市黄陂区","中华人民共和国","湖北省","武汉市","黄陂区"
"420202","湖北省黄石市黄石港区","中华人民共和国","湖北省","黄石市","黄石港区"
"420205","湖北省黄石市铁山区","中华人民共和国","湖北省","黄石市","铁山区"
"420300","湖北省十堰市","中华人民共和国","湖北省","十堰市",""
"420303","湖北省十堰市张湾区","中华人民共和国","湖北省","十堰市","张湾区"
"420324","湖北省十堰市竹溪县","中华人民共和国","湖北省","十堰市","竹溪县"
"420500","湖北省宜昌市","中华人民共和国","湖北省","宜昌市",""
"420503","湖北省宜昌市伍家岗区","中华人民共和国","湖北省","宜昌市","伍家岗区"
"420506","湖北省宜昌市夷陵区","中华人民共和国","湖北省","宜昌市","夷陵区"
"420527","湖北省宜昌市秭归县","中华人民共和国","湖北省","宜昌市","秭归县"
"420529","湖北省宜昌市五峰土家族自治县","中华人民共和国","湖北省","宜昌市","五峰土家族自治县"
"420602","湖北省襄阳市襄城区","中华人民共和国","湖北省","襄阳市","襄城区"
"420624","湖北省襄阳市南漳县","中华人民共和国","湖北省","襄阳市","南漳县"
"420682","湖北省襄阳市老河口市","中华人民共和国","湖北省","襄阳市","老河口市"
"420702","湖北省鄂州市梁子湖区","中华人民共和国","湖北省","鄂州市","梁子湖区"
"420804","湖北省荆门市掇刀区","中华人民共和国","湖北省","荆门市","掇刀区"
"420902","湖北省孝感市孝南区","中华人民共和国","湖北省","孝感市","孝南区"
"420982","湖北省孝感市安陆市","中华人民共和国","湖北省","孝感市","安陆市"
"421022","湖北省荆州市公安县","中华人民共和国","湖北省","荆州市","公安县"
"421087","湖北省荆州市松滋市","中华人民共和国","湖北省","荆州市","松滋市"
"421123","湖北省黄冈市罗田县","中华人民共和国","湖北省","黄冈市","罗田县"
"421181","湖北省黄冈市麻城市","中华人民共和国","湖北省","黄冈市","麻城市"
"421224","湖北省咸宁市通山县","中华人民共和国","湖北省","咸宁市","通山县"
"421381","湖北省随州市广水市","中华人民共和国","湖北省","随州市","广水市"
"422802","湖北省恩施土家族苗族自治州利川市","中华人民共和国","湖北省","恩施土家族苗族自治州","利川市"
"422825","湖北省恩施土家族苗族自治州宣恩县","中华人民共和国","湖北省","恩施土家族苗族自治州","宣恩县"
"429000","湖北省省直辖县级行政区划","中华人民共和国","湖北省","省直辖县级行政区划",""
"429006","湖北省省直辖县级行政区划天门市","中华人民共和国","湖北省","省直辖县级行政区划","天门市"
"430105","湖南省长沙市开福区","中华人民共和国","湖南省","长沙市","开福区"
"430181","湖南省长沙市浏阳市","中华人民共和国","湖南省","长沙市","浏阳市"
"430211","湖南省株洲市天元区","中华人民共和国","湖南省","株洲市","天元区"
"430281","湖南省株洲市醴陵市","中华人民共和国","湖南省","株洲市","醴陵市"
"430382","湖南省湘潭市韶山市","中华人民共和国","湖南省","湘潭市","韶山市"
"430408","湖南省衡阳市蒸湘区","中华人民共和国","湖南省","衡阳市","蒸湘区"
"430423","湖南省衡阳市衡山县","中华人民共和国","湖南省","衡阳市","衡山县"
"430500","湖南省邵阳市","中华人民共和国","湖南省","邵阳市",""
"430522","湖南省邵阳市新邵县","中华人民共和国","湖南省","邵阳市","新邵县"
"430528","湖南省邵阳市新宁县","中华人民共和国","湖南省","邵阳市","新宁县"
"430603","湖南省岳阳市云溪区","中华人民共和国","湖南省","岳阳市","云溪区"
"430626","湖南省岳阳市平江县","中华人民共和国","湖南省","岳阳市","平江县"
"430702","湖南省常德市武陵区","中华人民共和国","湖南省","常德市","武陵区"
"430724","湖南省常德市临澧县","中华人民共和国","湖南省","常德市","临澧县"
"430802","湖南省张家界市永定区","中华人民共和国","湖南省","张家界市","永定区"
"430902","湖南省益阳市资阳区","中华人民共和国","湖南省","益阳市","资阳区"
"431002","湖南省郴州市北湖区","中华人民共和国","湖南省","郴州市","北湖区"
"431024","湖南省郴州市嘉禾县","中华人民共和国","湖南省","郴州市","嘉禾县"
"431081","湖南省郴州市资兴市","中华人民共和国","湖南省","郴州市","资兴市"
"431102","湖南省永州市零陵区","中华人民共和国","湖南省","永州市","零陵区"
"431122","湖南省永州市东安县","中华人民共和国","湖南省","永州市","东安县"
"431125","湖南省永州市江永县","中华人民共和国","湖南省","永州市","江永县"
"431128","湖南省永州市新田县","中华人民共和国","湖南省","永州市","新田县"
"431202","湖南省怀化市鹤城区","中华人民共和国","湖南省","怀化市","鹤城区"
"431223","湖南省怀化市辰溪县","中华人民共和国","湖南省","怀化市","辰溪县"
"431226","湖南省怀化市麻阳苗族自治县","中华人民共和国","湖南省","怀化市","麻阳苗族自治县"
"431228","湖南省怀化市芷江侗族自治县","中华人民共和国","湖南省","怀化市","芷江侗族自治县"
"431281","湖南省怀化市洪江市","中华人民共和国","湖南省","怀化市","洪江市"
"431321","湖南省娄底市双峰县","中华人民共和国","湖南省","娄底市","双峰县"
"431382","湖南省娄底市涟源市","中华人民共和国","湖南省","娄底市","涟源市"
"433101","湖南省湘西土家族苗族自治州吉首市","中华人民共和国","湖南省","湘西土家族苗族自治州","吉首市"
"433124","湖南省湘西土家族苗族自治州花垣县","中华人民共和国","湖南省","湘西土家族苗族自治州","花垣县"
"433126","湖南省湘西土家族苗族自治州古丈县","中华人民共和国","湖南省","湘西土家族苗族自治州","古丈县"
"440100","广东省广州市","中华人民共和国","广东省","广州市",""
"440104","广东省广州市越秀区","中华人民共和国","广东省","广州市","越秀区"
"440111","广东省广州市白云区","中华人民共和国","广东省","广州市","白云区"
"440114","广东省广州市花都区","中华人民共和国","广东省","广州市","花都区"
"440183","广东省广州市增城市","中华人民共和国","广东省","广州市","增城市"
"440204","广东省韶关市浈江区","中华人民共和国","广东省","韶关市","浈江区"
"440224","广东省韶关市仁化县","中华人民共和国","广东省","韶关市","仁化县"
"440281","广东省韶关市乐昌市","中华人民共和国","广东省","韶关市","乐昌市"
"440305","广东省深圳市南山区","中华人民共和国","广东省","深圳市","南山区"
"440310","广东省深圳市坪山新区","中华人民共和国","广东省","深圳市","坪山新区"
"440404","广东省珠海市金湾区","中华人民共和国","广东省","珠海市","金湾区"
"440407","广东省珠海市高栏港经济区","中华人民共和国","广东省","珠海市","高栏港经济区"
"440514","广东省汕头市潮南区","中华人民共和国","广东省","汕头市","潮南区"
"440605","广东省佛山市南海区","中华人民共和国","广东省","佛山市","南海区"
"440703","广东省江门市蓬江区","中华人民共和国","广东省","江门市","蓬江区"
"440784","广东省江门市鹤山市","中华人民共和国","广东省","江门市","鹤山市"
"440804","广东省湛江市坡头区","中华人民共和国","广东省","湛江市","坡头区"
"440882","广东省湛江市雷州市","中华人民共和国","广东省","湛江市","雷州市"
"440981","广东省茂名市高州市","中华人民共和国","广东省","茂名市","高州市"
"441204","广东省肇庆市大旺区","中华人民共和国","广东省","肇庆市","大旺区"
"441224","广东省肇庆市怀集县","中华人民共和国","广东省","肇庆市","怀集县"
"441302","广东省惠州市惠城区","中华人民共和国","广东省","惠州市","惠城区"
"441324","广东省惠州市龙门县","中华人民共和国","广东省","惠州市","龙门县"
"441422","广东省梅州市大埔县","中华人民共和国","广东省","梅州市","大埔县"
"441481","广东省梅州市兴宁市","中华人民共和国","广东省","梅州市","兴宁市"
"441581","广东省汕尾市陆丰市","中华人民共和国","广东省","汕尾市","陆丰市"
"441621","广东省河源市紫金县","中华人民共和国","广东省","河源市","紫金县"
"441702","广东省阳江市江城区","中华人民共和国","广东省","阳江市","江城区"
"441800","广东省清远市","中华人民共和国","广东省","清远市",""
"441821","广东省清远市佛冈县","中华人民共和国","广东省","清远市","佛冈县"
"441826","广东省清远市连南瑶族自治县","中华人民共和国","广东省","清远市","连南瑶族自治县"
"441905","广东省东莞市南城区","中华人民共和国","广东省","东莞市","南城区"
"441910","广东省东莞市石碣镇","中华人民共和国","广东省","东莞市","石碣镇"
"441915","广东省东莞市樟木头镇","中华人民共和国","广东省","东莞市","樟木头镇"
"441920","广东省东莞市黄江镇","中华人民共和国","广东省","东莞市","黄江镇"
"441925","广东省东莞市沙田镇","中华人民共和国","广东省","东莞市","沙田镇"
"441930","广东省东莞市企石镇","中华人民共和国","广东省","东莞市","企石镇"
"442002","广东省中山市石岐区","中华人民共和国","广东省","中山市","石岐区"
"442006","广东省中山市西区","中华人民共和国","广东省","中山市","西区"
"442009","广东省中山市古镇镇","中华人民共和国","广东省","中山市","古镇镇"
"442012","广东省中山市沙溪镇","中华人民共和国","广东省","中山市","沙溪镇"
"442015","广东省中山市东升镇","中华人民共和国","广东省","中山市","东升镇"
"442018","广东省中山市三角镇","中华人民共和国","广东省","中山市","三角镇"
"442021","广东省中山市大涌镇","中华人民共和国","广东省","中山市","大涌镇"
"442024","广东省中山市神湾镇","中华人民共和国","广东省","中山市","神湾镇"
"445102","广东省潮州市湘桥区","中华人民共和国","广东省","潮州市","湘桥区"
"445198","广东省潮州市枫溪区","中华人民共和国","广东省","潮州市","枫溪区"
"445221","广东省揭阳市揭东区","中华人民共和国","广东省","揭阳市","揭东区"
"445281","广东省揭阳市普宁市","中华人民共和国","广东省","揭阳市","普宁市"
"445300","广东省云浮市","中华人民共和国","广东省","云浮市",""
"445322","广东省云浮市郁南县","中华人民共和国","广东省","云浮市","郁南县"
"450000","广西壮族自治区","中华人民共和国","广西壮族自治区","",""
"450102","广西壮族自治区南宁市兴宁区","中华人民共和国","广西壮族自治区","南宁市","兴宁区"
"450107","广西壮族自治区南宁市西乡塘区","中华人民共和国","广西壮族自治区","南宁市","西乡塘区"
"450109","广西壮族自治区南宁市邕宁区","中华人民共和国","广西壮族自治区","南宁市","邕宁区"
"450124","广西壮族自治区南宁市马山县","中华人民共和国","广西壮族自治区","南宁市","马山县"
"450127","广西壮族自治区南宁市横县","中华人民共和国","广西壮族自治区","南宁市","横县"
"450203","广西壮族自治区柳州市鱼峰区","中华人民共和国","广西壮族自治区","柳州市","鱼峰区"
"450205","广西壮族自治区柳州市柳北区","中华人民共和国","广西壮族自治区","柳州市","柳北区"
"450224","广西壮族自治区柳州市融安县","中华人民共和国","广西壮族自治区","柳州市","融安县"
"450302","广西壮族自治区桂林市秀峰区","中华人民共和国","广西壮族自治区","桂林市","秀峰区"
"450305","广西壮族自治区桂林市七星区","中华人民共和国","广西壮族自治区","桂林市","七星区"
"450324","广西壮族自治区桂林市全州县","中华人民共和国","广西壮族自治区","桂林市","全州县"
"450328","广西壮族自治区桂林市龙胜各族自治县","中华人民共和国","广西壮族自治区","桂林市","龙胜各族自治县"
"450400","广西壮族自治区梧州市","中华人民共和国","广西壮族自治区","梧州市",""
"450405","广西壮族自治区梧州市长洲区","中华人民共和国","广西壮族自治区","梧州市","长洲区"
"450481","广西壮族自治区梧州市岑溪市","中华人民共和国","广西壮族自治区","梧州市","岑溪市"
"450512","广西壮族自治区北海市铁山港区","中华人民共和国","广西壮族自治区","北海市","铁山港区"
"450603","广西壮族自治区防城港市防城区","中华人民共和国","广西壮族自治区","防城港市","防城区"
"450703","广西壮族自治区钦州市钦北区","中华人民共和国","广西壮族自治区","钦州市","钦北区"
"450800","广西壮族自治区贵港市","中华人民共和国","广西壮族自治区","贵港市",""
"450821","广西壮族自治区贵港市平南县","中华人民共和国","广西壮族自治区","贵港市","平南县"
"450921","广西壮族自治区玉林市容县","中华人民共和国","广西壮族自治区","玉林市","容县"
"450923","广西壮族自治区玉林市博白县","中华人民共和国","广西壮族自治区","玉林市","博白县"
"451021","广西壮族自治区百色市田阳县","中华人民共和国","广西壮族自治区","百色市","田阳县"
"451025","广西壮族自治区百色市靖西县","中华人民共和国","广西壮族自治区","百色市","靖西县"
"451028","广西壮族自治区百色市乐业县","中华人民共和国","广西壮族自治区","百色市","乐业县"
"451102","广西壮族自治区贺州市八步区","中华人民共和国","广西壮族自治区","贺州市","八步区"
"451123","广西壮族自治区贺州市富川瑶族自治县","中华人民共和国","广西壮族自治区","贺州市","富川瑶族自治县"
"451221","广西壮族自治区河池市南丹县","中华人民共和国","广西壮族自治区","河池市","南丹县"
"451226","广西壮族自治区河池市环江毛南族自治县","中华人民共和国","广西壮族自治区","河池市","环江毛南族自治县"
"451281","广西壮族自治区河池市宜州市","中华人民共和国","广西壮族自治区","河池市","宜州市"
"451322","广西壮族自治区来宾市象州县","中华人民共和国","广西壮族自治区","来宾市","象州县"
"451381","广西壮族自治区来宾市合山市","中华人民共和国","广西壮族自治区","来宾市","合山市"
"451422","广西壮族自治区崇左市宁明县","中华人民共和国","广西壮族自治区","崇左市","宁明县"
"460000","海南省","中华人民共和国","海南省","",""
"460106","海南省海口市龙华区","中华人民共和国","海南省","海口市","龙华区"
"460203","海南省三亚市吉阳区","中华人民共和国","海南省","三亚市","吉阳区"
"460300","海南省省直辖市级行政区划洋浦经济开发区","中华人民共和国","海南省","省直辖市级行政区划","洋浦经济开发区"
"469005","海南省省直辖县级行政区划文昌市","中华人民共和国","海南省","省直辖县级行政区划","文昌市"
"469022","海南省省直辖县级行政区划屯昌县","中华人民共和国","海南省","省直辖县级行政区划","屯昌县"
"469025","海南省省直辖县级行政区划白沙黎族自治县","中华人民共和国","海南省","省直辖县级行政区划","白沙黎族自治县"
"469027","海南省省直辖县级行政区划乐东黎族自治县","中华人民共和国","海南省","省直辖县级行政区划","乐东黎族自治县"
"469030","海南省省直辖县级行政区划琼中黎族苗族自治县","中华人民共和国","海南省","省直辖县级行政区划","琼中黎族苗族自治县"
"469033","海南省省直辖县级行政区划中沙群岛的岛礁及其海域","中华人民共和国","海南省","省直辖县级行政区划","中沙群岛的岛礁及其海域"
"500103","重庆市市辖区渝中区","中华人民共和国","重庆市","市辖区","渝中区"
"500106","重庆市市辖区沙坪坝区","中华人民共和国","重庆市","市辖区","沙坪坝区"
"500109","重庆市市辖区北碚区","中华人民共和国","重庆市","市辖区","北碚区"
"500112","重庆市市辖区渝北区","中华人民共和国","重庆市","市辖区","渝北区"
"500115","重庆市市辖区长寿区","中华人民共和国","重庆市","市辖区","长寿区"
"500118","重庆市市辖区永川区","中华人民共和国","重庆市","市辖区","永川区"
"500199","重庆市市辖区北部新区","中华人民共和国","重庆市","市辖区","北部新区"
"500227","重庆市县璧山县","中华人民共和国","重庆市","县","璧山县"
"500230","重庆市县丰都县","中华人民共和国","重庆市","县","丰都县"
"500233","重庆市县忠县","中华人民共和国","重庆市","县","忠县"
"500237","重庆市县巫山县","中华人民共和国","重庆市","县","巫山县"
"500240","重庆市县石柱土家族自治县","中华人民共和国","重庆市","县","石柱土家族自治县"
"500243","重庆市县彭水苗族土家族自治县","中华人民共和国","重庆市","县","彭水苗族土家族自治县"
"510105","四川省成都市青羊区","中华人民共和国","四川省","成都市","青羊区"
"510112","四川省成都市龙泉驿区","中华人民共和国","四川省","成都市","龙泉驿区"
"510122","四川省成都市双流县","中华人民共和国","四川省","成都市","双流县"
"510181","四川省成都市都江堰市","中华人民共和国","四川省","成都市","都江堰市"
"510304","四川省自贡市大安区","中华人民共和国","四川省","自贡市","大安区"
"510402","四川省攀枝花市东区","中华人民共和国","四川省","攀枝花市","东区"
"510421","四川省攀枝花市米易县","中华人民共和国","四川省","攀枝花市","米易县"
"510521","四川省泸州市泸县","中华人民共和国","四川省","泸州市","泸县"
"320981","江苏省盐城市东台市","中华人民共和国","江苏省","盐城市","东台市"
"321012","江苏省扬州市江都区","中华人民共和国","江苏省","扬州市","江都区"
"321112","江苏省镇江市丹徒区","中华人民共和国","江苏省","镇江市","丹徒区"
"321202","江苏省泰州市海陵区","中华人民共和国","江苏省","泰州市","海陵区"
"321284","江苏省泰州市姜堰区","中华人民共和国","江苏省","泰州市","姜堰区"
"321323","江苏省宿迁市泗阳县","中华人民共和国","江苏省","宿迁市","泗阳县"
"330104","浙江省杭州市江干区","中华人民共和国","浙江省","杭州市","江干区"
"330110","浙江省杭州市余杭区","中华人民共和国","浙江省","杭州市","余杭区"
"330183","浙江省杭州市富阳市","中华人民共和国","浙江省","杭州市","富阳市"
"330211","浙江省宁波市镇海区","中华人民共和国","浙江省","宁波市","镇海区"
"330282","浙江省宁波市慈溪市","中华人民共和国","浙江省","宁波市","慈溪市"
"330304","浙江省温州市瓯海区","中华人民共和国","浙江省","温州市","瓯海区"
"330328","浙江省温州市文成县","中华人民共和国","浙江省","温州市","文成县"
"330402","浙江省嘉兴市南湖区","中华人民共和国","浙江省","嘉兴市","南湖区"
"330482","浙江省嘉兴市平湖市","中华人民共和国","浙江省","嘉兴市","平湖市"
"330521","浙江省湖州市德清县","中华人民共和国","浙江省","湖州市","德清县"
"330604","浙江省绍兴市上虞区","中华人民共和国","浙江省","绍兴市","上虞区"
"330702","浙江省金华市婺城区","中华人民共和国","浙江省","金华市","婺城区"
"330781","浙江省金华市兰溪市","中华人民共和国","浙江省","金华市","兰溪市"
"330802","浙江省衢州市柯城区","中华人民共和国","浙江省","衢州市","柯城区"
"330881","浙江省衢州市江山市","中华人民共和国","浙江省","衢州市","江山市"
"331000","浙江省台州市","中华人民共和国","浙江省","台州市",""
"331022","浙江省台州市三门县","中华人民共和国","浙江省","台州市","三门县"
"110108","北京市市辖区海淀区","中华人民共和国","北京市","市辖区","海淀区"
"110112","北京市市辖区通州区","中华人民共和国","北京市","市辖区","通州区"
"110115","北京市市辖区大兴区","中华人民共和国","北京市","市辖区","大兴区"
"110200","北京市县","中华人民共和国","北京市","县",""
"110229","北京市县延庆县","中华人民共和国","北京市","县","延庆县"
"120102","天津市市辖区河东区","中华人民共和国","天津市","市辖区","河东区"
"120105","天津市市辖区河北区","中华人民共和国","天津市","市辖区","河北区"
"120111","天津市市辖区西青区","中华人民共和国","天津市","市辖区","西青区"
"120114","天津市市辖区武清区","中华人民共和国","天津市","市辖区","武清区"
"120200","天津市县","中华人民共和国","天津市","县",""
"120225","天津市县蓟县","中华人民共和国","天津市","县","蓟县"
"130102","河北省石家庄市长安区","中华人民共和国","河北省","石家庄市","长安区"
"130105","河北省石家庄市新华区","中华人民共和国","河北省","石家庄市","新华区"
"130121","河北省石家庄市井陉县","中华人民共和国","河北省","石家庄市","井陉县"
"130125","河北省石家庄市行唐县","中华人民共和国","河北省","石家庄市","行唐县"
"130128","河北省石家庄市深泽县","中华人民共和国","河北省","石家庄市","深泽县"
"130131","河北省石家庄市平山县","中华人民共和国","河北省","石家庄市","平山县"
"130181","河北省石家庄市辛集市","中华人民共和国","河北省","石家庄市","辛集市"
"130183","河北省石家庄市晋州市","中华人民共和国","河北省","石家庄市","晋州市"
"130202","河北省唐山市路南区","中华人民共和国","河北省","唐山市","路南区"
"130208","河北省唐山市丰润区","中华人民共和国","河北省","唐山市","丰润区"
"130227","河北省唐山市迁西县","中华人民共和国","河北省","唐山市","迁西县"
"130302","河北省秦皇岛市海港区","中华人民共和国","河北省","秦皇岛市","海港区"
"130321","河北省秦皇岛市青龙满族自治县","中华人民共和国","河北省","秦皇岛市","青龙满族自治县"
"130404","河北省邯郸市复兴区","中华人民共和国","河北省","邯郸市","复兴区"
"130425","河北省邯郸市大名县","中华人民共和国","河北省","邯郸市","大名县"
"130430","河北省邯郸市邱县","中华人民共和国","河北省","邯郸市","邱县"
"130435","河北省邯郸市曲周县","中华人民共和国","河北省","邯郸市","曲周县"
"130521","河北省邢台市邢台县","中华人民共和国","河北省","邢台市","邢台县"
"130526","河北省邢台市任县","中华人民共和国","河北省","邢台市","任县"
"130531","河北省邢台市广宗县","中华人民共和国","河北省","邢台市","广宗县"
"130581","河北省邢台市南宫市","中华人民共和国","河北省","邢台市","南宫市"
"130604","河北省保定市南市区","中华人民共和国","河北省","保定市","南市区"
"130625","河北省保定市徐水县","中华人民共和国","河北省","保定市","徐水县"
"130630","河北省保定市涞源县","中华人民共和国","河北省","保定市","涞源县"
"130635","河北省保定市蠡县","中华人民共和国","河北省","保定市","蠡县"
"130682","河北省保定市定州市","中华人民共和国","河北省","保定市","定州市"
"130703","河北省张家口市桥西区","中华人民共和国","河北省","张家口市","桥西区"
"130722","河北省张家口市张北县","中华人民共和国","河北省","张家口市","张北县"
"130727","河北省张家口市阳原县","中华人民共和国","河北省","张家口市","阳原县"
"130732","河北省张家口市赤城县","中华人民共和国","河北省","张家口市","赤城县"
"130804","河北省承德市鹰手营子矿区","中华人民共和国","河北省","承德市","鹰手营子矿区"
"130825","河北省承德市隆化县","中华人民共和国","河北省","承德市","隆化县"
"130828","河北省承德市围场满族蒙古族自治县","中华人民共和国","河北省","承德市","围场满族蒙古族自治县"
"130925","河北省沧州市盐山县","中华人民共和国","河北省","沧州市","盐山县"
"130930","河北省沧州市孟村回族自治县","中华人民共和国","河北省","沧州市","孟村回族自治县"
"131003","河北省廊坊市广阳区","中华人民共和国","河北省","廊坊市","广阳区"
"131026","河北省廊坊市文安县","中华人民共和国","河北省","廊坊市","文安县"
"131082","河北省廊坊市三河市","中华人民共和国","河北省","廊坊市","三河市"
"131124","河北省衡水市饶阳县","中华人民共和国","河北省","衡水市","饶阳县"
"131181","河北省衡水市冀州市","中华人民共和国","河北省","衡水市","冀州市"
"140107","山西省太原市杏花岭区","中华人民共和国","山西省","太原市","杏花岭区"
"140109","山西省太原市万柏林区","中华人民共和国","山西省","太原市","万柏林区"
"140122","山西省太原市阳曲县","中华人民共和国","山西省","太原市","阳曲县"
"140200","山西省大同市","中华人民共和国","山西省","大同市",""
"140211","山西省大同市南郊区","中华人民共和国","山西省","大同市","南郊区"
"140222","山西省大同市天镇县","中华人民共和国","山西省","大同市","天镇县"
"140225","山西省大同市浑源县","中华人民共和国","山西省","大同市","浑源县"
"140300","山西省阳泉市","中华人民共和国","山西省","阳泉市",""
"140303","山西省阳泉市矿区","中华人民共和国","山西省","阳泉市","矿区"
"140322","山西省阳泉市盂县","中华人民共和国","山西省","阳泉市","盂县"
"140421","山西省长治市长治县","中华人民共和国","山西省","长治市","长治县"
"140425","山西省长治市平顺县","中华人民共和国","山西省","长治市","平顺县"
"140428","山西省长治市长子县","中华人民共和国","山西省","长治市","长子县"
"140431","山西省长治市沁源县","中华人民共和国","山西省","长治市","沁源县"
"140502","山西省晋城市城区","中华人民共和国","山西省","晋城市","城区"
"140524","山西省晋城市陵川县","中华人民共和国","山西省","晋城市","陵川县"
"140600","山西省朔州市","中华人民共和国","山西省","朔州市",""
"140621","山西省朔州市山阴县","中华人民共和国","山西省","朔州市","山阴县"
"140624","山西省朔州市怀仁县","中华人民共和国","山西省","朔州市","怀仁县"
"140721","山西省晋中市榆社县","中华人民共和国","山西省","晋中市","榆社县"
"140724","山西省晋中市昔阳县","中华人民共和国","山西省","晋中市","昔阳县"
"140728","山西省晋中市平遥县","中华人民共和国","山西省","晋中市","平遥县"
"140822","山西省运城市万荣县","中华人民共和国","山西省","运城市","万荣县"
"140827","山西省运城市垣曲县","中华人民共和国","山西省","运城市","垣曲县"
"140882","山西省运城市河津市","中华人民共和国","山西省","运城市","河津市"
"140924","山西省忻州市繁峙县","中华人民共和国","山西省","忻州市","繁峙县"
"140929","山西省忻州市岢岚县","中华人民共和国","山西省","忻州市","岢岚县"
"141000","山西省临汾市","中华人民共和国","山西省","临汾市",""
"141022","山西省临汾市翼城县","中华人民共和国","山西省","临汾市","翼城县"
"141027","山西省临汾市浮山县","中华人民共和国","山西省","临汾市","浮山县"
"141032","山西省临汾市永和县","中华人民共和国","山西省","临汾市","永和县"
"141121","山西省吕梁市文水县","中华人民共和国","山西省","吕梁市","文水县"
"141126","山西省吕梁市石楼县","中华人民共和国","山西省","吕梁市","石楼县"
"141181","山西省吕梁市孝义市","中华人民共和国","山西省","吕梁市","孝义市"
"150103","内蒙古自治区呼和浩特市回民区","中华人民共和国","内蒙古自治区","呼和浩特市","回民区"
"150121","内蒙古自治区呼和浩特市土默特左旗","中华人民共和国","内蒙古自治区","呼和浩特市","土默特左旗"
"150125","内蒙古自治区呼和浩特市武川县","中华人民共和国","内蒙古自治区","呼和浩特市","武川县"
"150204","内蒙古自治区包头市青山区","中华人民共和国","内蒙古自治区","包头市","青山区"
"150222","内蒙古自治区包头市固阳县","中华人民共和国","内蒙古自治区","包头市","固阳县"
"150300","内蒙古自治区乌海市","中华人民共和国","内蒙古自治区","乌海市",""
"150304","内蒙古自治区乌海市乌达区","中华人民共和国","内蒙古自治区","乌海市","乌达区"
"150404","内蒙古自治区赤峰市松山区","中华人民共和国","内蒙古自治区","赤峰市","松山区"
"150424","内蒙古自治区赤峰市林西县","中华人民共和国","内蒙古自治区","赤峰市","林西县"
"150428","内蒙古自治区赤峰市喀喇沁旗","中华人民共和国","内蒙古自治区","赤峰市","喀喇沁旗"
"150521","内蒙古自治区通辽市科尔沁左翼中旗","中华人民共和国","内蒙古自治区","通辽市","科尔沁左翼中旗"
"150525","内蒙古自治区通辽市奈曼旗","中华人民共和国","内蒙古自治区","通辽市","奈曼旗"
"150603","内蒙古自治区鄂尔多斯市康巴什新区","中华人民共和国","内蒙古自治区","鄂尔多斯市","康巴什新区"
"150622","内蒙古自治区鄂尔多斯市准格尔旗","中华人民共和国","内蒙古自治区","鄂尔多斯市","准格尔旗"
"150627","内蒙古自治区鄂尔多斯市伊金霍洛旗","中华人民共和国","内蒙古自治区","鄂尔多斯市","伊金霍洛旗"
"150721","内蒙古自治区呼伦贝尔市阿荣旗","中华人民共和国","内蒙古自治区","呼伦贝尔市","阿荣旗"
"150724","内蒙古自治区呼伦贝尔市鄂温克族自治旗","中华人民共和国","内蒙古自治区","呼伦贝尔市","鄂温克族自治旗"
"513229","四川省阿坝藏族羌族自治州马尔康县","中华人民共和国","四川省","阿坝藏族羌族自治州","马尔康县"
"513232","四川省阿坝藏族羌族自治州若尔盖县","中华人民共和国","四川省","阿坝藏族羌族自治州","若尔盖县"
"513321","四川省甘孜藏族自治州康定县","中华人民共和国","四川省","甘孜藏族自治州","康定县"
"513324","四川省甘孜藏族自治州九龙县","中华人民共和国","四川省","甘孜藏族自治州","九龙县"
"513326","四川省甘孜藏族自治州道孚县","中华人民共和国","四川省","甘孜藏族自治州","道孚县"
"513329","四川省甘孜藏族自治州新龙县","中华人民共和国","四川省","甘孜藏族自治州","新龙县"
"513332","四川省甘孜藏族自治州石渠县","中华人民共和国","四川省","甘孜藏族自治州","石渠县"
"513334","四川省甘孜藏族自治州理塘县","中华人民共和国","四川省","甘孜藏族自治州","理塘县"
"513337","四川省甘孜藏族自治州稻城县","中华人民共和国","四川省","甘孜藏族自治州","稻城县"
"513401","四川省凉山彝族自治州西昌市","中华人民共和国","四川省","凉山彝族自治州","西昌市"
"513423","四川省凉山彝族自治州盐源县","中华人民共和国","四川省","凉山彝族自治州","盐源县"
"513426","四川省凉山彝族自治州会东县","中华人民共和国","四川省","凉山彝族自治州","会东县"
"513429","四川省凉山彝族自治州布拖县","中华人民共和国","四川省","凉山彝族自治州","布拖县"
"513432","四川省凉山彝族自治州喜德县","中华人民共和国","四川省","凉山彝族自治州","喜德县"
"513434","四川省凉山彝族自治州越西县","中华人民共和国","四川省","凉山彝族自治州","越西县"
"513437","四川省凉山彝族自治州雷波县","中华人民共和国","四川省","凉山彝族自治州","雷波县"
"520111","贵州省贵阳市花溪区","中华人民共和国","贵州省","贵阳市","花溪区"
"520115","贵州省贵阳市观山湖区","中华人民共和国","贵州省","贵阳市","观山湖区"
"520123","贵州省贵阳市修文县","中华人民共和国","贵州省","贵阳市","修文县"
"520201","贵州省六盘水市钟山区","中华人民共和国","贵州省","六盘水市","钟山区"
"520300","贵州省遵义市","中华人民共和国","贵州省","遵义市",""
"520321","贵州省遵义市遵义县","中华人民共和国","贵州省","遵义市","遵义县"
"520326","贵州省遵义市务川仡佬族苗族自治县","中华人民共和国","贵州省","遵义市","务川仡佬族苗族自治县"
"520381","贵州省遵义市赤水市","中华人民共和国","贵州省","遵义市","赤水市"
"520424","贵州省安顺市关岭布依族苗族自治县","中华人民共和国","贵州省","安顺市","关岭布依族苗族自治县"
"520521","贵州省毕节市大方县","中华人民共和国","贵州省","毕节市","大方县"
"520526","贵州省毕节市威宁彝族回族苗族自治县","中华人民共和国","贵州省","毕节市","威宁彝族回族苗族自治县"
"520623","贵州省铜仁市石阡县","中华人民共和国","贵州省","铜仁市","石阡县"
"520627","贵州省铜仁市沿河土家族自治县","中华人民共和国","贵州省","铜仁市","沿河土家族自治县"
"522301","贵州省黔西南布依族苗族自治州兴义市","中华人民共和国","贵州省","黔西南布依族苗族自治州","兴义市"
"522325","贵州省黔西南布依族苗族自治州贞丰县","中华人民共和国","贵州省","黔西南布依族苗族自治州","贞丰县"
"522328","贵州省黔西南布依族苗族自治州安龙县","中华人民共和国","贵州省","黔西南布依族苗族自治州","安龙县"
"522623","贵州省黔东南苗族侗族自治州施秉县","中华人民共和国","贵州省","黔东南苗族侗族自治州","施秉县"
"522627","贵州省黔东南苗族侗族自治州天柱县","中华人民共和国","贵州省","黔东南苗族侗族自治州","天柱县"
"522630","贵州省黔东南苗族侗族自治州台江县","中华人民共和国","贵州省","黔东南苗族侗族自治州","台江县"
"522634","贵州省黔东南苗族侗族自治州雷山县","中华人民共和国","贵州省","黔东南苗族侗族自治州","雷山县"
"522701","贵州省黔南布依族苗族自治州都匀市","中华人民共和国","贵州省","黔南布依族苗族自治州","都匀市"
"522723","贵州省黔南布依族苗族自治州贵定县","中华人民共和国","贵州省","黔南布依族苗族自治州","贵定县"
"522728","贵州省黔南布依族苗族自治州罗甸县","中华人民共和国","贵州省","黔南布依族苗族自治州","罗甸县"
"522731","贵州省黔南布依族苗族自治州惠水县","中华人民共和国","贵州省","黔南布依族苗族自治州","惠水县"
"530112","云南省昆明市西山区","中华人民共和国","云南省","昆明市","西山区"
"530125","云南省昆明市宜良县","中华人民共和国","云南省","昆明市","宜良县"
"530128","云南省昆明市禄劝彝族苗族自治县","中华人民共和国","云南省","昆明市","禄劝彝族苗族自治县"
"530324","云南省曲靖市罗平县","中华人民共和国","云南省","曲靖市","罗平县"
"530400","云南省玉溪市","中华人民共和国","云南省","玉溪市",""
"530422","云南省玉溪市澄江县","中华人民共和国","云南省","玉溪市","澄江县"
"530427","云南省玉溪市新平彝族傣族自治县","中华人民共和国","云南省","玉溪市","新平彝族傣族自治县"
"530522","云南省保山市腾冲县","中华人民共和国","云南省","保山市","腾冲县"
"530621","云南省昭通市鲁甸县","中华人民共和国","云南省","昭通市","鲁甸县"
"530625","云南省昭通市永善县","中华人民共和国","云南省","昭通市","永善县"
"331082","浙江省台州市临海市","中华人民共和国","浙江省","台州市","临海市"
"331121","浙江省丽水市青田县","中华人民共和国","浙江省","丽水市","青田县"
"331124","浙江省丽水市松阳县","中华人民共和国","浙江省","丽水市","松阳县"
"331127","浙江省丽水市景宁畲族自治县","中华人民共和国","浙江省","丽水市","景宁畲族自治县"
"340102","安徽省合肥市瑶海区","中华人民共和国","安徽省","合肥市","瑶海区"
"340111","安徽省合肥市包河区","中华人民共和国","安徽省","合肥市","包河区"
"340123","安徽省合肥市肥西县","中华人民共和国","安徽省","合肥市","肥西县"
"340202","安徽省芜湖市镜湖区","中华人民共和国","安徽省","芜湖市","镜湖区"
"340208","安徽省芜湖市三山区","中华人民共和国","安徽省","芜湖市","三山区"
"340223","安徽省芜湖市南陵县","中华人民共和国","安徽省","芜湖市","南陵县"
"340302","安徽省蚌埠市龙子湖区","中华人民共和国","安徽省","蚌埠市","龙子湖区"
"340311","安徽省蚌埠市淮上区","中华人民共和国","安徽省","蚌埠市","淮上区"
"340323","安徽省蚌埠市固镇县","中华人民共和国","安徽省","蚌埠市","固镇县"
"340403","安徽省淮南市田家庵区","中华人民共和国","安徽省","淮南市","田家庵区"
"340406","安徽省淮南市潘集区","中华人民共和国","安徽省","淮南市","潘集区"
"340504","安徽省马鞍山市雨山区","中华人民共和国","安徽省","马鞍山市","雨山区"
"340521","安徽省马鞍山市当涂县","中华人民共和国","安徽省","马鞍山市","当涂县"
"340602","安徽省淮北市杜集区","中华人民共和国","安徽省","淮北市","杜集区"
"340621","安徽省淮北市濉溪县","中华人民共和国","安徽省","淮北市","濉溪县"
"340800","安徽省安庆市","中华人民共和国","安徽省","安庆市",""
"340811","安徽省安庆市宜秀区","中华人民共和国","安徽省","安庆市","宜秀区"
"340826","安徽省安庆市宿松县","中华人民共和国","安徽省","安庆市","宿松县"
"341002","安徽省黄山市屯溪区","中华人民共和国","安徽省","黄山市","屯溪区"
"341100","安徽省滁州市","中华人民共和国","安徽省","滁州市",""
"341122","安徽省滁州市来安县","中华人民共和国","安徽省","滁州市","来安县"
"341182","安徽省滁州市明光市","中华人民共和国","安徽省","滁州市","明光市"
"341222","安徽省阜阳市太和县","中华人民共和国","安徽省","阜阳市","太和县"
"341302","安徽省宿州市埇桥区","中华人民共和国","安徽省","宿州市","埇桥区"
"341500","安徽省六安市","中华人民共和国","安徽省","六安市",""
"341523","安徽省六安市舒城县","中华人民共和国","安徽省","六安市","舒城县"
"341621","安徽省亳州市涡阳县","中华人民共和国","安徽省","亳州市","涡阳县"
"341721","安徽省池州市东至县","中华人民共和国","安徽省","池州市","东至县"
"341822","安徽省宣城市广德县","中华人民共和国","安徽省","宣城市","广德县"
"350000","福建省","中华人民共和国","福建省","",""
"350104","福建省福州市仓山区","中华人民共和国","福建省","福州市","仓山区"
"350123","福建省福州市罗源县","中华人民共和国","福建省","福州市","罗源县"
"350182","福建省福州市长乐市","中华人民共和国","福建省","福州市","长乐市"
"350211","福建省厦门市集美区","中华人民共和国","福建省","厦门市","集美区"
"350303","福建省莆田市涵江区","中华人民共和国","福建省","莆田市","涵江区"
"350402","福建省三明市梅列区","中华人民共和国","福建省","三明市","梅列区"
"350425","福建省三明市大田县","中华人民共和国","福建省","三明市","大田县"
"350430","福建省三明市建宁县","中华人民共和国","福建省","三明市","建宁县"
"350506","福建省泉州市泉州台商投资区","中华人民共和国","福建省","泉州市","泉州台商投资区"
"350527","福建省泉州市金门县","中华人民共和国","福建省","泉州市","金门县"
"350602","福建省漳州市芗城区","中华人民共和国","福建省","漳州市","芗城区"
"350625","福建省漳州市长泰县","中华人民共和国","福建省","漳州市","长泰县"
"350681","福建省漳州市龙海市","中华人民共和国","福建省","漳州市","龙海市"
"350723","福建省南平市光泽县","中华人民共和国","福建省","南平市","光泽县"
"350783","福建省南平市建瓯市","中华人民共和国","福建省","南平市","建瓯市"
"350822","福建省龙岩市永定县","中华人民共和国","福建省","龙岩市","永定县"
"350902","福建省宁德市蕉城区","中华人民共和国","福建省","宁德市","蕉城区"
"350925","福建省宁德市周宁县","中华人民共和国","福建省","宁德市","周宁县"
"350982","福建省宁德市福鼎市","中华人民共和国","福建省","宁德市","福鼎市"
"360103","江西省南昌市西湖区","中华人民共和国","江西省","南昌市","西湖区"
"360111","江西省南昌市青山湖区","中华人民共和国","江西省","南昌市","青山湖区"
"360123","江西省南昌市安义县","中华人民共和国","江西省","南昌市","安义县"
"360203","江西省景德镇市珠山区","中华人民共和国","江西省","景德镇市","珠山区"
"360281","江西省景德镇市乐平市","中华人民共和国","江西省","景德镇市","乐平市"
"360321","江西省萍乡市莲花县","中华人民共和国","江西省","萍乡市","莲花县"
"360400","江西省九江市","中华人民共和国","江西省","九江市",""
"360421","江西省九江市九江县","中华人民共和国","江西省","九江市","九江县"
"360425","江西省九江市永修县","中华人民共和国","江西省","九江市","永修县"
"360428","江西省九江市都昌县","中华人民共和国","江西省","九江市","都昌县"
"360481","江西省九江市瑞昌市","中华人民共和国","江西省","九江市","瑞昌市"
"360502","江西省新余市渝水区","中华人民共和国","江西省","新余市","渝水区"
"360602","江西省鹰潭市月湖区","中华人民共和国","江西省","鹰潭市","月湖区"
"360700","江西省赣州市","中华人民共和国","江西省","赣州市",""
"360722","江西省赣州市信丰县","中华人民共和国","江西省","赣州市","信丰县"
"360725","江西省赣州市崇义县","中华人民共和国","江西省","赣州市","崇义县"
"360728","江西省赣州市定南县","中华人民共和国","江西省","赣州市","定南县"
"360732","江西省赣州市兴国县","中华人民共和国","江西省","赣州市","兴国县"
"360782","江西省赣州市南康市","中华人民共和国","江西省","赣州市","南康市"
"360823","江西省吉安市峡江县","中华人民共和国","江西省","吉安市","峡江县"
"360827","江西省吉安市遂川县","中华人民共和国","江西省","吉安市","遂川县"
"360900","江西省宜春市","中华人民共和国","江西省","宜春市",""
"360923","江西省宜春市上高县","中华人民共和国","江西省","宜春市","上高县"
"360982","江西省宜春市樟树市","中华人民共和国","江西省","宜春市","樟树市"
"361022","江西省抚州市黎川县","中华人民共和国","江西省","抚州市","黎川县"
"361027","江西省抚州市金溪县","中华人民共和国","江西省","抚州市","金溪县"
"361102","江西省上饶市信州区","中华人民共和国","江西省","上饶市","信州区"
"361125","江西省上饶市横峰县","中华人民共和国","江西省","上饶市","横峰县"
"361130","江西省上饶市婺源县","中华人民共和国","江西省","上饶市","婺源县"
"370104","山东省济南市槐荫区","中华人民共和国","山东省","济南市","槐荫区"
"370125","山东省济南市济阳县","中华人民共和国","山东省","济南市","济阳县"
"370211","山东省青岛市黄岛区","中华人民共和国","山东省","青岛市","黄岛区"
"370282","山东省青岛市即墨市","中华人民共和国","山东省","青岛市","即墨市"
"370302","山东省淄博市淄川区","中华人民共和国","山东省","淄博市","淄川区"
"370321","山东省淄博市桓台县","中华人民共和国","山东省","淄博市","桓台县"
"370404","山东省枣庄市峄城区","中华人民共和国","山东省","枣庄市","峄城区"
"370481","山东省枣庄市滕州市","中华人民共和国","山东省","枣庄市","滕州市"
"370522","山东省东营市利津县","中华人民共和国","山东省","东营市","利津县"
"370614","山东省烟台市开发区","中华人民共和国","山东省","烟台市","开发区"
"370683","山东省烟台市莱州市","中华人民共和国","山东省","烟台市","莱州市"
"370700","山东省潍坊市","中华人民共和国","山东省","潍坊市",""
"370704","山东省潍坊市坊子区","中华人民共和国","山东省","潍坊市","坊子区"
"370782","山东省潍坊市诸城市","中华人民共和国","山东省","潍坊市","诸城市"
"370802","山东省济宁市市中区","中华人民共和国","山东省","济宁市","市中区"
"370829","山东省济宁市嘉祥县","中华人民共和国","山东省","济宁市","嘉祥县"
"370882","山东省济宁市兖州市","中华人民共和国","山东省","济宁市","兖州市"
"370921","山东省泰安市宁阳县","中华人民共和国","山东省","泰安市","宁阳县"
"371002","山东省威海市环翠区","中华人民共和国","山东省","威海市","环翠区"
"371102","山东省日照市东港区","中华人民共和国","山东省","日照市","东港区"
"371202","山东省莱芜市莱城区","中华人民共和国","山东省","莱芜市","莱城区"
"371312","山东省临沂市河东区","中华人民共和国","山东省","临沂市","河东区"
"371323","山东省临沂市沂水县","中华人民共和国","山东省","临沂市","沂水县"
"371326","山东省临沂市平邑县","中华人民共和国","山东省","临沂市","平邑县"
"371329","山东省临沂市临沭县","中华人民共和国","山东省","临沂市","临沭县"
"371421","山东省德州市陵县","中华人民共和国","山东省","德州市","陵县"
"371424","山东省德州市临邑县","中华人民共和国","山东省","德州市","临邑县"
"371427","山东省德州市夏津县","中华人民共和国","山东省","德州市","夏津县"
"371482","山东省德州市禹城市","中华人民共和国","山东省","德州市","禹城市"
"371521","山东省聊城市阳谷县","中华人民共和国","山东省","聊城市","阳谷县"
"371524","山东省聊城市东阿县","中华人民共和国","山东省","聊城市","东阿县"
"371600","山东省滨州市","中华人民共和国","山东省","滨州市",""
"371621","山东省滨州市惠民县","中华人民共和国","山东省","滨州市","惠民县"
"371624","山东省滨州市沾化县","中华人民共和国","山东省","滨州市","沾化县"
"371700","山东省菏泽市","中华人民共和国","山东省","菏泽市",""
"371722","山东省菏泽市单县","中华人民共和国","山东省","菏泽市","单县"
"371725","山东省菏泽市郓城县","中华人民共和国","山东省","菏泽市","郓城县"
"610821","陕西省榆林市神木县","中华人民共和国","陕西省","榆林市","神木县"
"610825","陕西省榆林市定边县","中华人民共和国","陕西省","榆林市","定边县"
"610830","陕西省榆林市清涧县","中华人民共和国","陕西省","榆林市","清涧县"
"610922","陕西省安康市石泉县","中华人民共和国","陕西省","安康市","石泉县"
"610927","陕西省安康市镇坪县","中华人民共和国","陕西省","安康市","镇坪县"
"611022","陕西省商洛市丹凤县","中华人民共和国","陕西省","商洛市","丹凤县"
"611026","陕西省商洛市柞水县","中华人民共和国","陕西省","商洛市","柞水县"
"620104","甘肃省兰州市西固区","中华人民共和国","甘肃省","兰州市","西固区"
"620123","甘肃省兰州市榆中县","中华人民共和国","甘肃省","兰州市","榆中县"
"620400","甘肃省白银市","中华人民共和国","甘肃省","白银市",""
"620421","甘肃省白银市靖远县","中华人民共和国","甘肃省","白银市","靖远县"
"620521","甘肃省天水市清水县","中华人民共和国","甘肃省","天水市","清水县"
"620602","甘肃省武威市凉州区","中华人民共和国","甘肃省","武威市","凉州区"
"620623","甘肃省武威市天祝藏族自治县","中华人民共和国","甘肃省","武威市","天祝藏族自治县"
"620724","甘肃省张掖市高台县","中华人民共和国","甘肃省","张掖市","高台县"
"620822","甘肃省平凉市灵台县","中华人民共和国","甘肃省","平凉市","灵台县"
"620921","甘肃省酒泉市金塔县","中华人民共和国","甘肃省","酒泉市","金塔县"
"620924","甘肃省酒泉市阿克塞哈萨克族自治县","中华人民共和国","甘肃省","酒泉市","阿克塞哈萨克族自治县"
"621023","甘肃省庆阳市华池县","中华人民共和国","甘肃省","庆阳市","华池县"
"621102","甘肃省定西市安定区","中华人民共和国","甘肃省","定西市","安定区"
"621125","甘肃省定西市漳县","中华人民共和国","甘肃省","定西市","漳县"
"621222","甘肃省陇南市文县","中华人民共和国","甘肃省","陇南市","文县"
"621227","甘肃省陇南市徽县","中华人民共和国","甘肃省","陇南市","徽县"
"622901","甘肃省临夏回族自治州临夏市","中华人民共和国","甘肃省","临夏回族自治州","临夏市"
"622925","甘肃省临夏回族自治州和政县","中华人民共和国","甘肃省","临夏回族自治州","和政县"
"623001","甘肃省甘南藏族自治州合作市","中华人民共和国","甘肃省","甘南藏族自治州","合作市"
"623024","甘肃省甘南藏族自治州迭部县","中华人民共和国","甘肃省","甘南藏族自治州","迭部县"
"623027","甘肃省甘南藏族自治州夏河县","中华人民共和国","甘肃省","甘南藏族自治州","夏河县"
"630102","青海省西宁市城东区","中华人民共和国","青海省","西宁市","城东区"
"630105","青海省西宁市城北区","中华人民共和国","青海省","西宁市","城北区"
"630122","青海省西宁市湟中县","中华人民共和国","青海省","西宁市","湟中县"
"632121","青海省海东市平安县","中华人民共和国","青海省","海东市","平安县"
"632126","青海省海东市互助土族自治县","中华人民共和国","青海省","海东市","互助土族自治县"
"632128","青海省海东市循化撒拉族自治县","中华人民共和国","青海省","海东市","循化撒拉族自治县"
"632222","青海省海北藏族自治州祁连县","中华人民共和国","青海省","海北藏族自治州","祁连县"
"632300","青海省黄南藏族自治州","中华人民共和国","青海省","黄南藏族自治州",""
"632322","青海省黄南藏族自治州尖扎县","中华人民共和国","青海省","黄南藏族自治州","尖扎县"
"632324","青海省黄南藏族自治州河南蒙古族自治县","中华人民共和国","青海省","黄南藏族自治州","河南蒙古族自治县"
"632523","青海省海南藏族自治州贵德县","中华人民共和国","青海省","海南藏族自治州","贵德县"
"632600","青海省果洛藏族自治州","中华人民共和国","青海省","果洛藏族自治州",""
"632622","青海省果洛藏族自治州班玛县","中华人民共和国","青海省","果洛藏族自治州","班玛县"
"632625","青海省果洛藏族自治州久治县","中华人民共和国","青海省","果洛藏族自治州","久治县"
"632721","青海省玉树藏族自治州玉树市","中华人民共和国","青海省","玉树藏族自治州","玉树市"
"632723","青海省玉树藏族自治州称多县","中华人民共和国","青海省","玉树藏族自治州","称多县"
"632726","青海省玉树藏族自治州曲麻莱县","中华人民共和国","青海省","玉树藏族自治州","曲麻莱县"
"632802","青海省海西蒙古族藏族自治州德令哈市","中华人民共和国","青海省","海西蒙古族藏族自治州","德令哈市"
"632822","青海省海西蒙古族藏族自治州都兰县","中华人民共和国","青海省","海西蒙古族藏族自治州","都兰县"
"640104","宁夏回族自治区银川市兴庆区","中华人民共和国","宁夏回族自治区","银川市","兴庆区"
"640106","宁夏回族自治区银川市金凤区","中华人民共和国","宁夏回族自治区","银川市","金凤区"
"640181","宁夏回族自治区银川市灵武市","中华人民共和国","宁夏回族自治区","银川市","灵武市"
"640221","宁夏回族自治区石嘴山市平罗县","中华人民共和国","宁夏回族自治区","石嘴山市","平罗县"
"640323","宁夏回族自治区吴忠市盐池县","中华人民共和国","宁夏回族自治区","吴忠市","盐池县"
"640422","宁夏回族自治区固原市西吉县","中华人民共和国","宁夏回族自治区","固原市","西吉县"
"640425","宁夏回族自治区固原市彭阳县","中华人民共和国","宁夏回族自治区","固原市","彭阳县"
"640522","宁夏回族自治区中卫市海原县","中华人民共和国","宁夏回族自治区","中卫市","海原县"
"650104","新疆维吾尔自治区乌鲁木齐市新市区","中华人民共和国","新疆维吾尔自治区","乌鲁木齐市","新市区"
"650107","新疆维吾尔自治区乌鲁木齐市达坂城区","中华人民共和国","新疆维吾尔自治区","乌鲁木齐市","达坂城区"
"650202","新疆维吾尔自治区克拉玛依市独山子区","中华人民共和国","新疆维吾尔自治区","克拉玛依市","独山子区"
"650205","新疆维吾尔自治区克拉玛依市乌尔禾区","中华人民共和国","新疆维吾尔自治区","克拉玛依市","乌尔禾区"
"652123","新疆维吾尔自治区吐鲁番地区托克逊县","中华人民共和国","新疆维吾尔自治区","吐鲁番地区","托克逊县"
"652222","新疆维吾尔自治区哈密地区巴里坤哈萨克自治县","中华人民共和国","新疆维吾尔自治区","哈密地区","巴里坤哈萨克自治县"
"652323","新疆维吾尔自治区昌吉回族自治州呼图壁县","中华人民共和国","新疆维吾尔自治区","昌吉回族自治州","呼图壁县"
"652327","新疆维吾尔自治区昌吉回族自治州吉木萨尔县","中华人民共和国","新疆维吾尔自治区","昌吉回族自治州","吉木萨尔县"
"652722","新疆维吾尔自治区博尔塔拉蒙古自治州精河县","中华人民共和国","新疆维吾尔自治区","博尔塔拉蒙古自治州","精河县"
"652800","新疆维吾尔自治区巴音郭楞蒙古自治州","中华人民共和国","新疆维吾尔自治区","巴音郭楞蒙古自治州",""
"652823","新疆维吾尔自治区巴音郭楞蒙古自治州尉犁县","中华人民共和国","新疆维吾尔自治区","巴音郭楞蒙古自治州","尉犁县"
"652826","新疆维吾尔自治区巴音郭楞蒙古自治州焉耆回族自治县","中华人民共和国","新疆维吾尔自治区","巴音郭楞蒙古自治州","焉耆回族自治县"
"652901","新疆维吾尔自治区阿克苏地区阿克苏市","中华人民共和国","新疆维吾尔自治区","阿克苏地区","阿克苏市"
"652924","新疆维吾尔自治区阿克苏地区沙雅县","中华人民共和国","新疆维吾尔自治区","阿克苏地区","沙雅县"
"652928","新疆维吾尔自治区阿克苏地区阿瓦提县","中华人民共和国","新疆维吾尔自治区","阿克苏地区","阿瓦提县"
"653001","新疆维吾尔自治区克孜勒苏柯尔克孜自治州阿图什市","中华人民共和国","新疆维吾尔自治区","克孜勒苏柯尔克孜自治州","阿图什市"
"653100","新疆维吾尔自治区喀什地区","中华人民共和国","新疆维吾尔自治区","喀什地区",""
"653121","新疆维吾尔自治区喀什地区疏附县","中华人民共和国","新疆维吾尔自治区","喀什地区","疏附县"
"653125","新疆维吾尔自治区喀什地区莎车县","中华人民共和国","新疆维吾尔自治区","喀什地区","莎车县"
"653128","新疆维吾尔自治区喀什地区岳普湖县","中华人民共和国","新疆维吾尔自治区","喀什地区","岳普湖县"
"653131","新疆维吾尔自治区喀什地区塔什库尔干塔吉克自治县","中华人民共和国","新疆维吾尔自治区","喀什地区","塔什库尔干塔吉克自治县"
"653223","新疆维吾尔自治区和田地区皮山县","中华人民共和国","新疆维吾尔自治区","和田地区","皮山县"
"654000","新疆维吾尔自治区伊犁哈萨克自治州","中华人民共和国","新疆维吾尔自治区","伊犁哈萨克自治州",""
"654326","新疆维吾尔自治区阿勒泰地区吉木乃县","中华人民共和国","新疆维吾尔自治区","阿勒泰地区","吉木乃县"
"659001","新疆维吾尔自治区自治区直辖县级行政区划石河子市","中华人民共和国","新疆维吾尔自治区","自治区直辖县级行政区划","石河子市"
"659003","新疆维吾尔自治区自治区直辖县级行政区划图木舒克市","中华人民共和国","新疆维吾尔自治区","自治区直辖县级行政区划","图木舒克市"
"220200","吉林省吉林市","中华人民共和国","吉林省","吉林市",""
"220283","吉林省吉林市舒兰市","中华人民共和国","吉林省","吉林市","舒兰市"
"220400","吉林省辽源市","中华人民共和国","吉林省","辽源市",""
"230128","黑龙江省哈尔滨市通河县","中华人民共和国","黑龙江省","哈尔滨市","通河县"
"230205","黑龙江省齐齐哈尔市昂昂溪区","中华人民共和国","黑龙江省","齐齐哈尔市","昂昂溪区"
"230230","黑龙江省齐齐哈尔市克东县","中华人民共和国","黑龙江省","齐齐哈尔市","克东县"
"230321","黑龙江省鸡西市鸡东县","中华人民共和国","黑龙江省","鸡西市","鸡东县"
"230422","黑龙江省鹤岗市绥滨县","中华人民共和国","黑龙江省","鹤岗市","绥滨县"
"230523","黑龙江省双鸭山市宝清县","中华人民共和国","黑龙江省","双鸭山市","宝清县"
"230624","黑龙江省大庆市杜尔伯特蒙古族自治县","中华人民共和国","黑龙江省","大庆市","杜尔伯特蒙古族自治县"
"230712","黑龙江省伊春市汤旺河区","中华人民共和国","黑龙江省","伊春市","汤旺河区"
"230811","黑龙江省佳木斯市郊区","中华人民共和国","黑龙江省","佳木斯市","郊区"
"230903","黑龙江省七台河市桃山区","中华人民共和国","黑龙江省","七台河市","桃山区"
"321203","江苏省泰州市高港区","中华人民共和国","江苏省","泰州市","高港区"
"321324","江苏省宿迁市泗洪县","中华人民共和国","江苏省","宿迁市","泗洪县"
"330109","浙江省杭州市萧山区","中华人民共和国","浙江省","杭州市","萧山区"
"330206","浙江省宁波市北仑区","中华人民共和国","浙江省","宁波市","北仑区"
"330303","浙江省温州市龙湾区","中华人民共和国","浙江省","温州市","龙湾区"
"330381","浙江省温州市瑞安市","中华人民共和国","浙江省","温州市","瑞安市"
"330483","浙江省嘉兴市桐乡市","中华人民共和国","浙江省","嘉兴市","桐乡市"
"330624","浙江省绍兴市新昌县","中华人民共和国","浙江省","绍兴市","新昌县"
"330782","浙江省金华市义乌市","中华人民共和国","浙江省","金华市","义乌市"
"330900","浙江省舟山市","中华人民共和国","浙江省","舟山市",""
"331003","浙江省台州市黄岩区","中华人民共和国","浙江省","台州市","黄岩区"
"130207","河北省唐山市丰南区","中华人民共和国","河北省","唐山市","丰南区"
"130300","河北省秦皇岛市","中华人民共和国","河北省","秦皇岛市",""
"130400","河北省邯郸市","中华人民共和国","河北省","邯郸市",""
"131081","河北省廊坊市霸州市","中华人民共和国","河北省","廊坊市","霸州市"
"131127","河北省衡水市景县","中华人民共和国","河北省","衡水市","景县"
"140726","山西省晋中市太谷县","中华人民共和国","山西省","晋中市","太谷县"
"140824","山西省运城市稷山县","中华人民共和国","山西省","运城市","稷山县"
"140902","山西省忻州市忻府区","中华人民共和国","山西省","忻州市","忻府区"
"140930","山西省忻州市河曲县","中华人民共和国","山西省","忻州市","河曲县"
"141023","山西省临汾市襄汾县","中华人民共和国","山西省","临汾市","襄汾县"
"141081","山西省临汾市侯马市","中华人民共和国","山西省","临汾市","侯马市"
"141125","山西省吕梁市柳林县","中华人民共和国","山西省","吕梁市","柳林县"
"150102","内蒙古自治区呼和浩特市新城区","中华人民共和国","内蒙古自治区","呼和浩特市","新城区"
"150202","内蒙古自治区包头市东河区","中华人民共和国","内蒙古自治区","包头市","东河区"
"150224","内蒙古自治区包头市稀土高新区","中华人民共和国","内蒙古自治区","包头市","稀土高新区"
"150421","内蒙古自治区赤峰市阿鲁科尔沁旗","中华人民共和国","内蒙古自治区","赤峰市","阿鲁科尔沁旗"
"522702","贵州省黔南布依族苗族自治州福泉市","中华人民共和国","贵州省","黔南布依族苗族自治州","福泉市"
"530100","云南省昆明市","中华人民共和国","云南省","昆明市",""
"530124","云南省昆明市富民县","中华人民共和国","云南省","昆明市","富民县"
"530129","云南省昆明市寻甸回族彝族自治县","中华人民共和国","云南省","昆明市","寻甸回族彝族自治县"
"530424","云南省玉溪市华宁县","中华人民共和国","云南省","玉溪市","华宁县"
"530521","云南省保山市施甸县","中华人民共和国","云南省","保山市","施甸县"
"530626","云南省昭通市绥江县","中华人民共和国","云南省","昭通市","绥江县"
"340803","安徽省安庆市大观区","中华人民共和国","安徽省","安庆市","大观区"
"341000","安徽省黄山市","中华人民共和国","安徽省","黄山市",""
"341024","安徽省黄山市祁门县","中华人民共和国","安徽省","黄山市","祁门县"
"341202","安徽省阜阳市颍州区","中华人民共和国","安徽省","阜阳市","颍州区"
"341282","安徽省阜阳市界首市","中华人民共和国","安徽省","阜阳市","界首市"
"341522","安徽省六安市霍邱县","中华人民共和国","安徽省","六安市","霍邱县"
"341702","安徽省池州市贵池区","中华人民共和国","安徽省","池州市","贵池区"
"341825","安徽省宣城市旌德县","中华人民共和国","安徽省","宣城市","旌德县"
"361024","江西省抚州市崇仁县","中华人民共和国","江西省","抚州市","崇仁县"
"361121","江西省上饶市上饶县","中华人民共和国","江西省","上饶市","上饶县"
"370000","山东省","中华人民共和国","山东省","",""
"370112","山东省济南市历城区","中华人民共和国","山东省","济南市","历城区"
"370212","山东省青岛市崂山区","中华人民共和国","山东省","青岛市","崂山区"
"370303","山东省淄博市张店区","中华人民共和国","山东省","淄博市","张店区"
"370403","山东省枣庄市薛城区","中华人民共和国","山东省","枣庄市","薛城区"
"370523","山东省东营市广饶县","中华人民共和国","山东省","东营市","广饶县"
"370682","山东省烟台市莱阳市","中华人民共和国","山东省","烟台市","莱阳市"
"370703","山东省潍坊市寒亭区","中华人民共和国","山东省","潍坊市","寒亭区"
"370786","山东省潍坊市昌邑市","中华人民共和国","山东省","潍坊市","昌邑市"
"370881","山东省济宁市曲阜市","中华人民共和国","山东省","济宁市","曲阜市"
"370923","山东省泰安市东平县","中华人民共和国","山东省","泰安市","东平县"
"411303","河南省南阳市卧龙区","中华人民共和国","河南省","南阳市","卧龙区"
"411328","河南省南阳市唐河县","中华人民共和国","河南省","南阳市","唐河县"
"411424","河南省商丘市柘城县","中华人民共和国","河南省","商丘市","柘城县"
"411524","河南省信阳市商城县","中华人民共和国","河南省","信阳市","商城县"
"411624","河南省周口市沈丘县","中华人民共和国","河南省","周口市","沈丘县"
"411721","河南省驻马店市西平县","中华人民共和国","河南省","驻马店市","西平县"
"420802","湖北省荆门市东宝区","中华人民共和国","湖北省","荆门市","东宝区"
"420981","湖北省孝感市应城市","中华人民共和国","湖北省","孝感市","应城市"
"421023","湖北省荆州市监利县","中华人民共和国","湖北省","荆州市","监利县"
"421124","湖北省黄冈市英山县","中华人民共和国","湖北省","黄冈市","英山县"
"421223","湖北省咸宁市崇阳县","中华人民共和国","湖北省","咸宁市","崇阳县"
"422822","湖北省恩施土家族苗族自治州建始县","中华人民共和国","湖北省","恩施土家族苗族自治州","建始县"
"440403","广东省珠海市斗门区","中华人民共和国","广东省","珠海市","斗门区"
"440507","广东省汕头市龙湖区","中华人民共和国","广东省","汕头市","龙湖区"
"440607","广东省佛山市三水区","中华人民共和国","广东省","佛山市","三水区"
"440785","广东省江门市恩平市","中华人民共和国","广东省","江门市","恩平市"
"440884","广东省湛江市开发区","中华人民共和国","广东省","湛江市","开发区"
"441203","广东省肇庆市鼎湖区","中华人民共和国","广东省","肇庆市","鼎湖区"
"441284","广东省肇庆市四会市","中华人民共和国","广东省","肇庆市","四会市"
"441421","广东省梅州市梅县区","中华人民共和国","广东省","梅州市","梅县区"
"441521","广东省汕尾市海丰县","中华人民共和国","广东省","汕尾市","海丰县"
"441623","广东省河源市连平县","中华人民共和国","广东省","河源市","连平县"
"441802","广东省清远市清城区","中华人民共和国","广东省","清远市","清城区"
"441903","广东省东莞市万江区","中华人民共和国","广东省","东莞市","万江区"
"441911","广东省东莞市清溪镇","中华人民共和国","广东省","东莞市","清溪镇"
"510603","四川省德阳市旌阳区","中华人民共和国","四川省","德阳市","旌阳区"
"510683","四川省德阳市绵竹市","中华人民共和国","四川省","德阳市","绵竹市"
"510724","四川省绵阳市安县","中华人民共和国","四川省","绵阳市","安县"
"510781","四川省绵阳市江油市","中华人民共和国","四川省","绵阳市","江油市"
"510821","四川省广元市旺苍县","中华人民共和国","四川省","广元市","旺苍县"
"510903","四川省遂宁市船山区","中华人民共和国","四川省","遂宁市","船山区"
"511011","四川省内江市东兴区","中华人民共和国","四川省","内江市","东兴区"
"511102","四川省乐山市市中区","中华人民共和国","四川省","乐山市","市中区"
"511113","四川省乐山市金口河区","中华人民共和国","四川省","乐山市","金口河区"
"511132","四川省乐山市峨边彝族自治县","中华人民共和国","四川省","乐山市","峨边彝族自治县"
"511304","四川省南充市嘉陵区","中华人民共和国","四川省","南充市","嘉陵区"
"511325","四川省南充市西充县","中华人民共和国","四川省","南充市","西充县"
"511424","四川省眉山市丹棱县","中华人民共和国","四川省","眉山市","丹棱县"
"511521","四川省宜宾市宜宾县","中华人民共和国","四川省","宜宾市","宜宾县"
"511527","四川省宜宾市筠连县","中华人民共和国","四川省","宜宾市","筠连县"
"511603","四川省广安市前锋区","中华人民共和国","四川省","广安市","前锋区"
"511702","四川省达州市通川区","中华人民共和国","四川省","达州市","通川区"
"511725","四川省达州市渠县","中华人民共和国","四川省","达州市","渠县"
"511822","四川省雅安市荥经县","中华人民共和国","四川省","雅安市","荥经县"
"511827","四川省雅安市宝兴县","中华人民共和国","四川省","雅安市","宝兴县"
"511922","四川省巴中市南江县","中华人民共和国","四川省","巴中市","南江县"
"512022","四川省资阳市乐至县","中华人民共和国","四川省","资阳市","乐至县"
"513221","四川省阿坝藏族羌族自治州汶川县","中华人民共和国","四川省","阿坝藏族羌族自治州","汶川县"
"513226","四川省阿坝藏族羌族自治州金川县","中华人民共和国","四川省","阿坝藏族羌族自治州","金川县"
"451121","广西壮族自治区贺州市昭平县","中华人民共和国","广西壮族自治区","贺州市","昭平县"
"451225","广西壮族自治区河池市罗城仫佬族自治县","中华人民共和国","广西壮族自治区","河池市","罗城仫佬族自治县"
"451402","广西壮族自治区崇左市江洲区","中华人民共和国","广西壮族自治区","崇左市","江洲区"
"460105","海南省海口市秀英区","中华人民共和国","海南省","海口市","秀英区"
"469000","海南省省直辖县级行政区划","中华人民共和国","海南省","省直辖县级行政区划",""
"469021","海南省省直辖县级行政区划定安县","中华人民共和国","海南省","省直辖县级行政区划","定安县"
"510132","四川省成都市新津县","中华人民共和国","四川省","成都市","新津县"
"510400","四川省攀枝花市","中华人民共和国","四川省","攀枝花市",""
"510503","四川省泸州市纳溪区","中华人民共和国","四川省","泸州市","纳溪区"
"510623","四川省德阳市中江县","中华人民共和国","四川省","德阳市","中江县"
"510723","四川省绵阳市盐亭县","中华人民共和国","四川省","绵阳市","盐亭县"
"510822","四川省广元市青川县","中华人民共和国","四川省","广元市","青川县"
"511002","四川省内江市市中区","中华人民共和国","四川省","内江市","市中区"
"511123","四川省乐山市犍为县","中华人民共和国","四川省","乐山市","犍为县"
"511302","四川省南充市顺庆区","中华人民共和国","四川省","南充市","顺庆区"
"533423","云南省迪庆藏族自治州维西傈僳族自治县","中华人民共和国","云南省","迪庆藏族自治州","维西傈僳族自治县"
"542125","西藏自治区昌都地区丁青县","中华人民共和国","西藏自治区","昌都地区","丁青县"
"542222","西藏自治区山南地区扎囊县","中华人民共和国","西藏自治区","山南地区","扎囊县"
"542232","西藏自治区山南地区错那县","中华人民共和国","西藏自治区","山南地区","错那县"
"542327","西藏自治区日喀则地区昂仁县","中华人民共和国","西藏自治区","日喀则地区","昂仁县"
"542337","西藏自治区日喀则地区萨嘎县","中华人民共和国","西藏自治区","日喀则地区","萨嘎县"
"542430","西藏自治区那曲地区尼玛县","中华人民共和国","西藏自治区","那曲地区","尼玛县"
"542527","西藏自治区阿里地区措勤县","中华人民共和国","西藏自治区","阿里地区","措勤县"
"610621","陕西省延安市延长县","中华人民共和国","陕西省","延安市","延长县"
"610629","陕西省延安市洛川县","中华人民共和国","陕西省","延安市","洛川县"
"610725","陕西省汉中市勉县","中华人民共和国","陕西省","汉中市","勉县"
"610823","陕西省榆林市横山县","中华人民共和国","陕西省","榆林市","横山县"
"610902","陕西省安康市汉滨区","中华人民共和国","陕西省","安康市","汉滨区"
"610928","陕西省安康市旬阳县","中华人民共和国","陕西省","安康市","旬阳县"
"620000","甘肃省","中华人民共和国","甘肃省","",""
"640402","宁夏回族自治区固原市原州区","中华人民共和国","宁夏回族自治区","固原市","原州区"
"650000","新疆维吾尔自治区","中华人民共和国","新疆维吾尔自治区","",""
"650106","新疆维吾尔自治区乌鲁木齐市头屯河区","中华人民共和国","新疆维吾尔自治区","乌鲁木齐市","头屯河区"
"652122","新疆维吾尔自治区吐鲁番地区鄯善县","中华人民共和国","新疆维吾尔自治区","吐鲁番地区","鄯善县"
"652325","新疆维吾尔自治区昌吉回族自治州奇台县","中华人民共和国","新疆维吾尔自治区","昌吉回族自治州","奇台县"
"652825","新疆维吾尔自治区巴音郭楞蒙古自治州且末县","中华人民共和国","新疆维吾尔自治区","巴音郭楞蒙古自治州","且末县"
"652927","新疆维吾尔自治区阿克苏地区乌什县","中华人民共和国","新疆维吾尔自治区","阿克苏地区","乌什县"
"653024","新疆维吾尔自治区克孜勒苏柯尔克孜自治州乌恰县","中华人民共和国","新疆维吾尔自治区","克孜勒苏柯尔克孜自治州","乌恰县"
"653201","新疆维吾尔自治区和田地区和田市","中华人民共和国","新疆维吾尔自治区","和田地区","和田市"
"530627","云南省昭通市镇雄县","中华人民共和国","云南省","昭通市","镇雄县"
"530630","云南省昭通市水富县","中华人民共和国","云南省","昭通市","水富县"
"530721","云南省丽江市玉龙纳西族自治县","中华人民共和国","云南省","丽江市","玉龙纳西族自治县"
"530800","云南省普洱市","中华人民共和国","云南省","普洱市",""
"530821","云南省普洱市宁洱哈尼族彝族自治县","中华人民共和国","云南省","普洱市","宁洱哈尼族彝族自治县"
"530824","云南省普洱市景谷傣族彝族自治县","中华人民共和国","云南省","普洱市","景谷傣族彝族自治县"
"530826","云南省普洱市江城哈尼族彝族自治县","中华人民共和国","云南省","普洱市","江城哈尼族彝族自治县"
"530829","云南省普洱市西盟佤族自治县","中华人民共和国","云南省","普洱市","西盟佤族自治县"
"530921","云南省临沧市凤庆县","中华人民共和国","云南省","临沧市","凤庆县"
"530925","云南省临沧市双江拉祜族佤族布朗族傣族自治县","中华人民共和国","云南省","临沧市","双江拉祜族佤族布朗族傣族自治县"
"532300","云南省楚雄彝族自治州","中华人民共和国","云南省","楚雄彝族自治州",""
"532322","云南省楚雄彝族自治州双柏县","中华人民共和国","云南省","楚雄彝族自治州","双柏县"
"532325","云南省楚雄彝族自治州姚安县","中华人民共和国","云南省","楚雄彝族自治州","姚安县"
"532327","云南省楚雄彝族自治州永仁县","中华人民共和国","云南省","楚雄彝族自治州","永仁县"
"532331","云南省楚雄彝族自治州禄丰县","中华人民共和国","云南省","楚雄彝族自治州","禄丰县"
"532502","云南省红河哈尼族彝族自治州开远市","中华人民共和国","云南省","红河哈尼族彝族自治州","开远市"
"532523","云南省红河哈尼族彝族自治州屏边苗族自治县","中华人民共和国","云南省","红河哈尼族彝族自治州","屏边苗族自治县"
"532526","云南省红河哈尼族彝族自治州弥勒市","中华人民共和国","云南省","红河哈尼族彝族自治州","弥勒市"
"532529","云南省红河哈尼族彝族自治州红河县","中华人民共和国","云南省","红河哈尼族彝族自治州","红河县"
"532531","云南省红河哈尼族彝族自治州绿春县","中华人民共和国","云南省","红河哈尼族彝族自治州","绿春县"
"532600","云南省文山壮族苗族自治州","中华人民共和国","云南省","文山壮族苗族自治州",""
"532622","云南省文山壮族苗族自治州砚山县","中华人民共和国","云南省","文山壮族苗族自治州","砚山县"
"532626","云南省文山壮族苗族自治州丘北县","中华人民共和国","云南省","文山壮族苗族自治州","丘北县"
"532822","云南省西双版纳傣族自治州勐海县","中华人民共和国","云南省","西双版纳傣族自治州","勐海县"
"532922","云南省大理白族自治州漾濞彝族自治县","中华人民共和国","云南省","大理白族自治州","漾濞彝族自治县"
"532926","云南省大理白族自治州南涧彝族自治县","中华人民共和国","云南省","大理白族自治州","南涧彝族自治县"
"532930","云南省大理白族自治州洱源县","中华人民共和国","云南省","大理白族自治州","洱源县"
"533100","云南省德宏傣族景颇族自治州","中华人民共和国","云南省","德宏傣族景颇族自治州",""
"533122","云南省德宏傣族景颇族自治州梁河县","中华人民共和国","云南省","德宏傣族景颇族自治州","梁河县"
"533321","云南省怒江傈僳族自治州泸水县","中华人民共和国","云南省","怒江傈僳族自治州","泸水县"
"533325","云南省怒江傈僳族自治州兰坪白族普米族自治县","中华人民共和国","云南省","怒江傈僳族自治州","兰坪白族普米族自治县"
"540102","西藏自治区拉萨市城关区","中华人民共和国","西藏自治区","拉萨市","城关区"
"540125","西藏自治区拉萨市堆龙德庆县","中华人民共和国","西藏自治区","拉萨市","堆龙德庆县"
"542121","西藏自治区昌都地区昌都县","中华人民共和国","西藏自治区","昌都地区","昌都县"
"542126","西藏自治区昌都地区察雅县","中华人民共和国","西藏自治区","昌都地区","察雅县"
"542129","西藏自治区昌都地区芒康县","中华人民共和国","西藏自治区","昌都地区","芒康县"
"542221","西藏自治区山南地区乃东县","中华人民共和国","西藏自治区","山南地区","乃东县"
"542226","西藏自治区山南地区曲松县","中华人民共和国","西藏自治区","山南地区","曲松县"
"542231","西藏自治区山南地区隆子县","中华人民共和国","西藏自治区","山南地区","隆子县"
"542322","西藏自治区日喀则地区南木林县","中华人民共和国","西藏自治区","日喀则地区","南木林县"
"542325","西藏自治区日喀则地区萨迦县","中华人民共和国","西藏自治区","日喀则地区","萨迦县"
"542329","西藏自治区日喀则地区白朗县","中华人民共和国","西藏自治区","日喀则地区","白朗县"
"542334","西藏自治区日喀则地区亚东县","中华人民共和国","西藏自治区","日喀则地区","亚东县"
"542336","西藏自治区日喀则地区聂拉木县","中华人民共和国","西藏自治区","日喀则地区","聂拉木县"
"542423","西藏自治区那曲地区比如县","中华人民共和国","西藏自治区","那曲地区","比如县"
"542426","西藏自治区那曲地区申扎县","中华人民共和国","西藏自治区","那曲地区","申扎县"
"542431","西藏自治区那曲地区双湖县","中华人民共和国","西藏自治区","那曲地区","双湖县"
"542523","西藏自治区阿里地区噶尔县","中华人民共和国","西藏自治区","阿里地区","噶尔县"
"542600","西藏自治区林芝地区","中华人民共和国","西藏自治区","林芝地区",""
"542623","西藏自治区林芝地区米林县","中华人民共和国","西藏自治区","林芝地区","米林县"
"542627","西藏自治区林芝地区朗县","中华人民共和国","西藏自治区","林芝地区","朗县"
"610100","陕西省西安市","中华人民共和国","陕西省","西安市",""
"610103","陕西省西安市碑林区","中华人民共和国","陕西省","西安市","碑林区"
"610112","陕西省西安市未央区","中华人民共和国","陕西省","西安市","未央区"
"610115","陕西省西安市临潼区","中华人民共和国","陕西省","西安市","临潼区"
"610124","陕西省西安市周至县","中华人民共和国","陕西省","西安市","周至县"
"610202","陕西省铜川市王益区","中华人民共和国","陕西省","铜川市","王益区"
"610222","陕西省铜川市宜君县","中华人民共和国","陕西省","铜川市","宜君县"
"610303","陕西省宝鸡市金台区","中华人民共和国","陕西省","宝鸡市","金台区"
"610323","陕西省宝鸡市岐山县","中华人民共和国","陕西省","宝鸡市","岐山县"
"610327","陕西省宝鸡市陇县","中华人民共和国","陕西省","宝鸡市","陇县"
"610330","陕西省宝鸡市凤县","中华人民共和国","陕西省","宝鸡市","凤县"
"610402","陕西省咸阳市秦都区","中华人民共和国","陕西省","咸阳市","秦都区"
"610423","陕西省咸阳市泾阳县","中华人民共和国","陕西省","咸阳市","泾阳县"
"610427","陕西省咸阳市彬县","中华人民共和国","陕西省","咸阳市","彬县"
"610429","陕西省咸阳市旬邑县","中华人民共和国","陕西省","咸阳市","旬邑县"
"610481","陕西省咸阳市兴平市","中华人民共和国","陕西省","咸阳市","兴平市"
"610522","陕西省渭南市潼关县","中华人民共和国","陕西省","渭南市","潼关县"
"610525","陕西省渭南市澄城县","中华人民共和国","陕西省","渭南市","澄城县"
"610528","陕西省渭南市富平县","中华人民共和国","陕西省","渭南市","富平县"
"610602","陕西省延安市宝塔区","中华人民共和国","陕西省","延安市","宝塔区"
"610625","陕西省延安市志丹县","中华人民共和国","陕西省","延安市","志丹县"
"610630","陕西省延安市宜川县","中华人民共和国","陕西省","延安市","宜川县"
"610721","陕西省汉中市南郑县","中华人民共和国","陕西省","汉中市","南郑县"
"610726","陕西省汉中市宁强县","中华人民共和国","陕西省","汉中市","宁强县"
